{"type": "FeatureCollection", "features": [{"type": "Feature", "properties": {"ED_ID": "01001", "ED_NAME": "Carlow Urban", "COUNTY": "Carlow", "CONSTITUENCY_2024": "Carlow-Kilkenny", "CONSTITUENCY_SEATS": 5, "POPULATION_2022": 20504, "HOUSEHOLDS": 8202}, "geometry": {"type": "Polygon", "coordinates": [[[-6.9261, 52.8386], [-6.9361, 52.8386], [-6.9361, 52.8286], [-6.9261, 52.8286], [-6.9261, 52.8386]]]}}, {"type": "Feature", "properties": {"ED_ID": "01002", "ED_NAME": "Carlow Rural", "COUNTY": "Carlow", "CONSTITUENCY_2024": "Carlow-Kilkenny", "CONSTITUENCY_SEATS": 5, "POPULATION_2022": 3789, "HOUSEHOLDS": 1516}, "geometry": {"type": "Polygon", "coordinates": [[[-6.9561, 52.8586], [-6.9661, 52.8586], [-6.9661, 52.8486], [-6.9561, 52.8486], [-6.9561, 52.8586]]]}}, {"type": "Feature", "properties": {"ED_ID": "02001", "ED_NAME": "Cavan", "COUNTY": "Cavan", "CONSTITUENCY_2024": "Cavan-Monaghan", "CONSTITUENCY_SEATS": 5, "POPULATION_2022": 4356, "HOUSEHOLDS": 1742}, "geometry": {"type": "Polygon", "coordinates": [[[-7.3603, 53.9907], [-7.3703, 53.9907], [-7.3703, 53.9807], [-7.3603, 53.9807], [-7.3603, 53.9907]]]}}, {"type": "Feature", "properties": {"ED_ID": "03001", "ED_NAME": "Ennis No. 1 Urban", "COUNTY": "Clare", "CONSTITUENCY_2024": "Clare", "CONSTITUENCY_SEATS": 4, "POPULATION_2022": 8742, "HOUSEHOLDS": 3497}, "geometry": {"type": "Polygon", "coordinates": [[[-8.9861, 52.843], [-8.9961, 52.843], [-8.9961, 52.833], [-8.9861, 52.833], [-8.9861, 52.843]]]}}, {"type": "Feature", "properties": {"ED_ID": "04001", "ED_NAME": "Cork City North A", "COUNTY": "Cork City", "CONSTITUENCY_2024": "Cork East", "CONSTITUENCY_SEATS": 4, "POPULATION_2022": 3456, "HOUSEHOLDS": 1382}, "geometry": {"type": "Polygon", "coordinates": [[[-8.4756, 51.9014], [-8.4856, 51.9014], [-8.4856, 51.8914], [-8.4756, 51.8914], [-8.4756, 51.9014]]]}}, {"type": "Feature", "properties": {"ED_ID": "04002", "ED_NAME": "Cork City South A", "COUNTY": "Cork City", "CONSTITUENCY_2024": "Cork East", "CONSTITUENCY_SEATS": 4, "POPULATION_2022": 2987, "HOUSEHOLDS": 1195}, "geometry": {"type": "Polygon", "coordinates": [[[-8.4656, 51.8914], [-8.4756, 51.8914], [-8.4756, 51.8814], [-8.4656, 51.8814], [-8.4656, 51.8914]]]}}, {"type": "Feature", "properties": {"ED_ID": "07001", "ED_NAME": "Dublin City Artane A", "COUNTY": "Dublin City", "CONSTITUENCY_2024": "Dublin Bay North", "CONSTITUENCY_SEATS": 5, "POPULATION_2022": 3254, "HOUSEHOLDS": 1302}, "geometry": {"type": "Polygon", "coordinates": [[[-6.1914, 53.3849], [-6.2014, 53.3849], [-6.2014, 53.3749], [-6.1914, 53.3749], [-6.1914, 53.3849]]]}}, {"type": "Feature", "properties": {"ED_ID": "07002", "ED_NAME": "Dublin City Artane B", "COUNTY": "Dublin City", "CONSTITUENCY_2024": "Dublin Bay North", "CONSTITUENCY_SEATS": 5, "POPULATION_2022": 4123, "HOUSEHOLDS": 1649}, "geometry": {"type": "Polygon", "coordinates": [[[-6.2014, 53.3849], [-6.2114, 53.3849], [-6.2114, 53.3749], [-6.2014, 53.3749], [-6.2014, 53.3849]]]}}, {"type": "Feature", "properties": {"ED_ID": "07003", "ED_NAME": "Rathmines West A", "COUNTY": "Dublin City", "CONSTITUENCY_2024": "Dublin Bay South", "CONSTITUENCY_SEATS": 4, "POPULATION_2022": 2876, "HOUSEHOLDS": 1150}, "geometry": {"type": "Polygon", "coordinates": [[[-6.2658, 53.325], [-6.2758, 53.325], [-6.2758, 53.315], [-6.2658, 53.315], [-6.2658, 53.325]]]}}, {"type": "Feature", "properties": {"ED_ID": "07004", "ED_NAME": "Rathmines West B", "COUNTY": "Dublin City", "CONSTITUENCY_2024": "Dublin Bay South", "CONSTITUENCY_SEATS": 4, "POPULATION_2022": 3012, "HOUSEHOLDS": 1205}, "geometry": {"type": "Polygon", "coordinates": [[[-6.2758, 53.325], [-6.2858, 53.325], [-6.2858, 53.315], [-6.2758, 53.315], [-6.2758, 53.325]]]}}, {"type": "Feature", "properties": {"ED_ID": "07005", "ED_NAME": "Rathmines West C", "COUNTY": "Dublin City", "CONSTITUENCY_2024": "Dublin Bay South", "CONSTITUENCY_SEATS": 4, "POPULATION_2022": 1234, "HOUSEHOLDS": 494}, "geometry": {"type": "Polygon", "coordinates": [[[-6.2658, 53.315], [-6.2758, 53.315], [-6.2758, 53.305], [-6.2658, 53.305], [-6.2658, 53.315]]]}}, {"type": "Feature", "properties": {"ED_ID": "10001", "ED_NAME": "Galway City East", "COUNTY": "Galway City", "CONSTITUENCY_2024": "Galway West", "CONSTITUENCY_SEATS": 5, "POPULATION_2022": 5678, "HOUSEHOLDS": 2271}, "geometry": {"type": "Polygon", "coordinates": [[[-9.03, 53.275], [-9.04, 53.275], [-9.04, 53.265], [-9.03, 53.265], [-9.03, 53.275]]]}}, {"type": "Feature", "properties": {"ED_ID": "13001", "ED_NAME": "Killarney Urban", "COUNTY": "Kerry", "CONSTITUENCY_2024": "Kerry", "CONSTITUENCY_SEATS": 5, "POPULATION_2022": 6543, "HOUSEHOLDS": 2617}, "geometry": {"type": "Polygon", "coordinates": [[[-9.5074, 52.0583], [-9.5174, 52.0583], [-9.5174, 52.0483], [-9.5074, 52.0483], [-9.5074, 52.0583]]]}}, {"type": "Feature", "properties": {"ED_ID": "15001", "ED_NAME": "Portlaoise Urban", "COUNTY": "Laois", "CONSTITUENCY_2024": "Laois-Offaly", "CONSTITUENCY_SEATS": 5, "POPULATION_2022": 8123, "HOUSEHOLDS": 3249}, "geometry": {"type": "Polygon", "coordinates": [[[-7.2994, 53.0341], [-7.3094, 53.0341], [-7.3094, 53.0241], [-7.2994, 53.0241], [-7.2994, 53.0341]]]}}, {"type": "Feature", "properties": {"ED_ID": "16001", "ED_NAME": "Limerick City North A", "COUNTY": "Limerick City", "CONSTITUENCY_2024": "Clare", "CONSTITUENCY_SEATS": 4, "POPULATION_2022": 3456, "HOUSEHOLDS": 1382}, "geometry": {"type": "Polygon", "coordinates": [[[-8.6233, 52.67], [-8.6333, 52.67], [-8.6333, 52.66], [-8.6233, 52.66], [-8.6233, 52.67]]]}}], "_metadata": {"source": "CSO Census 2022 / Electoral Commission 2023", "simplified": true, "coordinate_precision": 5}}