{"type":"FeatureCollection","_metadata":{"description":"Dáil constituency boundaries under the 1998 boundary regime (simplified pedagogical outline)","regime_year":1998,"data_status":"real-sourced-data","source":{"catalogue":"Civgraph (civgraph.net), map layer dail-1998","geometry_url":"https://data.civgraph.net/data/maps/parliamentary/1998_Dail.fgb","provider":"Phelim Birch (digitisation, via Civgraph)","arcgis_source":null,"licence":"CC BY-SA 4.0 (Civgraph digitised layers); see _static/data/dail_boundaries/NOTICE.md","retrieved":"2026-07-14"},"processing":"Reprojected to EPSG:4326 where needed; simplified with mapshaper (visvalingam weighted, 0.1% retained, keep-shapes, clean), coordinates rounded to 3 decimal places (~70-110 m). Outline only - not for legal or survey use."},"features":[{"type":"Feature","geometry":{"type":"Polygon","coordinates":[[[-8.661,52.03],[-8.661,52.039],[-8.6,52.062],[-8.561,52.042],[-8.536,52.058],[-8.496,52.063],[-8.453,52.032],[-8.453,52.014],[-8.43,52],[-8.374,52.013],[-8.35,51.952],[-8.332,51.933],[-8.325,51.895],[-8.339,51.88],[-8.328,51.866],[-8.32,51.844],[-8.257,51.857],[-8.181,51.86],[-8.199,51.844],[-8.238,51.838],[-8.252,51.794],[-8.178,51.795],[-8.136,51.804],[-8.062,51.809],[-8.001,51.827],[-8.021,51.846],[-7.997,51.861],[-7.865,51.883],[-7.887,51.911],[-7.842,51.941],[-7.855,51.98],[-7.863,51.975],[-7.865,51.976],[-7.876,51.972],[-7.88,51.975],[-7.882,51.975],[-7.884,51.977],[-7.887,51.975],[-7.888,51.977],[-7.892,51.975],[-7.894,51.976],[-7.898,51.975],[-7.899,51.976],[-7.902,51.975],[-7.903,51.975],[-7.908,51.974],[-7.909,51.975],[-7.91,51.974],[-7.911,51.974],[-7.915,51.977],[-7.918,51.976],[-7.919,51.976],[-7.92,51.976],[-7.922,51.982],[-7.928,52.008],[-7.929,52.008],[-7.93,52.009],[-7.931,52.009],[-7.936,52.013],[-7.94,52.014],[-7.957,52.023],[-7.959,52.023],[-7.961,52.024],[-7.957,52.036],[-7.972,52.033],[-7.973,52.033],[-7.981,52.036],[-7.987,52.035],[-7.987,52.036],[-7.988,52.038],[-7.991,52.04],[-7.992,52.041],[-7.994,52.042],[-7.997,52.043],[-7.998,52.044],[-7.999,52.044],[-8.008,52.051],[-8.009,52.051],[-8.012,52.051],[-8.013,52.051],[-8.014,52.051],[-8.015,52.052],[-8.016,52.052],[-8.017,52.053],[-8.022,52.055],[-8.022,52.056],[-8.022,52.058],[-8.021,52.067],[-8.016,52.07],[-8.014,52.074],[-8.015,52.075],[-8.016,52.082],[-8.021,52.082],[-8.02,52.084],[-8.022,52.084],[-8.021,52.087],[-8.022,52.089],[-8.024,52.089],[-8.026,52.096],[-8.027,52.095],[-8.028,52.099],[-8.027,52.1],[-8.027,52.101],[-8.028,52.101],[-8.028,52.102],[-8.028,52.103],[-8.033,52.103],[-8.034,52.103],[-8.036,52.103],[-8.037,52.103],[-8.046,52.115],[-8.049,52.115],[-8.05,52.115],[-8.053,52.115],[-8.056,52.116],[-8.057,52.116],[-8.058,52.116],[-8.059,52.116],[-8.06,52.116],[-8.063,52.116],[-8.065,52.116],[-8.066,52.116],[-8.067,52.117],[-8.068,52.117],[-8.069,52.117],[-8.07,52.117],[-8.071,52.126],[-8.08,52.125],[-8.081,52.127],[-8.083,52.129],[-8.078,52.137],[-8.075,52.132],[-8.071,52.126],[-8.073,52.144],[-8.085,52.139],[-8.086,52.139],[-8.089,52.139],[-8.095,52.139],[-8.096,52.143],[-8.097,52.143],[-8.11,52.141],[-8.111,52.145],[-8.125,52.143],[-8.126,52.143],[-8.143,52.141],[-8.145,52.141],[-8.157,52.141],[-8.159,52.141],[-8.162,52.141],[-8.156,52.145],[-8.154,52.146],[-8.152,52.165],[-8.15,52.165],[-8.149,52.165],[-8.148,52.165],[-8.146,52.165],[-8.145,52.165],[-8.144,52.165],[-8.143,52.165],[-8.142,52.164],[-8.142,52.165],[-8.141,52.165],[-8.139,52.164],[-8.138,52.164],[-8.134,52.17],[-8.132,52.172],[-8.131,52.173],[-8.13,52.173],[-8.129,52.175],[-8.126,52.179],[-8.121,52.198],[-8.124,52.201],[-8.105,52.206],[-8.103,52.231],[-8.161,52.242],[-8.183,52.288],[-8.251,52.296],[-8.285,52.287],[-8.312,52.322],[-8.341,52.329],[-8.386,52.295],[-8.441,52.293],[-8.505,52.28],[-8.535,52.287],[-8.565,52.306],[-8.557,52.281],[-8.572,52.251],[-8.607,52.253],[-8.667,52.267],[-8.686,52.242],[-8.716,52.241],[-8.737,52.202],[-8.77,52.179],[-8.765,52.157],[-8.79,52.144],[-8.775,52.127],[-8.718,52.133],[-8.678,52.119],[-8.645,52.091],[-8.686,52.075],[-8.688,52.047],[-8.661,52.03]]]},"properties":{"name":"Cork East","name_ga":"Corcaigh Thoir","seats":4}},{"type":"Feature","geometry":{"type":"Polygon","coordinates":[[[-8.105,52.206],[-8.101,52.206],[-8.1,52.206],[-8.099,52.205],[-8.096,52.206],[-8.094,52.206],[-8.089,52.207],[-8.085,52.206],[-8.084,52.206],[-8.082,52.207],[-8.08,52.206],[-8.077,52.208],[-8.075,52.207],[-8.073,52.208],[-8.072,52.207],[-8.069,52.207],[-8.067,52.207],[-8.065,52.208],[-8.063,52.207],[-8.06,52.209],[-8.059,52.209],[-8.058,52.209],[-8.056,52.207],[-8.053,52.208],[-8.052,52.208],[-8.051,52.208],[-8.05,52.208],[-8.045,52.207],[-8.043,52.208],[-8.041,52.208],[-8.039,52.208],[-8.038,52.208],[-8.036,52.208],[-8.034,52.207],[-8.021,52.208],[-8.018,52.206],[-8.017,52.206],[-8.015,52.205],[-8.014,52.205],[-8.01,52.204],[-8.009,52.204],[-8.006,52.202],[-8.003,52.202],[-7.99,52.21],[-7.991,52.235],[-7.991,52.237],[-7.988,52.242],[-7.98,52.238],[-7.969,52.242],[-7.967,52.242],[-7.942,52.246],[-7.926,52.235],[-7.915,52.228],[-7.906,52.228],[-7.895,52.225],[-7.894,52.225],[-7.892,52.225],[-7.876,52.23],[-7.866,52.224],[-7.85,52.227],[-7.836,52.225],[-7.824,52.222],[-7.821,52.221],[-7.82,52.221],[-7.811,52.211],[-7.791,52.221],[-7.79,52.221],[-7.789,52.221],[-7.788,52.221],[-7.787,52.221],[-7.786,52.221],[-7.785,52.221],[-7.784,52.221],[-7.783,52.22],[-7.782,52.22],[-7.781,52.22],[-7.78,52.219],[-7.779,52.219],[-7.778,52.219],[-7.777,52.218],[-7.776,52.218],[-7.775,52.218],[-7.774,52.218],[-7.773,52.218],[-7.772,52.218],[-7.768,52.219],[-7.767,52.219],[-7.767,52.218],[-7.766,52.218],[-7.765,52.217],[-7.764,52.217],[-7.763,52.217],[-7.762,52.216],[-7.761,52.216],[-7.759,52.215],[-7.758,52.215],[-7.756,52.216],[-7.753,52.216],[-7.751,52.216],[-7.75,52.216],[-7.747,52.22],[-7.748,52.225],[-7.749,52.225],[-7.75,52.229],[-7.75,52.23],[-7.751,52.233],[-7.752,52.233],[-7.748,52.251],[-7.75,52.254],[-7.751,52.254],[-7.753,52.256],[-7.755,52.259],[-7.763,52.271],[-7.764,52.271],[-7.766,52.271],[-7.766,52.272],[-7.768,52.271],[-7.768,52.272],[-7.774,52.271],[-7.777,52.273],[-7.778,52.274],[-7.781,52.273],[-7.781,52.275],[-7.793,52.311],[-7.792,52.311],[-7.788,52.312],[-7.782,52.313],[-7.781,52.312],[-7.778,52.312],[-7.781,52.306],[-7.779,52.307],[-7.778,52.307],[-7.773,52.305],[-7.772,52.305],[-7.77,52.305],[-7.769,52.305],[-7.754,52.306],[-7.753,52.306],[-7.748,52.306],[-7.745,52.306],[-7.742,52.305],[-7.737,52.305],[-7.733,52.304],[-7.726,52.304],[-7.724,52.304],[-7.72,52.304],[-7.719,52.303],[-7.636,52.319],[-7.609,52.333],[-7.56,52.34],[-7.572,52.358],[-7.551,52.362],[-7.55,52.362],[-7.544,52.36],[-7.531,52.36],[-7.527,52.36],[-7.522,52.36],[-7.52,52.359],[-7.517,52.359],[-7.501,52.354],[-7.5,52.354],[-7.499,52.354],[-7.497,52.354],[-7.494,52.353],[-7.493,52.353],[-7.491,52.353],[-7.488,52.353],[-7.483,52.351],[-7.48,52.351],[-7.475,52.35],[-7.469,52.35],[-7.468,52.35],[-7.456,52.351],[-7.453,52.35],[-7.446,52.35],[-7.438,52.345],[-7.437,52.34],[-7.436,52.339],[-7.435,52.34],[-7.434,52.339],[-7.432,52.339],[-7.432,52.338],[-7.428,52.338],[-7.427,52.338],[-7.42,52.339],[-7.416,52.342],[-7.406,52.338],[-7.405,52.338],[-7.392,52.335],[-7.391,52.335],[-7.39,52.335],[-7.383,52.334],[-7.382,52.334],[-7.379,52.336],[-7.378,52.337],[-7.378,52.336],[-7.377,52.337],[-7.376,52.336],[-7.376,52.341],[-7.374,52.341],[-7.372,52.343],[-7.397,52.364],[-7.382,52.42],[-7.425,52.452],[-7.432,52.455],[-7.468,52.472],[-7.433,52.496],[-7.457,52.524],[-7.451,52.582],[-7.481,52.602],[-7.512,52.588],[-7.564,52.6],[-7.565,52.558],[-7.579,52.545],[-7.623,52.556],[-7.647,52.547],[-7.673,52.559],[-7.812,52.544],[-7.848,52.535],[-7.892,52.54],[-7.894,52.572],[-7.946,52.587],[-7.994,52.578],[-8.02,52.591],[-8.087,52.581],[-8.098,52.566],[-8.141,52.552],[-8.165,52.573],[-8.224,52.572],[-8.24,52.512],[-8.286,52.522],[-8.319,52.506],[-8.36,52.511],[-8.396,52.484],[-8.405,52.465],[-8.381,52.436],[-8.314,52.436],[-8.283,52.401],[-8.232,52.411],[-8.228,52.386],[-8.193,52.364],[-8.168,52.368],[-8.169,52.292],[-8.183,52.288],[-8.161,52.242],[-8.103,52.231],[-8.105,52.206]]]},"properties":{"name":"Tipperary South","name_ga":"Tiobraid Árann Theas","seats":3}},{"type":"Feature","geometry":{"type":"Polygon","coordinates":[[[-7.855,51.98],[-7.83,51.941],[-7.721,51.939],[-7.708,51.969],[-7.614,51.981],[-7.587,51.991],[-7.586,52.019],[-7.552,52.054],[-7.587,52.051],[-7.636,52.082],[-7.588,52.1],[-7.545,52.095],[-7.5,52.103],[-7.442,52.127],[-7.37,52.139],[-7.292,52.141],[-7.218,52.132],[-7.171,52.137],[-7.131,52.169],[-7.099,52.169],[-7.079,52.156],[-7.108,52.134],[-7.023,52.133],[-6.965,52.175],[-6.983,52.189],[-6.966,52.241],[-6.988,52.25],[-6.998,52.275],[-7,52.276],[-7.038,52.256],[-7.066,52.257],[-7.068,52.257],[-7.091,52.252],[-7.092,52.253],[-7.097,52.257],[-7.101,52.266],[-7.1,52.267],[-7.1,52.266],[-7.1,52.267],[-7.096,52.266],[-7.099,52.269],[-7.099,52.27],[-7.1,52.27],[-7.105,52.268],[-7.116,52.267],[-7.123,52.268],[-7.124,52.268],[-7.125,52.268],[-7.13,52.269],[-7.133,52.269],[-7.137,52.272],[-7.14,52.273],[-7.142,52.274],[-7.144,52.275],[-7.146,52.276],[-7.148,52.277],[-7.151,52.279],[-7.153,52.28],[-7.219,52.243],[-7.246,52.263],[-7.256,52.264],[-7.258,52.264],[-7.301,52.304],[-7.309,52.32],[-7.313,52.322],[-7.345,52.335],[-7.346,52.335],[-7.36,52.343],[-7.367,52.343],[-7.372,52.343],[-7.374,52.341],[-7.376,52.341],[-7.376,52.336],[-7.377,52.337],[-7.378,52.336],[-7.378,52.337],[-7.379,52.336],[-7.382,52.334],[-7.383,52.334],[-7.39,52.335],[-7.391,52.335],[-7.392,52.335],[-7.405,52.338],[-7.406,52.338],[-7.416,52.342],[-7.42,52.339],[-7.427,52.338],[-7.428,52.338],[-7.432,52.338],[-7.432,52.339],[-7.434,52.339],[-7.435,52.34],[-7.436,52.339],[-7.437,52.34],[-7.438,52.345],[-7.446,52.35],[-7.453,52.35],[-7.456,52.351],[-7.468,52.35],[-7.469,52.35],[-7.475,52.35],[-7.48,52.351],[-7.483,52.351],[-7.488,52.353],[-7.491,52.353],[-7.493,52.353],[-7.494,52.353],[-7.497,52.354],[-7.499,52.354],[-7.5,52.354],[-7.501,52.354],[-7.517,52.359],[-7.52,52.359],[-7.522,52.36],[-7.527,52.36],[-7.531,52.36],[-7.544,52.36],[-7.55,52.362],[-7.551,52.362],[-7.572,52.358],[-7.56,52.34],[-7.609,52.333],[-7.636,52.319],[-7.719,52.303],[-7.72,52.304],[-7.724,52.304],[-7.726,52.304],[-7.733,52.304],[-7.737,52.305],[-7.742,52.305],[-7.745,52.306],[-7.748,52.306],[-7.753,52.306],[-7.754,52.306],[-7.769,52.305],[-7.77,52.305],[-7.772,52.305],[-7.773,52.305],[-7.778,52.307],[-7.779,52.307],[-7.781,52.306],[-7.778,52.312],[-7.781,52.312],[-7.782,52.313],[-7.788,52.312],[-7.792,52.311],[-7.793,52.311],[-7.781,52.275],[-7.781,52.273],[-7.778,52.274],[-7.777,52.273],[-7.774,52.271],[-7.768,52.272],[-7.768,52.271],[-7.766,52.272],[-7.766,52.271],[-7.764,52.271],[-7.763,52.271],[-7.755,52.259],[-7.753,52.256],[-7.751,52.254],[-7.75,52.254],[-7.748,52.251],[-7.752,52.233],[-7.751,52.233],[-7.75,52.23],[-7.75,52.229],[-7.749,52.225],[-7.748,52.225],[-7.747,52.22],[-7.75,52.216],[-7.751,52.216],[-7.753,52.216],[-7.756,52.216],[-7.758,52.215],[-7.759,52.215],[-7.761,52.216],[-7.762,52.216],[-7.763,52.217],[-7.764,52.217],[-7.765,52.217],[-7.766,52.218],[-7.767,52.218],[-7.767,52.219],[-7.768,52.219],[-7.772,52.218],[-7.773,52.218],[-7.774,52.218],[-7.775,52.218],[-7.776,52.218],[-7.777,52.218],[-7.778,52.219],[-7.779,52.219],[-7.78,52.219],[-7.781,52.22],[-7.782,52.22],[-7.783,52.22],[-7.784,52.221],[-7.785,52.221],[-7.786,52.221],[-7.787,52.221],[-7.788,52.221],[-7.789,52.221],[-7.79,52.221],[-7.791,52.221],[-7.811,52.211],[-7.82,52.221],[-7.821,52.221],[-7.824,52.222],[-7.836,52.225],[-7.85,52.227],[-7.866,52.224],[-7.876,52.23],[-7.892,52.225],[-7.894,52.225],[-7.895,52.225],[-7.906,52.228],[-7.915,52.228],[-7.926,52.235],[-7.942,52.246],[-7.967,52.242],[-7.969,52.242],[-7.98,52.238],[-7.988,52.242],[-7.991,52.237],[-7.991,52.235],[-7.99,52.21],[-8.003,52.202],[-8.006,52.202],[-8.009,52.204],[-8.01,52.204],[-8.014,52.205],[-8.015,52.205],[-8.017,52.206],[-8.018,52.206],[-8.021,52.208],[-8.034,52.207],[-8.036,52.208],[-8.038,52.208],[-8.039,52.208],[-8.041,52.208],[-8.043,52.208],[-8.045,52.207],[-8.05,52.208],[-8.051,52.208],[-8.052,52.208],[-8.053,52.208],[-8.056,52.207],[-8.058,52.209],[-8.059,52.209],[-8.06,52.209],[-8.063,52.207],[-8.065,52.208],[-8.067,52.207],[-8.069,52.207],[-8.072,52.207],[-8.073,52.208],[-8.075,52.207],[-8.077,52.208],[-8.08,52.206],[-8.082,52.207],[-8.084,52.206],[-8.085,52.206],[-8.089,52.207],[-8.094,52.206],[-8.096,52.206],[-8.099,52.205],[-8.1,52.206],[-8.101,52.206],[-8.105,52.206],[-8.124,52.201],[-8.121,52.198],[-8.126,52.179],[-8.129,52.175],[-8.13,52.173],[-8.131,52.173],[-8.132,52.172],[-8.134,52.17],[-8.138,52.164],[-8.139,52.164],[-8.141,52.165],[-8.142,52.165],[-8.142,52.164],[-8.143,52.165],[-8.144,52.165],[-8.145,52.165],[-8.146,52.165],[-8.148,52.165],[-8.149,52.165],[-8.15,52.165],[-8.152,52.165],[-8.154,52.146],[-8.156,52.145],[-8.162,52.141],[-8.159,52.141],[-8.157,52.141],[-8.145,52.141],[-8.143,52.141],[-8.126,52.143],[-8.125,52.143],[-8.111,52.145],[-8.11,52.141],[-8.097,52.143],[-8.096,52.143],[-8.095,52.139],[-8.089,52.139],[-8.086,52.139],[-8.085,52.139],[-8.073,52.144],[-8.071,52.126],[-8.075,52.132],[-8.078,52.137],[-8.083,52.129],[-8.081,52.127],[-8.08,52.125],[-8.071,52.126],[-8.07,52.117],[-8.069,52.117],[-8.068,52.117],[-8.067,52.117],[-8.066,52.116],[-8.065,52.116],[-8.063,52.116],[-8.06,52.116],[-8.059,52.116],[-8.058,52.116],[-8.057,52.116],[-8.056,52.116],[-8.053,52.115],[-8.05,52.115],[-8.049,52.115],[-8.046,52.115],[-8.037,52.103],[-8.036,52.103],[-8.034,52.103],[-8.033,52.103],[-8.028,52.103],[-8.028,52.102],[-8.028,52.101],[-8.027,52.101],[-8.027,52.1],[-8.028,52.099],[-8.027,52.095],[-8.026,52.096],[-8.024,52.089],[-8.022,52.089],[-8.021,52.087],[-8.022,52.084],[-8.02,52.084],[-8.021,52.082],[-8.016,52.082],[-8.015,52.075],[-8.014,52.074],[-8.016,52.07],[-8.021,52.067],[-8.022,52.058],[-8.022,52.056],[-8.022,52.055],[-8.017,52.053],[-8.016,52.052],[-8.015,52.052],[-8.014,52.051],[-8.013,52.051],[-8.012,52.051],[-8.009,52.051],[-8.008,52.051],[-7.999,52.044],[-7.998,52.044],[-7.997,52.043],[-7.994,52.042],[-7.992,52.041],[-7.991,52.04],[-7.988,52.038],[-7.987,52.036],[-7.987,52.035],[-7.981,52.036],[-7.973,52.033],[-7.972,52.033],[-7.957,52.036],[-7.961,52.024],[-7.959,52.023],[-7.957,52.023],[-7.94,52.014],[-7.936,52.013],[-7.931,52.009],[-7.93,52.009],[-7.929,52.008],[-7.928,52.008],[-7.922,51.982],[-7.92,51.976],[-7.919,51.976],[-7.918,51.976],[-7.915,51.977],[-7.911,51.974],[-7.91,51.974],[-7.909,51.975],[-7.908,51.974],[-7.903,51.975],[-7.902,51.975],[-7.899,51.976],[-7.898,51.975],[-7.894,51.976],[-7.892,51.975],[-7.888,51.977],[-7.887,51.975],[-7.884,51.977],[-7.882,51.975],[-7.88,51.975],[-7.876,51.972],[-7.865,51.976],[-7.863,51.975],[-7.855,51.98]]]},"properties":{"name":"Waterford","name_ga":"Port Láirge","seats":4}},{"type":"Feature","geometry":{"type":"Polygon","coordinates":[[[-7.481,52.602],[-7.475,52.611],[-7.521,52.655],[-7.537,52.691],[-7.553,52.703],[-7.646,52.735],[-7.668,52.754],[-7.674,52.781],[-7.697,52.832],[-7.735,52.858],[-7.726,52.887],[-7.664,52.923],[-7.702,52.934],[-7.73,52.958],[-7.802,52.982],[-7.826,52.973],[-7.862,52.943],[-7.845,52.932],[-7.884,52.9],[-7.964,52.857],[-7.989,52.855],[-8,52.881],[-8.04,52.889],[-8.04,52.938],[-7.993,52.931],[-7.975,52.949],[-7.993,52.999],[-7.95,52.995],[-7.964,53.042],[-7.943,53.044],[-7.922,53.083],[-7.926,53.107],[-7.956,53.125],[-8.081,53.167],[-8.124,53.16],[-8.148,53.145],[-8.174,53.112],[-8.219,53.068],[-8.268,53.056],[-8.278,53.019],[-8.317,52.985],[-8.285,52.973],[-8.338,52.915],[-8.408,52.913],[-8.418,52.875],[-8.455,52.847],[-8.443,52.787],[-8.48,52.757],[-8.465,52.704],[-8.428,52.678],[-8.407,52.69],[-8.361,52.679],[-8.306,52.694],[-8.253,52.682],[-8.229,52.665],[-8.189,52.671],[-8.194,52.648],[-8.215,52.632],[-8.214,52.595],[-8.224,52.572],[-8.165,52.573],[-8.141,52.552],[-8.098,52.566],[-8.087,52.581],[-8.02,52.591],[-7.994,52.578],[-7.946,52.587],[-7.894,52.572],[-7.892,52.54],[-7.848,52.535],[-7.812,52.544],[-7.673,52.559],[-7.647,52.547],[-7.623,52.556],[-7.579,52.545],[-7.565,52.558],[-7.564,52.6],[-7.512,52.588],[-7.481,52.602]]]},"properties":{"name":"Tipperary North","name_ga":"Tiobraid Árann Thuaidh","seats":3}},{"type":"Feature","geometry":{"type":"Polygon","coordinates":[[[-7.674,52.781],[-7.614,52.792],[-7.617,52.809],[-7.579,52.829],[-7.557,52.814],[-7.449,52.787],[-7.431,52.802],[-7.399,52.796],[-7.388,52.819],[-7.345,52.839],[-7.31,52.866],[-7.259,52.849],[-7.189,52.894],[-7.14,52.869],[-7.141,52.848],[-7.121,52.826],[-7.099,52.827],[-7.039,52.808],[-6.972,52.809],[-6.971,52.809],[-6.951,52.816],[-6.934,52.843],[-6.932,52.845],[-6.932,52.846],[-6.932,52.847],[-6.932,52.848],[-6.933,52.848],[-6.939,52.88],[-6.935,52.915],[-6.98,52.978],[-7.016,52.968],[-7.054,52.978],[-7.088,52.999],[-7.069,53.021],[-7.045,53.073],[-7.061,53.106],[-7.097,53.141],[-7.065,53.16],[-7.064,53.16],[-7.063,53.162],[-7.099,53.187],[-7.036,53.19],[-7.038,53.208],[-7.013,53.218],[-7.055,53.243],[-7.019,53.253],[-7.035,53.276],[-7.013,53.296],[-6.978,53.308],[-7.013,53.328],[-7.015,53.328],[-7.044,53.357],[-7.088,53.368],[-7.081,53.382],[-7.098,53.382],[-7.192,53.423],[-7.216,53.407],[-7.268,53.398],[-7.399,53.33],[-7.423,53.335],[-7.456,53.318],[-7.472,53.333],[-7.567,53.361],[-7.567,53.378],[-7.625,53.418],[-7.662,53.408],[-7.717,53.36],[-7.772,53.347],[-7.826,53.356],[-7.883,53.349],[-7.923,53.363],[-7.942,53.343],[-7.983,53.338],[-8.056,53.274],[-7.983,53.24],[-7.967,53.226],[-7.993,53.193],[-8.062,53.188],[-8.081,53.167],[-7.956,53.125],[-7.926,53.107],[-7.922,53.083],[-7.943,53.044],[-7.964,53.042],[-7.95,52.995],[-7.993,52.999],[-7.975,52.949],[-7.993,52.931],[-8.04,52.938],[-8.04,52.889],[-8,52.881],[-7.989,52.855],[-7.964,52.857],[-7.884,52.9],[-7.845,52.932],[-7.862,52.943],[-7.826,52.973],[-7.802,52.982],[-7.73,52.958],[-7.702,52.934],[-7.664,52.923],[-7.726,52.887],[-7.735,52.858],[-7.697,52.832],[-7.674,52.781]]]},"properties":{"name":"Laoighis-Offaly","name_ga":"Laois-Uíbh Fhailí","seats":5}},{"type":"Feature","geometry":{"type":"Polygon","coordinates":[[[-6.812,53.398],[-6.795,53.385],[-6.819,53.358],[-6.862,53.358],[-6.885,53.335],[-6.846,53.325],[-6.797,53.323],[-6.773,53.295],[-6.742,53.306],[-6.726,53.285],[-6.676,53.259],[-6.702,53.237],[-6.708,53.203],[-6.655,53.189],[-6.593,53.198],[-6.549,53.188],[-6.518,53.189],[-6.509,53.214],[-6.475,53.234],[-6.518,53.249],[-6.528,53.314],[-6.501,53.321],[-6.491,53.357],[-6.491,53.358],[-6.475,53.363],[-6.46,53.388],[-6.494,53.384],[-6.547,53.405],[-6.573,53.389],[-6.61,53.399],[-6.65,53.395],[-6.669,53.408],[-6.754,53.429],[-6.791,53.418],[-6.812,53.398]]]},"properties":{"name":"Kildare North","name_ga":"Cill Dara Thuaidh","seats":3}},{"type":"Feature","geometry":{"type":"Polygon","coordinates":[[[-6.939,52.88],[-6.88,52.858],[-6.81,52.872],[-6.788,52.866],[-6.751,52.889],[-6.73,52.927],[-6.743,52.948],[-6.792,52.992],[-6.766,53.009],[-6.731,53.047],[-6.733,53.065],[-6.629,53.092],[-6.574,53.13],[-6.576,53.149],[-6.544,53.17],[-6.549,53.188],[-6.593,53.198],[-6.655,53.189],[-6.708,53.203],[-6.702,53.237],[-6.676,53.259],[-6.726,53.285],[-6.742,53.306],[-6.773,53.295],[-6.797,53.323],[-6.846,53.325],[-6.885,53.335],[-6.862,53.358],[-6.819,53.358],[-6.795,53.385],[-6.812,53.398],[-6.883,53.415],[-6.915,53.437],[-6.963,53.451],[-7.009,53.436],[-7.034,53.409],[-7.074,53.396],[-7.081,53.382],[-7.088,53.368],[-7.044,53.357],[-7.015,53.328],[-7.013,53.328],[-6.978,53.308],[-7.013,53.296],[-7.035,53.276],[-7.019,53.253],[-7.055,53.243],[-7.013,53.218],[-7.038,53.208],[-7.036,53.19],[-7.099,53.187],[-7.063,53.162],[-7.064,53.16],[-7.065,53.16],[-7.097,53.141],[-7.061,53.106],[-7.045,53.073],[-7.069,53.021],[-7.088,52.999],[-7.054,52.978],[-7.016,52.968],[-6.98,52.978],[-6.935,52.915],[-6.939,52.88]]]},"properties":{"name":"Kildare South","name_ga":"Cill Dara Theas","seats":3}},{"type":"Feature","geometry":{"type":"Polygon","coordinates":[[[-7.372,52.343],[-7.367,52.343],[-7.36,52.343],[-7.346,52.335],[-7.345,52.335],[-7.313,52.322],[-7.309,52.32],[-7.301,52.304],[-7.258,52.264],[-7.256,52.264],[-7.246,52.263],[-7.219,52.243],[-7.153,52.28],[-7.151,52.279],[-7.148,52.277],[-7.146,52.276],[-7.144,52.275],[-7.142,52.274],[-7.14,52.273],[-7.137,52.272],[-7.133,52.269],[-7.13,52.269],[-7.125,52.268],[-7.124,52.268],[-7.123,52.268],[-7.116,52.267],[-7.105,52.268],[-7.1,52.27],[-7.099,52.27],[-7.099,52.269],[-7.096,52.266],[-7.1,52.267],[-7.1,52.266],[-7.1,52.267],[-7.101,52.266],[-7.097,52.257],[-7.092,52.253],[-7.091,52.252],[-7.068,52.257],[-7.066,52.257],[-7.038,52.256],[-7,52.276],[-7.018,52.295],[-6.986,52.324],[-6.992,52.364],[-6.965,52.378],[-6.915,52.43],[-6.917,52.464],[-6.884,52.466],[-6.863,52.479],[-6.778,52.58],[-6.772,52.625],[-6.73,52.643],[-6.679,52.637],[-6.653,52.664],[-6.68,52.668],[-6.62,52.709],[-6.654,52.746],[-6.657,52.769],[-6.702,52.787],[-6.69,52.832],[-6.703,52.848],[-6.743,52.855],[-6.769,52.845],[-6.788,52.866],[-6.81,52.872],[-6.88,52.858],[-6.939,52.88],[-6.933,52.848],[-6.932,52.848],[-6.932,52.847],[-6.932,52.846],[-6.932,52.845],[-6.934,52.843],[-6.951,52.816],[-6.971,52.809],[-6.972,52.809],[-7.039,52.808],[-7.099,52.827],[-7.121,52.826],[-7.141,52.848],[-7.14,52.869],[-7.189,52.894],[-7.259,52.849],[-7.31,52.866],[-7.345,52.839],[-7.388,52.819],[-7.399,52.796],[-7.431,52.802],[-7.449,52.787],[-7.557,52.814],[-7.579,52.829],[-7.617,52.809],[-7.614,52.792],[-7.674,52.781],[-7.668,52.754],[-7.646,52.735],[-7.553,52.703],[-7.537,52.691],[-7.521,52.655],[-7.475,52.611],[-7.481,52.602],[-7.451,52.582],[-7.457,52.524],[-7.433,52.496],[-7.468,52.472],[-7.432,52.455],[-7.425,52.452],[-7.382,52.42],[-7.397,52.364],[-7.372,52.343]]]},"properties":{"name":"Carlow-Kilkenny","name_ga":"Ceatharlach-Cill Chainnigh","seats":5}},{"type":"Feature","geometry":{"type":"Polygon","coordinates":[[[-6.966,52.241],[-6.921,52.218],[-6.902,52.196],[-6.901,52.155],[-6.83,52.172],[-6.83,52.222],[-6.797,52.24],[-6.786,52.204],[-6.755,52.214],[-6.682,52.219],[-6.658,52.214],[-6.596,52.177],[-6.491,52.191],[-6.418,52.187],[-6.36,52.174],[-6.35,52.203],[-6.314,52.24],[-6.335,52.255],[-6.364,52.251],[-6.412,52.298],[-6.446,52.307],[-6.451,52.346],[-6.436,52.356],[-6.386,52.356],[-6.364,52.368],[-6.351,52.411],[-6.294,52.465],[-6.216,52.53],[-6.195,52.562],[-6.209,52.602],[-6.229,52.625],[-6.225,52.648],[-6.197,52.688],[-6.159,52.715],[-6.145,52.738],[-6.174,52.748],[-6.181,52.768],[-6.182,52.768],[-6.243,52.778],[-6.261,52.795],[-6.292,52.782],[-6.318,52.797],[-6.369,52.795],[-6.413,52.778],[-6.433,52.735],[-6.498,52.69],[-6.57,52.684],[-6.574,52.705],[-6.62,52.709],[-6.68,52.668],[-6.653,52.664],[-6.679,52.637],[-6.73,52.643],[-6.772,52.625],[-6.778,52.58],[-6.863,52.479],[-6.884,52.466],[-6.917,52.464],[-6.915,52.43],[-6.965,52.378],[-6.992,52.364],[-6.986,52.324],[-7.018,52.295],[-7,52.276],[-6.998,52.275],[-6.988,52.25],[-6.966,52.241]]]},"properties":{"name":"Wexford","name_ga":"Loch Garman","seats":5}},{"type":"Feature","geometry":{"type":"Polygon","coordinates":[[[-6.549,53.188],[-6.544,53.17],[-6.576,53.149],[-6.574,53.13],[-6.629,53.092],[-6.733,53.065],[-6.731,53.047],[-6.766,53.009],[-6.792,52.992],[-6.743,52.948],[-6.73,52.927],[-6.751,52.889],[-6.788,52.866],[-6.769,52.845],[-6.743,52.855],[-6.703,52.848],[-6.69,52.832],[-6.702,52.787],[-6.657,52.769],[-6.654,52.746],[-6.62,52.709],[-6.574,52.705],[-6.57,52.684],[-6.498,52.69],[-6.433,52.735],[-6.413,52.778],[-6.369,52.795],[-6.318,52.797],[-6.292,52.782],[-6.261,52.795],[-6.243,52.778],[-6.182,52.768],[-6.181,52.768],[-6.174,52.748],[-6.145,52.738],[-6.138,52.758],[-6.141,52.801],[-6.11,52.835],[-6.057,52.859],[-6.065,52.869],[-6.021,52.925],[-6.008,52.972],[-6.048,52.993],[-6.048,53.033],[-6.034,53.07],[-6.042,53.12],[-6.07,53.154],[-6.08,53.192],[-6.103,53.211],[-6.137,53.199],[-6.162,53.203],[-6.182,53.221],[-6.24,53.202],[-6.276,53.211],[-6.291,53.222],[-6.292,53.223],[-6.296,53.224],[-6.298,53.224],[-6.299,53.224],[-6.3,53.224],[-6.302,53.225],[-6.305,53.225],[-6.311,53.222],[-6.308,53.212],[-6.312,53.194],[-6.32,53.188],[-6.327,53.183],[-6.327,53.182],[-6.33,53.179],[-6.332,53.178],[-6.333,53.178],[-6.334,53.179],[-6.346,53.181],[-6.347,53.181],[-6.375,53.192],[-6.368,53.214],[-6.371,53.215],[-6.373,53.215],[-6.375,53.216],[-6.376,53.216],[-6.395,53.213],[-6.397,53.212],[-6.401,53.21],[-6.401,53.209],[-6.402,53.209],[-6.402,53.208],[-6.403,53.208],[-6.403,53.209],[-6.401,53.211],[-6.403,53.213],[-6.406,53.217],[-6.407,53.218],[-6.41,53.216],[-6.411,53.216],[-6.411,53.217],[-6.412,53.218],[-6.414,53.219],[-6.414,53.223],[-6.42,53.231],[-6.442,53.231],[-6.475,53.234],[-6.509,53.214],[-6.518,53.189],[-6.549,53.188]]]},"properties":{"name":"Wicklow","name_ga":"Cill Mhantáin","seats":5}},{"type":"Feature","geometry":{"type":"Polygon","coordinates":[[[-6.298,53.224],[-6.296,53.225],[-6.296,53.226],[-6.295,53.226],[-6.295,53.227],[-6.295,53.228],[-6.294,53.229],[-6.294,53.23],[-6.294,53.231],[-6.293,53.231],[-6.293,53.232],[-6.293,53.233],[-6.293,53.234],[-6.292,53.234],[-6.291,53.235],[-6.29,53.236],[-6.289,53.236],[-6.289,53.237],[-6.288,53.237],[-6.288,53.238],[-6.288,53.239],[-6.29,53.24],[-6.291,53.241],[-6.292,53.241],[-6.292,53.242],[-6.293,53.242],[-6.294,53.242],[-6.295,53.243],[-6.297,53.244],[-6.297,53.261],[-6.322,53.262],[-6.328,53.267],[-6.327,53.268],[-6.327,53.269],[-6.326,53.269],[-6.327,53.27],[-6.331,53.274],[-6.331,53.275],[-6.331,53.277],[-6.331,53.279],[-6.335,53.28],[-6.336,53.281],[-6.337,53.281],[-6.337,53.288],[-6.326,53.29],[-6.323,53.29],[-6.319,53.292],[-6.318,53.292],[-6.318,53.293],[-6.315,53.294],[-6.314,53.294],[-6.313,53.292],[-6.312,53.292],[-6.311,53.293],[-6.31,53.294],[-6.31,53.295],[-6.311,53.295],[-6.31,53.295],[-6.31,53.296],[-6.306,53.295],[-6.292,53.299],[-6.321,53.307],[-6.323,53.308],[-6.326,53.31],[-6.329,53.313],[-6.329,53.314],[-6.33,53.314],[-6.331,53.315],[-6.332,53.316],[-6.333,53.317],[-6.342,53.313],[-6.345,53.31],[-6.346,53.309],[-6.347,53.308],[-6.35,53.305],[-6.353,53.306],[-6.357,53.308],[-6.361,53.31],[-6.363,53.313],[-6.368,53.318],[-6.369,53.319],[-6.37,53.32],[-6.372,53.323],[-6.386,53.337],[-6.386,53.344],[-6.386,53.337],[-6.372,53.323],[-6.368,53.318],[-6.37,53.318],[-6.371,53.318],[-6.38,53.316],[-6.383,53.315],[-6.385,53.314],[-6.39,53.313],[-6.392,53.313],[-6.395,53.312],[-6.396,53.312],[-6.401,53.311],[-6.433,53.292],[-6.428,53.257],[-6.453,53.236],[-6.442,53.231],[-6.42,53.231],[-6.414,53.223],[-6.414,53.219],[-6.412,53.218],[-6.411,53.217],[-6.411,53.216],[-6.41,53.216],[-6.407,53.218],[-6.406,53.217],[-6.403,53.213],[-6.401,53.211],[-6.403,53.209],[-6.403,53.208],[-6.402,53.208],[-6.402,53.209],[-6.401,53.209],[-6.401,53.21],[-6.397,53.212],[-6.395,53.213],[-6.376,53.216],[-6.375,53.216],[-6.373,53.215],[-6.371,53.215],[-6.368,53.214],[-6.375,53.192],[-6.347,53.181],[-6.346,53.181],[-6.334,53.179],[-6.333,53.178],[-6.332,53.178],[-6.33,53.179],[-6.327,53.182],[-6.327,53.183],[-6.32,53.188],[-6.312,53.194],[-6.308,53.212],[-6.311,53.222],[-6.305,53.225],[-6.302,53.225],[-6.3,53.224],[-6.299,53.224],[-6.298,53.224]]]},"properties":{"name":"Dublin South-West","name_ga":"Baile Átha Cliath Thiar Theas","seats":4}},{"type":"Feature","geometry":{"type":"Polygon","coordinates":[[[-6.475,53.234],[-6.442,53.231],[-6.453,53.236],[-6.428,53.257],[-6.433,53.292],[-6.401,53.311],[-6.396,53.312],[-6.395,53.312],[-6.392,53.313],[-6.39,53.313],[-6.385,53.314],[-6.383,53.315],[-6.38,53.316],[-6.371,53.318],[-6.37,53.318],[-6.368,53.318],[-6.372,53.323],[-6.386,53.337],[-6.386,53.344],[-6.385,53.343],[-6.384,53.343],[-6.383,53.343],[-6.38,53.345],[-6.385,53.347],[-6.406,53.349],[-6.413,53.368],[-6.475,53.363],[-6.491,53.358],[-6.491,53.357],[-6.501,53.321],[-6.528,53.314],[-6.518,53.249],[-6.475,53.234]]]},"properties":{"name":"Dublin Mid-West","name_ga":"Baile Átha Cliath Thiar-Meán","seats":3}},{"type":"Feature","geometry":{"type":"Polygon","coordinates":[[[-6.475,53.363],[-6.413,53.368],[-6.406,53.349],[-6.385,53.347],[-6.38,53.345],[-6.351,53.355],[-6.322,53.38],[-6.321,53.392],[-6.324,53.394],[-6.327,53.395],[-6.328,53.395],[-6.329,53.396],[-6.33,53.396],[-6.422,53.423],[-6.46,53.388],[-6.475,53.363]]]},"properties":{"name":"Dublin West","name_ga":"Baile Átha Cliath Thiar","seats":3}},{"type":"Feature","geometry":{"type":"Polygon","coordinates":[[[-6.292,53.299],[-6.284,53.305],[-6.283,53.305],[-6.272,53.345],[-6.292,53.347],[-6.295,53.347],[-6.303,53.348],[-6.307,53.347],[-6.312,53.348],[-6.316,53.346],[-6.326,53.345],[-6.337,53.347],[-6.351,53.355],[-6.38,53.345],[-6.383,53.343],[-6.384,53.343],[-6.385,53.343],[-6.386,53.344],[-6.386,53.337],[-6.372,53.323],[-6.37,53.32],[-6.369,53.319],[-6.368,53.318],[-6.363,53.313],[-6.361,53.31],[-6.357,53.308],[-6.353,53.306],[-6.35,53.305],[-6.347,53.308],[-6.346,53.309],[-6.345,53.31],[-6.342,53.313],[-6.333,53.317],[-6.332,53.316],[-6.331,53.315],[-6.33,53.314],[-6.329,53.314],[-6.329,53.313],[-6.326,53.31],[-6.323,53.308],[-6.321,53.307],[-6.292,53.299]]]},"properties":{"name":"Dublin South-Central","name_ga":"Baile Átha Cliath Theas-Lár","seats":5}},{"type":"Feature","geometry":{"type":"Polygon","coordinates":[[[-6.322,53.38],[-6.321,53.38],[-6.318,53.379],[-6.317,53.378],[-6.315,53.378],[-6.314,53.378],[-6.312,53.378],[-6.311,53.378],[-6.309,53.378],[-6.304,53.376],[-6.303,53.376],[-6.302,53.376],[-6.301,53.376],[-6.3,53.376],[-6.298,53.376],[-6.294,53.377],[-6.293,53.377],[-6.292,53.378],[-6.291,53.378],[-6.29,53.378],[-6.289,53.377],[-6.286,53.376],[-6.285,53.378],[-6.284,53.378],[-6.282,53.378],[-6.277,53.378],[-6.276,53.38],[-6.25,53.376],[-6.239,53.397],[-6.237,53.397],[-6.232,53.403],[-6.228,53.407],[-6.227,53.409],[-6.226,53.41],[-6.226,53.411],[-6.226,53.41],[-6.227,53.41],[-6.228,53.411],[-6.239,53.41],[-6.245,53.41],[-6.247,53.41],[-6.25,53.41],[-6.251,53.41],[-6.255,53.41],[-6.257,53.41],[-6.26,53.409],[-6.261,53.409],[-6.293,53.408],[-6.303,53.407],[-6.314,53.403],[-6.331,53.397],[-6.329,53.396],[-6.324,53.394],[-6.321,53.392],[-6.322,53.38]]]},"properties":{"name":"Dublin North-West","name_ga":"Baile Átha Cliath Thiar Thuaidh","seats":3}},{"type":"Feature","geometry":{"type":"Polygon","coordinates":[[[-6.232,53.403],[-6.146,53.367],[-6.102,53.377],[-6.059,53.364],[-6.045,53.385],[-6.123,53.395],[-6.136,53.409],[-6.14,53.407],[-6.141,53.407],[-6.143,53.407],[-6.145,53.407],[-6.146,53.407],[-6.149,53.407],[-6.15,53.407],[-6.151,53.407],[-6.159,53.409],[-6.161,53.409],[-6.162,53.409],[-6.163,53.409],[-6.164,53.409],[-6.165,53.409],[-6.168,53.409],[-6.17,53.408],[-6.171,53.408],[-6.172,53.407],[-6.173,53.407],[-6.175,53.407],[-6.176,53.407],[-6.178,53.407],[-6.216,53.411],[-6.221,53.411],[-6.223,53.41],[-6.226,53.411],[-6.226,53.41],[-6.227,53.409],[-6.228,53.407],[-6.232,53.403]]]},"properties":{"name":"Dublin North-East","name_ga":"Baile Átha Cliath Thoir Thuaidh","seats":3}},{"type":"Feature","geometry":{"type":"Polygon","coordinates":[[[-6.25,53.376],[-6.234,53.358],[-6.165,53.352],[-6.146,53.367],[-6.232,53.403],[-6.237,53.397],[-6.239,53.397],[-6.25,53.376]]]},"properties":{"name":"Dublin North-Central","name_ga":"Baile Átha Cliath Thuaidh-Lár","seats":4}},{"type":"Feature","geometry":{"type":"Polygon","coordinates":[[[-6.283,53.305],[-6.22,53.311],[-6.218,53.31],[-6.214,53.312],[-6.211,53.311],[-6.207,53.312],[-6.206,53.312],[-6.205,53.312],[-6.203,53.312],[-6.201,53.312],[-6.227,53.346],[-6.272,53.345],[-6.283,53.305]]]},"properties":{"name":"Dublin South-East","name_ga":"Baile Átha Cliath Thoir Theas","seats":4}},{"type":"Feature","geometry":{"type":"Polygon","coordinates":[[[-6.351,53.355],[-6.337,53.347],[-6.326,53.345],[-6.316,53.346],[-6.312,53.348],[-6.307,53.347],[-6.303,53.348],[-6.295,53.347],[-6.292,53.347],[-6.272,53.345],[-6.227,53.346],[-6.234,53.358],[-6.25,53.376],[-6.276,53.38],[-6.277,53.378],[-6.282,53.378],[-6.284,53.378],[-6.285,53.378],[-6.286,53.376],[-6.289,53.377],[-6.29,53.378],[-6.291,53.378],[-6.292,53.378],[-6.293,53.377],[-6.294,53.377],[-6.298,53.376],[-6.3,53.376],[-6.301,53.376],[-6.302,53.376],[-6.303,53.376],[-6.304,53.376],[-6.309,53.378],[-6.311,53.378],[-6.312,53.378],[-6.314,53.378],[-6.315,53.378],[-6.317,53.378],[-6.318,53.379],[-6.321,53.38],[-6.322,53.38],[-6.351,53.355]]]},"properties":{"name":"Dublin Central","name_ga":"Baile Átha Cliath Láir","seats":4}},{"type":"Feature","geometry":{"type":"Polygon","coordinates":[[[-6.182,53.221],[-6.187,53.235],[-6.186,53.235],[-6.185,53.235],[-6.184,53.235],[-6.183,53.234],[-6.182,53.233],[-6.181,53.233],[-6.18,53.233],[-6.18,53.234],[-6.179,53.234],[-6.178,53.234],[-6.179,53.257],[-6.193,53.282],[-6.195,53.285],[-6.195,53.286],[-6.194,53.287],[-6.195,53.288],[-6.195,53.289],[-6.196,53.29],[-6.202,53.294],[-6.206,53.3],[-6.209,53.304],[-6.22,53.311],[-6.283,53.305],[-6.284,53.305],[-6.292,53.299],[-6.306,53.295],[-6.31,53.296],[-6.31,53.295],[-6.311,53.295],[-6.31,53.295],[-6.31,53.294],[-6.311,53.293],[-6.312,53.292],[-6.313,53.292],[-6.314,53.294],[-6.315,53.294],[-6.318,53.293],[-6.318,53.292],[-6.319,53.292],[-6.323,53.29],[-6.326,53.29],[-6.337,53.288],[-6.337,53.281],[-6.336,53.281],[-6.335,53.28],[-6.331,53.279],[-6.331,53.277],[-6.331,53.275],[-6.331,53.274],[-6.327,53.27],[-6.326,53.269],[-6.327,53.269],[-6.327,53.268],[-6.328,53.267],[-6.322,53.262],[-6.297,53.261],[-6.297,53.244],[-6.295,53.243],[-6.294,53.242],[-6.293,53.242],[-6.292,53.242],[-6.292,53.241],[-6.291,53.241],[-6.29,53.24],[-6.288,53.239],[-6.288,53.238],[-6.288,53.237],[-6.289,53.237],[-6.289,53.236],[-6.29,53.236],[-6.291,53.235],[-6.292,53.234],[-6.293,53.234],[-6.293,53.233],[-6.293,53.232],[-6.293,53.231],[-6.294,53.231],[-6.294,53.23],[-6.294,53.229],[-6.295,53.228],[-6.295,53.227],[-6.295,53.226],[-6.296,53.226],[-6.296,53.225],[-6.298,53.224],[-6.296,53.224],[-6.292,53.223],[-6.291,53.222],[-6.276,53.211],[-6.24,53.202],[-6.182,53.221]]]},"properties":{"name":"Dublin South","name_ga":"Baile Átha Cliath Theas","seats":5}},{"type":"Feature","geometry":{"type":"Polygon","coordinates":[[[-6.103,53.211],[-6.111,53.259],[-6.105,53.285],[-6.201,53.312],[-6.203,53.312],[-6.205,53.312],[-6.206,53.312],[-6.207,53.312],[-6.211,53.311],[-6.214,53.312],[-6.218,53.31],[-6.22,53.311],[-6.209,53.304],[-6.206,53.3],[-6.202,53.294],[-6.196,53.29],[-6.195,53.289],[-6.195,53.288],[-6.194,53.287],[-6.195,53.286],[-6.195,53.285],[-6.193,53.282],[-6.179,53.257],[-6.178,53.234],[-6.179,53.234],[-6.18,53.234],[-6.18,53.233],[-6.181,53.233],[-6.182,53.233],[-6.183,53.234],[-6.184,53.235],[-6.185,53.235],[-6.186,53.235],[-6.187,53.235],[-6.182,53.221],[-6.162,53.203],[-6.137,53.199],[-6.103,53.211]]]},"properties":{"name":"Dún Laoghaire","name_ga":"Dún Laoghaire","seats":5}},{"type":"Feature","geometry":{"type":"Polygon","coordinates":[[[-6.324,53.394],[-6.329,53.396],[-6.331,53.397],[-6.314,53.403],[-6.303,53.407],[-6.293,53.408],[-6.261,53.409],[-6.26,53.409],[-6.257,53.41],[-6.255,53.41],[-6.251,53.41],[-6.25,53.41],[-6.247,53.41],[-6.245,53.41],[-6.239,53.41],[-6.228,53.411],[-6.227,53.41],[-6.226,53.41],[-6.226,53.411],[-6.223,53.41],[-6.221,53.411],[-6.216,53.411],[-6.178,53.407],[-6.176,53.407],[-6.175,53.407],[-6.173,53.407],[-6.172,53.407],[-6.171,53.408],[-6.17,53.408],[-6.168,53.409],[-6.165,53.409],[-6.164,53.409],[-6.163,53.409],[-6.162,53.409],[-6.161,53.409],[-6.159,53.409],[-6.151,53.407],[-6.15,53.407],[-6.149,53.407],[-6.146,53.407],[-6.145,53.407],[-6.143,53.407],[-6.141,53.407],[-6.14,53.407],[-6.136,53.409],[-6.125,53.444],[-6.134,53.453],[-6.108,53.494],[-6.118,53.509],[-6.084,53.517],[-6.084,53.56],[-6.105,53.581],[-6.155,53.591],[-6.188,53.626],[-6.215,53.633],[-6.257,53.632],[-6.272,53.597],[-6.335,53.573],[-6.369,53.589],[-6.414,53.573],[-6.433,53.544],[-6.408,53.526],[-6.367,53.517],[-6.331,53.486],[-6.355,53.462],[-6.355,53.447],[-6.41,53.441],[-6.422,53.423],[-6.33,53.396],[-6.329,53.396],[-6.328,53.395],[-6.327,53.395],[-6.324,53.394]]]},"properties":{"name":"Dublin North","name_ga":"Baile Átha Cliath Thuaidh","seats":4}},{"type":"Feature","geometry":{"type":"Polygon","coordinates":[[[-6.581,53.817],[-6.515,53.767],[-6.467,53.77],[-6.447,53.758],[-6.482,53.73],[-6.444,53.716],[-6.428,53.721],[-6.392,53.719],[-6.374,53.698],[-6.314,53.706],[-6.27,53.732],[-6.247,53.722],[-6.249,53.754],[-6.238,53.784],[-6.26,53.806],[-6.25,53.851],[-6.238,53.86],[-6.306,53.879],[-6.331,53.876],[-6.369,53.904],[-6.377,53.957],[-6.366,53.98],[-6.34,53.997],[-6.297,54.009],[-6.25,53.988],[-6.164,53.977],[-6.11,53.996],[-6.129,54.031],[-6.152,54.028],[-6.195,54.056],[-6.246,54.077],[-6.278,54.109],[-6.368,54.111],[-6.367,54.07],[-6.387,54.062],[-6.433,54.061],[-6.476,54.069],[-6.516,54.053],[-6.587,54.058],[-6.595,54.045],[-6.576,54.035],[-6.551,54.003],[-6.588,53.97],[-6.619,53.984],[-6.642,53.971],[-6.66,53.942],[-6.63,53.927],[-6.683,53.913],[-6.695,53.902],[-6.657,53.884],[-6.626,53.88],[-6.594,53.851],[-6.581,53.817]]]},"properties":{"name":"Louth","name_ga":"Lú","seats":4}},{"type":"Feature","geometry":{"type":"Polygon","coordinates":[[[-7.081,53.382],[-7.074,53.396],[-7.034,53.409],[-7.009,53.436],[-6.963,53.451],[-6.915,53.437],[-6.883,53.415],[-6.812,53.398],[-6.791,53.418],[-6.754,53.429],[-6.669,53.408],[-6.65,53.395],[-6.61,53.399],[-6.573,53.389],[-6.547,53.405],[-6.494,53.384],[-6.46,53.388],[-6.422,53.423],[-6.41,53.441],[-6.355,53.447],[-6.355,53.462],[-6.331,53.486],[-6.367,53.517],[-6.408,53.526],[-6.433,53.544],[-6.414,53.573],[-6.369,53.589],[-6.335,53.573],[-6.272,53.597],[-6.257,53.632],[-6.215,53.633],[-6.231,53.664],[-6.247,53.722],[-6.27,53.732],[-6.314,53.706],[-6.374,53.698],[-6.392,53.719],[-6.428,53.721],[-6.444,53.716],[-6.482,53.73],[-6.447,53.758],[-6.467,53.77],[-6.515,53.767],[-6.581,53.817],[-6.594,53.851],[-6.626,53.88],[-6.657,53.884],[-6.695,53.902],[-6.728,53.911],[-6.777,53.914],[-6.784,53.898],[-6.835,53.895],[-6.845,53.879],[-6.881,53.875],[-6.884,53.88],[-6.916,53.891],[-6.917,53.891],[-6.921,53.892],[-6.931,53.872],[-6.972,53.858],[-6.953,53.836],[-6.918,53.817],[-6.951,53.782],[-7.004,53.766],[-7.105,53.777],[-7.141,53.799],[-7.194,53.795],[-7.229,53.772],[-7.278,53.782],[-7.308,53.813],[-7.344,53.799],[-7.336,53.788],[-7.292,53.778],[-7.264,53.748],[-7.23,53.734],[-7.226,53.703],[-7.147,53.684],[-7.131,53.674],[-7.13,53.674],[-7.074,53.648],[-7.055,53.655],[-7.004,53.677],[-6.981,53.671],[-6.96,53.648],[-6.99,53.578],[-7.023,53.575],[-7.035,53.559],[-7.035,53.558],[-7.028,53.55],[-7.028,53.549],[-7.027,53.549],[-7.022,53.534],[-7.022,53.533],[-7.035,53.504],[-7.065,53.497],[-7.067,53.48],[-7.067,53.478],[-7.063,53.469],[-7.123,53.446],[-7.186,53.434],[-7.192,53.423],[-7.098,53.382],[-7.081,53.382]]]},"properties":{"name":"Meath","name_ga":"An Mhí","seats":5}},{"type":"Feature","geometry":{"type":"Polygon","coordinates":[[[-7.854,55.129],[-7.835,55.112],[-8.001,55.024],[-8.102,54.956],[-8.083,54.934],[-8.038,54.912],[-8.02,54.884],[-7.966,54.894],[-7.938,54.882],[-7.875,54.902],[-7.829,54.884],[-7.753,54.9],[-7.723,54.891],[-7.664,54.893],[-7.676,54.877],[-7.586,54.829],[-7.577,54.81],[-7.535,54.802],[-7.484,54.824],[-7.444,54.869],[-7.452,54.9],[-7.448,54.934],[-7.405,54.942],[-7.391,55.022],[-7.345,55.051],[-7.318,55.045],[-7.259,55.066],[-7.201,55.121],[-7.157,55.15],[-7.121,55.158],[-7.05,55.187],[-6.95,55.211],[-6.923,55.236],[-6.957,55.254],[-6.996,55.254],[-7.011,55.266],[-7.063,55.272],[-7.105,55.288],[-7.156,55.297],[-7.179,55.34],[-7.291,55.369],[-7.332,55.368],[-7.37,55.383],[-7.386,55.367],[-7.348,55.358],[-7.354,55.332],[-7.258,55.286],[-7.29,55.275],[-7.316,55.304],[-7.375,55.316],[-7.384,55.293],[-7.45,55.289],[-7.509,55.265],[-7.518,55.239],[-7.536,55.229],[-7.555,55.198],[-7.516,55.183],[-7.489,55.159],[-7.459,55.119],[-7.479,55.09],[-7.533,55.072],[-7.513,55.04],[-7.517,55.025],[-7.597,54.993],[-7.616,54.972],[-7.659,54.969],[-7.634,54.997],[-7.559,55.035],[-7.568,55.054],[-7.597,55.062],[-7.584,55.082],[-7.533,55.094],[-7.522,55.136],[-7.615,55.192],[-7.607,55.217],[-7.627,55.269],[-7.659,55.277],[-7.702,55.248],[-7.755,55.247],[-7.794,55.221],[-7.772,55.192],[-7.68,55.165],[-7.697,55.152],[-7.726,55.175],[-7.796,55.183],[-7.814,55.198],[-7.817,55.226],[-7.867,55.227],[-7.874,55.205],[-7.839,55.195],[-7.825,55.177],[-7.854,55.129]]]},"properties":{"name":"Donegal North-East","name_ga":"Dún na nGall Thoir Thuaidh","seats":3}},{"type":"Feature","geometry":{"type":"MultiPolygon","coordinates":[[[[-7.854,55.129],[-7.872,55.14],[-7.854,55.164],[-7.902,55.177],[-7.946,55.181],[-7.942,55.212],[-7.975,55.224],[-8.016,55.214],[-8.027,55.173],[-8.119,55.16],[-8.123,55.145],[-8.273,55.155],[-8.313,55.114],[-8.315,55.075],[-8.349,55.064],[-8.343,55.047],[-8.395,55.044],[-8.408,55.014],[-8.452,54.999],[-8.414,54.959],[-8.373,54.943],[-8.427,54.935],[-8.459,54.919],[-8.443,54.905],[-8.388,54.888],[-8.386,54.852],[-8.447,54.839],[-8.502,54.845],[-8.527,54.812],[-8.473,54.79],[-8.537,54.765],[-8.594,54.778],[-8.665,54.769],[-8.75,54.728],[-8.75,54.708],[-8.806,54.698],[-8.795,54.669],[-8.773,54.657],[-8.692,54.642],[-8.676,54.62],[-8.623,54.623],[-8.562,54.616],[-8.487,54.635],[-8.464,54.606],[-8.432,54.63],[-8.397,54.635],[-8.353,54.615],[-8.342,54.631],[-8.272,54.635],[-8.272,54.607],[-8.187,54.64],[-8.156,54.634],[-8.121,54.646],[-8.115,54.62],[-8.134,54.605],[-8.163,54.604],[-8.176,54.588],[-8.221,54.568],[-8.21,54.549],[-8.265,54.528],[-8.242,54.507],[-8.288,54.478],[-8.322,54.473],[-8.271,54.46],[-8.221,54.473],[-8.186,54.467],[-8.185,54.466],[-8.115,54.469],[-8.085,54.487],[-8.043,54.488],[-8.042,54.507],[-8.006,54.546],[-7.938,54.533],[-7.869,54.535],[-7.8,54.576],[-7.76,54.594],[-7.696,54.611],[-7.705,54.632],[-7.743,54.62],[-7.784,54.633],[-7.897,54.658],[-7.914,54.676],[-7.911,54.701],[-7.877,54.705],[-7.837,54.736],[-7.805,54.719],[-7.746,54.704],[-7.712,54.726],[-7.677,54.731],[-7.637,54.751],[-7.579,54.743],[-7.548,54.755],[-7.549,54.789],[-7.535,54.802],[-7.577,54.81],[-7.586,54.829],[-7.676,54.877],[-7.664,54.893],[-7.723,54.891],[-7.753,54.9],[-7.829,54.884],[-7.875,54.902],[-7.938,54.882],[-7.966,54.894],[-8.02,54.884],[-8.038,54.912],[-8.083,54.934],[-8.102,54.956],[-8.001,55.024],[-7.835,55.112],[-7.854,55.129]]],[[[-8.516,55.007],[-8.539,55.02],[-8.567,54.976],[-8.488,54.973],[-8.516,55.007]]]]},"properties":{"name":"Donegal South-West","name_ga":"Dún na nGall Thiar Theas","seats":3}},{"type":"Feature","geometry":{"type":"Polygon","coordinates":[[[-8.322,54.473],[-8.476,54.452],[-8.487,54.421],[-8.532,54.402],[-8.619,54.379],[-8.672,54.36],[-8.645,54.333],[-8.594,54.343],[-8.555,54.342],[-8.572,54.305],[-8.527,54.303],[-8.492,54.292],[-8.517,54.276],[-8.584,54.276],[-8.616,54.26],[-8.558,54.23],[-8.57,54.217],[-8.628,54.238],[-8.645,54.261],[-8.682,54.273],[-8.725,54.263],[-8.785,54.271],[-8.826,54.253],[-8.95,54.293],[-9.055,54.294],[-9.054,54.274],[-9.092,54.228],[-9.095,54.215],[-9.133,54.207],[-9.124,54.182],[-9.132,54.162],[-9.103,54.149],[-9.057,54.146],[-9.025,54.162],[-8.993,54.15],[-8.937,54.143],[-8.917,54.118],[-8.96,54.102],[-8.965,54.073],[-9.015,54.052],[-9.012,54.024],[-8.969,54.027],[-8.942,54.01],[-8.889,54.007],[-8.845,53.972],[-8.783,53.966],[-8.738,53.995],[-8.701,54.005],[-8.647,54.033],[-8.583,54.013],[-8.594,53.967],[-8.585,53.954],[-8.537,53.958],[-8.519,53.927],[-8.473,53.917],[-8.473,53.916],[-8.448,53.926],[-8.336,53.926],[-8.361,53.948],[-8.405,53.961],[-8.366,54.005],[-8.315,54.005],[-8.295,54.045],[-8.219,54.062],[-8.218,54.084],[-8.177,54.088],[-8.148,54.124],[-8.083,54.106],[-8.083,54.105],[-8.073,54.105],[-8.072,54.105],[-8.053,54.105],[-8.048,54.072],[-8.088,54.038],[-8.089,54.036],[-8.09,54.036],[-8.09,54.032],[-8.089,54.032],[-8.09,54.029],[-8.091,54.027],[-8.07,53.989],[-8.115,53.954],[-8.062,53.91],[-8.013,53.931],[-7.98,53.891],[-7.979,53.891],[-7.962,53.867],[-7.919,53.838],[-7.882,53.827],[-7.882,53.826],[-7.882,53.823],[-7.883,53.821],[-7.829,53.811],[-7.788,53.816],[-7.772,53.846],[-7.777,53.868],[-7.738,53.876],[-7.693,53.916],[-7.667,53.921],[-7.647,53.941],[-7.61,53.938],[-7.585,53.981],[-7.601,54.013],[-7.64,54.023],[-7.658,54.056],[-7.685,54.06],[-7.709,54.084],[-7.737,54.083],[-7.751,54.102],[-7.753,54.102],[-7.788,54.108],[-7.822,54.096],[-7.859,54.113],[-7.888,54.142],[-7.953,54.179],[-7.984,54.179],[-8.006,54.192],[-8.048,54.187],[-8.034,54.216],[-8.058,54.236],[-8.041,54.254],[-8.01,54.248],[-7.953,54.298],[-7.951,54.3],[-7.947,54.304],[-7.999,54.347],[-8.057,54.366],[-8.097,54.406],[-8.154,54.437],[-8.143,54.45],[-8.185,54.466],[-8.186,54.467],[-8.221,54.473],[-8.271,54.46],[-8.322,54.473]]]},"properties":{"name":"Sligo-Leitrim","name_ga":"Sligeach-Liatroim","seats":4}},{"type":"Feature","geometry":{"type":"Polygon","coordinates":[[[-6.595,54.045],[-6.625,54.037],[-6.65,54.061],[-6.645,54.099],[-6.661,54.123],[-6.632,54.147],[-6.636,54.171],[-6.665,54.193],[-6.707,54.2],[-6.746,54.189],[-6.801,54.213],[-6.829,54.247],[-6.827,54.26],[-6.876,54.278],[-6.852,54.291],[-6.877,54.347],[-6.907,54.352],[-6.911,54.375],[-6.982,54.41],[-7.029,54.421],[-7.054,54.412],[-7.071,54.39],[-7.109,54.366],[-7.104,54.356],[-7.152,54.336],[-7.212,54.3],[-7.173,54.286],[-7.151,54.258],[-7.147,54.225],[-7.185,54.225],[-7.248,54.204],[-7.26,54.184],[-7.253,54.155],[-7.263,54.137],[-7.31,54.167],[-7.339,54.147],[-7.307,54.124],[-7.335,54.117],[-7.442,54.154],[-7.481,54.122],[-7.528,54.136],[-7.546,54.127],[-7.61,54.144],[-7.625,54.165],[-7.692,54.204],[-7.804,54.207],[-7.862,54.219],[-7.861,54.261],[-7.871,54.288],[-7.888,54.301],[-7.947,54.304],[-7.951,54.3],[-7.953,54.298],[-8.01,54.248],[-8.041,54.254],[-8.058,54.236],[-8.034,54.216],[-8.048,54.187],[-8.006,54.192],[-7.984,54.179],[-7.953,54.179],[-7.888,54.142],[-7.859,54.113],[-7.822,54.096],[-7.788,54.108],[-7.753,54.102],[-7.751,54.102],[-7.737,54.083],[-7.709,54.084],[-7.685,54.06],[-7.658,54.056],[-7.64,54.023],[-7.601,54.013],[-7.585,53.981],[-7.61,53.938],[-7.558,53.904],[-7.585,53.857],[-7.543,53.853],[-7.494,53.86],[-7.477,53.854],[-7.456,53.802],[-7.412,53.79],[-7.41,53.779],[-7.344,53.799],[-7.308,53.813],[-7.278,53.782],[-7.229,53.772],[-7.194,53.795],[-7.141,53.799],[-7.105,53.777],[-7.004,53.766],[-6.951,53.782],[-6.918,53.817],[-6.953,53.836],[-6.972,53.858],[-6.931,53.872],[-6.921,53.892],[-6.917,53.891],[-6.916,53.891],[-6.884,53.88],[-6.881,53.875],[-6.845,53.879],[-6.835,53.895],[-6.784,53.898],[-6.777,53.914],[-6.728,53.911],[-6.695,53.902],[-6.683,53.913],[-6.63,53.927],[-6.66,53.942],[-6.642,53.971],[-6.619,53.984],[-6.588,53.97],[-6.551,54.003],[-6.576,54.035],[-6.595,54.045]]]},"properties":{"name":"Cavan-Monaghan","name_ga":"An Cabhán-Muineachán","seats":5}},{"type":"Feature","geometry":{"type":"Polygon","coordinates":[[[-7.192,53.423],[-7.186,53.434],[-7.123,53.446],[-7.063,53.469],[-7.067,53.478],[-7.067,53.48],[-7.065,53.497],[-7.035,53.504],[-7.022,53.533],[-7.022,53.534],[-7.027,53.549],[-7.028,53.549],[-7.028,53.55],[-7.035,53.558],[-7.035,53.559],[-7.023,53.575],[-6.99,53.578],[-6.96,53.648],[-6.981,53.671],[-7.004,53.677],[-7.055,53.655],[-7.074,53.648],[-7.13,53.674],[-7.131,53.674],[-7.147,53.684],[-7.226,53.703],[-7.23,53.734],[-7.264,53.748],[-7.292,53.778],[-7.336,53.788],[-7.344,53.799],[-7.41,53.779],[-7.377,53.763],[-7.386,53.735],[-7.448,53.729],[-7.486,53.702],[-7.509,53.699],[-7.549,53.669],[-7.568,53.671],[-7.579,53.64],[-7.578,53.611],[-7.631,53.587],[-7.661,53.534],[-7.705,53.539],[-7.721,53.528],[-7.836,53.539],[-7.858,53.549],[-7.921,53.543],[-7.97,53.522],[-7.955,53.481],[-7.967,53.45],[-7.914,53.379],[-7.923,53.363],[-7.883,53.349],[-7.826,53.356],[-7.772,53.347],[-7.717,53.36],[-7.662,53.408],[-7.625,53.418],[-7.567,53.378],[-7.567,53.361],[-7.472,53.333],[-7.456,53.318],[-7.423,53.335],[-7.399,53.33],[-7.268,53.398],[-7.216,53.407],[-7.192,53.423]]]},"properties":{"name":"Westmeath","name_ga":"An Iarmhí","seats":3}},{"type":"Feature","geometry":{"type":"Polygon","coordinates":[[[-7.923,53.363],[-7.914,53.379],[-7.967,53.45],[-7.955,53.481],[-7.97,53.522],[-7.921,53.543],[-7.858,53.549],[-7.836,53.539],[-7.721,53.528],[-7.705,53.539],[-7.661,53.534],[-7.631,53.587],[-7.578,53.611],[-7.579,53.64],[-7.568,53.671],[-7.549,53.669],[-7.509,53.699],[-7.486,53.702],[-7.448,53.729],[-7.386,53.735],[-7.377,53.763],[-7.41,53.779],[-7.412,53.79],[-7.456,53.802],[-7.477,53.854],[-7.494,53.86],[-7.543,53.853],[-7.585,53.857],[-7.558,53.904],[-7.61,53.938],[-7.647,53.941],[-7.667,53.921],[-7.693,53.916],[-7.738,53.876],[-7.777,53.868],[-7.772,53.846],[-7.788,53.816],[-7.829,53.811],[-7.883,53.821],[-7.882,53.823],[-7.882,53.826],[-7.882,53.827],[-7.919,53.838],[-7.962,53.867],[-7.979,53.891],[-7.98,53.891],[-8.013,53.931],[-8.062,53.91],[-8.115,53.954],[-8.07,53.989],[-8.091,54.027],[-8.09,54.029],[-8.089,54.032],[-8.09,54.032],[-8.09,54.036],[-8.089,54.036],[-8.088,54.038],[-8.048,54.072],[-8.053,54.105],[-8.072,54.105],[-8.073,54.105],[-8.083,54.105],[-8.083,54.106],[-8.148,54.124],[-8.177,54.088],[-8.218,54.084],[-8.219,54.062],[-8.295,54.045],[-8.315,54.005],[-8.366,54.005],[-8.405,53.961],[-8.361,53.948],[-8.336,53.926],[-8.448,53.926],[-8.473,53.916],[-8.473,53.917],[-8.519,53.927],[-8.537,53.958],[-8.585,53.954],[-8.641,53.963],[-8.667,53.975],[-8.691,53.963],[-8.679,53.944],[-8.685,53.919],[-8.633,53.899],[-8.636,53.868],[-8.704,53.874],[-8.695,53.852],[-8.733,53.806],[-8.694,53.798],[-8.68,53.78],[-8.68,53.753],[-8.714,53.725],[-8.713,53.712],[-8.792,53.696],[-8.823,53.665],[-8.801,53.657],[-8.656,53.677],[-8.635,53.704],[-8.574,53.719],[-8.52,53.712],[-8.47,53.715],[-8.447,53.705],[-8.428,53.67],[-8.363,53.651],[-8.397,53.635],[-8.397,53.634],[-8.396,53.631],[-8.39,53.627],[-8.383,53.604],[-8.354,53.599],[-8.342,53.579],[-8.297,53.566],[-8.293,53.509],[-8.275,53.494],[-8.286,53.471],[-8.263,53.461],[-8.243,53.448],[-8.242,53.448],[-8.263,53.43],[-8.253,53.412],[-8.238,53.411],[-8.238,53.41],[-8.238,53.407],[-8.225,53.397],[-8.246,53.374],[-8.23,53.351],[-8.195,53.339],[-8.195,53.338],[-8.195,53.309],[-8.195,53.308],[-8.174,53.288],[-8.076,53.272],[-8.056,53.274],[-7.983,53.338],[-7.942,53.343],[-7.923,53.363]]]},"properties":{"name":"Longford-Roscommon","name_ga":"An Longfort-Ros Comáin","seats":4}},{"type":"Feature","geometry":{"type":"MultiPolygon","coordinates":[[[[-9.132,54.162],[-9.157,54.196],[-9.182,54.208],[-9.214,54.252],[-9.207,54.277],[-9.256,54.274],[-9.248,54.296],[-9.264,54.31],[-9.335,54.321],[-9.39,54.308],[-9.517,54.309],[-9.562,54.32],[-9.627,54.325],[-9.66,54.314],[-9.802,54.342],[-9.859,54.323],[-9.857,54.304],[-9.808,54.287],[-9.856,54.274],[-9.879,54.257],[-9.867,54.235],[-9.876,54.218],[-9.915,54.227],[-9.892,54.254],[-9.958,54.271],[-9.997,54.306],[-10.025,54.284],[-10.07,54.277],[-10.095,54.236],[-10.056,54.228],[-10.064,54.209],[-10.096,54.199],[-10.087,54.181],[-10.118,54.146],[-10.131,54.109],[-10.094,54.088],[-10.064,54.097],[-10.087,54.127],[-10.063,54.151],[-10.063,54.171],[-10.013,54.191],[-10,54.224],[-9.956,54.197],[-9.955,54.149],[-9.938,54.112],[-9.976,54.096],[-9.969,54.062],[-9.893,54.072],[-9.858,54.066],[-9.906,54.043],[-9.878,54.008],[-9.848,53.995],[-9.852,53.958],[-9.906,53.952],[-9.929,53.913],[-9.93,53.87],[-9.905,53.862],[-9.82,53.876],[-9.771,53.9],[-9.689,53.9],[-9.663,53.893],[-9.586,53.897],[-9.571,53.889],[-9.59,53.846],[-9.617,53.845],[-9.617,53.811],[-9.554,53.797],[-9.594,53.782],[-9.658,53.782],[-9.668,53.789],[-9.74,53.774],[-9.77,53.782],[-9.826,53.77],[-9.901,53.764],[-9.894,53.738],[-9.918,53.691],[-9.908,53.652],[-9.88,53.634],[-9.784,53.603],[-9.697,53.605],[-9.67,53.613],[-9.652,53.602],[-9.611,53.607],[-9.585,53.599],[-9.565,53.613],[-9.543,53.581],[-9.481,53.562],[-9.361,53.574],[-9.289,53.54],[-9.279,53.515],[-9.236,53.499],[-9.237,53.48],[-9.182,53.472],[-9.137,53.477],[-9.094,53.515],[-9.039,53.536],[-9.025,53.551],[-9.044,53.576],[-9.007,53.584],[-8.98,53.605],[-8.971,53.655],[-8.938,53.66],[-8.899,53.652],[-8.843,53.653],[-8.823,53.665],[-8.792,53.696],[-8.713,53.712],[-8.714,53.725],[-8.68,53.753],[-8.68,53.78],[-8.694,53.798],[-8.733,53.806],[-8.695,53.852],[-8.704,53.874],[-8.636,53.868],[-8.633,53.899],[-8.685,53.919],[-8.679,53.944],[-8.691,53.963],[-8.667,53.975],[-8.641,53.963],[-8.585,53.954],[-8.594,53.967],[-8.583,54.013],[-8.647,54.033],[-8.701,54.005],[-8.738,53.995],[-8.783,53.966],[-8.845,53.972],[-8.889,54.007],[-8.942,54.01],[-8.969,54.027],[-9.012,54.024],[-9.015,54.052],[-8.965,54.073],[-8.96,54.102],[-8.917,54.118],[-8.937,54.143],[-8.993,54.15],[-9.025,54.162],[-9.057,54.146],[-9.103,54.149],[-9.132,54.162]]],[[[-9.996,53.79],[-9.951,53.798],[-9.98,53.829],[-9.996,53.814],[-10.049,53.802],[-10.041,53.79],[-9.996,53.79]]],[[[-9.939,53.931],[-9.927,53.954],[-9.955,53.973],[-9.93,53.998],[-9.968,54.027],[-9.988,54.012],[-10.064,54.025],[-10.133,53.999],[-10.185,54.002],[-10.213,53.98],[-10.118,53.962],[-10.068,53.972],[-10.045,53.957],[-10.055,53.939],[-9.963,53.874],[-9.937,53.899],[-9.957,53.911],[-9.939,53.931]]]]},"properties":{"name":"Mayo","name_ga":"Maigh Eo","seats":5}},{"type":"Feature","geometry":{"type":"MultiPolygon","coordinates":[[[[-9.67,53.613],[-9.704,53.595],[-9.731,53.6],[-9.789,53.594],[-9.872,53.625],[-9.911,53.601],[-9.968,53.601],[-9.997,53.611],[-10.049,53.609],[-10.02,53.578],[-9.963,53.571],[-9.988,53.548],[-10.014,53.567],[-10.099,53.577],[-10.129,53.576],[-10.158,53.557],[-10.1,53.48],[-10.058,53.457],[-10.065,53.442],[-10.133,53.451],[-10.184,53.413],[-10.141,53.417],[-10.105,53.41],[-10.052,53.415],[-10.037,53.391],[-9.989,53.379],[-9.935,53.379],[-9.915,53.392],[-9.903,53.422],[-9.866,53.389],[-9.829,53.416],[-9.792,53.394],[-9.817,53.378],[-9.889,53.369],[-9.906,53.324],[-9.882,53.312],[-9.839,53.321],[-9.774,53.3],[-9.74,53.306],[-9.697,53.36],[-9.63,53.381],[-9.647,53.343],[-9.609,53.334],[-9.598,53.36],[-9.552,53.342],[-9.62,53.327],[-9.598,53.28],[-9.63,53.25],[-9.614,53.232],[-9.578,53.247],[-9.51,53.222],[-9.456,53.232],[-9.34,53.238],[-9.224,53.25],[-9.163,53.246],[-9.13,53.256],[-9.099,53.255],[-9.039,53.27],[-8.946,53.274],[-8.979,53.255],[-8.989,53.219],[-8.967,53.21],[-8.912,53.214],[-8.893,53.211],[-8.873,53.213],[-8.851,53.223],[-8.848,53.242],[-8.794,53.256],[-8.832,53.289],[-8.812,53.294],[-8.775,53.326],[-8.718,53.316],[-8.702,53.331],[-8.75,53.342],[-8.746,53.377],[-8.811,53.393],[-8.838,53.406],[-8.887,53.387],[-8.997,53.408],[-9.019,53.418],[-9.102,53.403],[-9.122,53.423],[-9.185,53.425],[-9.214,53.444],[-9.26,53.45],[-9.266,53.469],[-9.237,53.48],[-9.236,53.499],[-9.279,53.515],[-9.289,53.54],[-9.361,53.574],[-9.481,53.562],[-9.543,53.581],[-9.565,53.613],[-9.585,53.599],[-9.611,53.607],[-9.652,53.602],[-9.67,53.613]]],[[[-9.782,53.13],[-9.691,53.108],[-9.665,53.119],[-9.703,53.142],[-9.782,53.13]]],[[[-9.718,53.257],[-9.7,53.225],[-9.655,53.227],[-9.642,53.257],[-9.654,53.279],[-9.718,53.257]]],[[[-9.578,53.102],[-9.613,53.084],[-9.607,53.065],[-9.562,53.087],[-9.578,53.102]]]]},"properties":{"name":"Galway West","name_ga":"Gaillimh Thiar","seats":5}},{"type":"Feature","geometry":{"type":"Polygon","coordinates":[[[-8.081,53.167],[-8.062,53.188],[-7.993,53.193],[-7.967,53.226],[-7.983,53.24],[-8.056,53.274],[-8.076,53.272],[-8.174,53.288],[-8.195,53.308],[-8.195,53.309],[-8.195,53.338],[-8.195,53.339],[-8.23,53.351],[-8.246,53.374],[-8.225,53.397],[-8.238,53.407],[-8.238,53.41],[-8.238,53.411],[-8.253,53.412],[-8.263,53.43],[-8.242,53.448],[-8.243,53.448],[-8.263,53.461],[-8.286,53.471],[-8.275,53.494],[-8.293,53.509],[-8.297,53.566],[-8.342,53.579],[-8.354,53.599],[-8.383,53.604],[-8.39,53.627],[-8.396,53.631],[-8.397,53.634],[-8.397,53.635],[-8.363,53.651],[-8.428,53.67],[-8.447,53.705],[-8.47,53.715],[-8.52,53.712],[-8.574,53.719],[-8.635,53.704],[-8.656,53.677],[-8.801,53.657],[-8.823,53.665],[-8.843,53.653],[-8.899,53.652],[-8.938,53.66],[-8.971,53.655],[-8.98,53.605],[-9.007,53.584],[-9.044,53.576],[-9.025,53.551],[-9.039,53.536],[-9.094,53.515],[-9.137,53.477],[-9.182,53.472],[-9.237,53.48],[-9.266,53.469],[-9.26,53.45],[-9.214,53.444],[-9.185,53.425],[-9.122,53.423],[-9.102,53.403],[-9.019,53.418],[-8.997,53.408],[-8.887,53.387],[-8.838,53.406],[-8.811,53.393],[-8.746,53.377],[-8.75,53.342],[-8.702,53.331],[-8.718,53.316],[-8.775,53.326],[-8.812,53.294],[-8.832,53.289],[-8.794,53.256],[-8.848,53.242],[-8.851,53.223],[-8.873,53.213],[-8.882,53.209],[-8.927,53.208],[-8.955,53.177],[-9.054,53.165],[-9.006,53.15],[-9.009,53.141],[-9.028,53.131],[-9.019,53.111],[-8.993,53.095],[-8.956,53.087],[-8.89,53.056],[-8.899,53.008],[-8.883,52.977],[-8.846,52.983],[-8.784,52.973],[-8.779,52.988],[-8.737,53.006],[-8.72,53.025],[-8.635,53.042],[-8.627,53.034],[-8.554,53.042],[-8.485,52.989],[-8.45,52.972],[-8.407,52.994],[-8.359,52.971],[-8.317,52.985],[-8.278,53.019],[-8.268,53.056],[-8.219,53.068],[-8.174,53.112],[-8.148,53.145],[-8.124,53.16],[-8.081,53.167]]]},"properties":{"name":"Galway East","name_ga":"Gaillimh Thoir","seats":4}},{"type":"Feature","geometry":{"type":"Polygon","coordinates":[[[-8.224,52.572],[-8.214,52.595],[-8.215,52.632],[-8.194,52.648],[-8.189,52.671],[-8.229,52.665],[-8.253,52.682],[-8.306,52.694],[-8.361,52.679],[-8.407,52.69],[-8.428,52.678],[-8.465,52.704],[-8.48,52.757],[-8.488,52.753],[-8.492,52.754],[-8.509,52.746],[-8.502,52.719],[-8.52,52.703],[-8.523,52.704],[-8.527,52.704],[-8.551,52.679],[-8.558,52.679],[-8.567,52.676],[-8.577,52.678],[-8.592,52.669],[-8.585,52.697],[-8.592,52.705],[-8.601,52.708],[-8.636,52.688],[-8.64,52.687],[-8.642,52.688],[-8.644,52.689],[-8.645,52.689],[-8.646,52.689],[-8.649,52.689],[-8.651,52.689],[-8.654,52.69],[-8.655,52.69],[-8.663,52.688],[-8.666,52.688],[-8.667,52.688],[-8.67,52.687],[-8.671,52.687],[-8.676,52.688],[-8.689,52.678],[-8.694,52.676],[-8.697,52.675],[-8.701,52.676],[-8.702,52.676],[-8.705,52.674],[-8.706,52.674],[-8.707,52.671],[-8.709,52.671],[-8.705,52.648],[-8.718,52.626],[-8.673,52.616],[-8.654,52.584],[-8.618,52.593],[-8.565,52.569],[-8.571,52.552],[-8.524,52.522],[-8.535,52.508],[-8.598,52.48],[-8.593,52.466],[-8.546,52.459],[-8.544,52.429],[-8.515,52.424],[-8.461,52.437],[-8.392,52.41],[-8.355,52.423],[-8.381,52.436],[-8.405,52.465],[-8.396,52.484],[-8.36,52.511],[-8.319,52.506],[-8.286,52.522],[-8.24,52.512],[-8.224,52.572]]]},"properties":{"name":"Limerick East","name_ga":"Luimneach Thoir","seats":5}},{"type":"Feature","geometry":{"type":"Polygon","coordinates":[[[-8.183,52.288],[-8.169,52.292],[-8.168,52.368],[-8.193,52.364],[-8.228,52.386],[-8.232,52.411],[-8.283,52.401],[-8.314,52.436],[-8.381,52.436],[-8.355,52.423],[-8.392,52.41],[-8.461,52.437],[-8.515,52.424],[-8.544,52.429],[-8.546,52.459],[-8.593,52.466],[-8.598,52.48],[-8.535,52.508],[-8.524,52.522],[-8.571,52.552],[-8.565,52.569],[-8.618,52.593],[-8.654,52.584],[-8.673,52.616],[-8.718,52.626],[-8.705,52.648],[-8.709,52.671],[-8.712,52.672],[-8.719,52.673],[-8.803,52.672],[-8.833,52.68],[-8.973,52.666],[-9.017,52.65],[-9.073,52.65],[-9.124,52.633],[-9.149,52.615],[-9.229,52.608],[-9.294,52.58],[-9.345,52.59],[-9.365,52.572],[-9.338,52.562],[-9.348,52.541],[-9.306,52.522],[-9.305,52.522],[-9.297,52.496],[-9.339,52.47],[-9.326,52.443],[-9.339,52.404],[-9.303,52.389],[-9.344,52.367],[-9.298,52.334],[-9.24,52.322],[-9.217,52.298],[-9.175,52.312],[-9.14,52.333],[-9.075,52.331],[-8.986,52.311],[-8.962,52.319],[-8.883,52.332],[-8.882,52.347],[-8.829,52.371],[-8.82,52.384],[-8.777,52.387],[-8.724,52.371],[-8.674,52.384],[-8.662,52.352],[-8.624,52.344],[-8.585,52.307],[-8.565,52.306],[-8.535,52.287],[-8.505,52.28],[-8.441,52.293],[-8.386,52.295],[-8.341,52.329],[-8.312,52.322],[-8.285,52.287],[-8.251,52.296],[-8.183,52.288]]]},"properties":{"name":"Limerick West","name_ga":"Luimneach Thiar","seats":3}},{"type":"Feature","geometry":{"type":"Polygon","coordinates":[[[-8.317,52.985],[-8.359,52.971],[-8.407,52.994],[-8.45,52.972],[-8.485,52.989],[-8.554,53.042],[-8.627,53.034],[-8.635,53.042],[-8.72,53.025],[-8.737,53.006],[-8.779,52.988],[-8.784,52.973],[-8.846,52.983],[-8.883,52.977],[-8.899,53.008],[-8.89,53.056],[-8.956,53.087],[-8.993,53.095],[-9.019,53.111],[-9.028,53.131],[-9.009,53.141],[-9.053,53.158],[-9.12,53.152],[-9.121,53.137],[-9.152,53.119],[-9.187,53.135],[-9.265,53.154],[-9.292,53.133],[-9.288,53.119],[-9.31,53.092],[-9.355,53.075],[-9.364,53.051],[-9.409,53.019],[-9.392,53.008],[-9.428,52.986],[-9.429,52.97],[-9.474,52.943],[-9.4,52.933],[-9.361,52.944],[-9.347,52.932],[-9.39,52.897],[-9.434,52.882],[-9.432,52.837],[-9.457,52.817],[-9.49,52.807],[-9.483,52.775],[-9.511,52.745],[-9.557,52.752],[-9.607,52.744],[-9.666,52.682],[-9.803,52.618],[-9.81,52.603],[-9.867,52.592],[-9.913,52.576],[-9.929,52.556],[-9.878,52.558],[-9.845,52.572],[-9.812,52.565],[-9.747,52.58],[-9.741,52.587],[-9.68,52.573],[-9.635,52.599],[-9.437,52.596],[-9.408,52.592],[-9.373,52.602],[-9.345,52.59],[-9.294,52.58],[-9.229,52.608],[-9.149,52.615],[-9.124,52.633],[-9.073,52.65],[-9.017,52.65],[-8.973,52.666],[-8.833,52.68],[-8.803,52.672],[-8.719,52.673],[-8.712,52.672],[-8.709,52.671],[-8.707,52.671],[-8.706,52.674],[-8.705,52.674],[-8.702,52.676],[-8.701,52.676],[-8.697,52.675],[-8.694,52.676],[-8.689,52.678],[-8.676,52.688],[-8.671,52.687],[-8.67,52.687],[-8.667,52.688],[-8.666,52.688],[-8.663,52.688],[-8.655,52.69],[-8.654,52.69],[-8.651,52.689],[-8.649,52.689],[-8.646,52.689],[-8.645,52.689],[-8.644,52.689],[-8.642,52.688],[-8.64,52.687],[-8.636,52.688],[-8.601,52.708],[-8.592,52.705],[-8.585,52.697],[-8.592,52.669],[-8.577,52.678],[-8.567,52.676],[-8.558,52.679],[-8.551,52.679],[-8.527,52.704],[-8.523,52.704],[-8.52,52.703],[-8.502,52.719],[-8.509,52.746],[-8.492,52.754],[-8.488,52.753],[-8.48,52.757],[-8.443,52.787],[-8.455,52.847],[-8.418,52.875],[-8.408,52.913],[-8.338,52.915],[-8.285,52.973],[-8.317,52.985]]]},"properties":{"name":"Clare","name_ga":"An Clár","seats":4}},{"type":"Feature","geometry":{"type":"Polygon","coordinates":[[[-8.565,52.306],[-8.585,52.307],[-8.624,52.344],[-8.662,52.352],[-8.674,52.384],[-8.724,52.371],[-8.777,52.387],[-8.82,52.384],[-8.829,52.371],[-8.882,52.347],[-8.883,52.332],[-8.962,52.319],[-8.986,52.311],[-9.075,52.331],[-9.14,52.333],[-9.175,52.312],[-9.217,52.298],[-9.216,52.282],[-9.274,52.255],[-9.276,52.23],[-9.263,52.213],[-9.232,52.177],[-9.238,52.148],[-9.205,52.088],[-9.221,52.055],[-9.212,52.023],[-9.184,52.027],[-9.163,52.007],[-9.12,51.996],[-9.138,51.983],[-9.195,51.982],[-9.255,51.97],[-9.303,51.946],[-9.302,51.924],[-9.279,51.894],[-9.33,51.846],[-9.36,51.836],[-9.315,51.813],[-9.238,51.784],[-9.246,51.769],[-9.222,51.754],[-9.267,51.744],[-9.272,51.728],[-9.223,51.714],[-9.165,51.726],[-9.172,51.761],[-9.103,51.753],[-9.095,51.73],[-9.061,51.714],[-9.022,51.717],[-8.974,51.73],[-8.876,51.737],[-8.868,51.753],[-8.831,51.763],[-8.824,51.779],[-8.781,51.77],[-8.738,51.779],[-8.701,51.763],[-8.668,51.785],[-8.61,51.797],[-8.644,51.834],[-8.629,51.861],[-8.63,51.888],[-8.567,51.897],[-8.576,51.914],[-8.607,51.925],[-8.602,51.951],[-8.655,52.002],[-8.661,52.03],[-8.688,52.047],[-8.686,52.075],[-8.645,52.091],[-8.678,52.119],[-8.718,52.133],[-8.775,52.127],[-8.79,52.144],[-8.765,52.157],[-8.77,52.179],[-8.737,52.202],[-8.716,52.241],[-8.686,52.242],[-8.667,52.267],[-8.607,52.253],[-8.572,52.251],[-8.557,52.281],[-8.565,52.306]]]},"properties":{"name":"Cork North-West","name_ga":"Corcaigh Thiar Thuaidh","seats":3}},{"type":"Feature","geometry":{"type":"Polygon","coordinates":[[[-8.661,52.03],[-8.655,52.002],[-8.602,51.951],[-8.607,51.925],[-8.576,51.914],[-8.567,51.897],[-8.539,51.899],[-8.54,51.874],[-8.446,51.902],[-8.395,51.901],[-8.339,51.88],[-8.325,51.895],[-8.332,51.933],[-8.35,51.952],[-8.374,52.013],[-8.43,52],[-8.453,52.014],[-8.453,52.032],[-8.496,52.063],[-8.536,52.058],[-8.561,52.042],[-8.6,52.062],[-8.661,52.039],[-8.661,52.03]]]},"properties":{"name":"Cork North-Central","name_ga":"Corcaigh Thuaidh-Lár","seats":5}},{"type":"Feature","geometry":{"type":"Polygon","coordinates":[[[-8.339,51.88],[-8.395,51.901],[-8.446,51.902],[-8.54,51.874],[-8.539,51.899],[-8.567,51.897],[-8.63,51.888],[-8.629,51.861],[-8.644,51.834],[-8.61,51.797],[-8.514,51.814],[-8.486,51.798],[-8.496,51.751],[-8.471,51.711],[-8.44,51.685],[-8.419,51.704],[-8.386,51.714],[-8.343,51.716],[-8.33,51.734],[-8.297,51.754],[-8.275,51.809],[-8.339,51.842],[-8.328,51.866],[-8.339,51.88]]]},"properties":{"name":"Cork South-Central","name_ga":"Corcaigh Theas-Lár","seats":5}},{"type":"Feature","geometry":{"type":"MultiPolygon","coordinates":[[[[-9.36,51.836],[-9.438,51.823],[-9.446,51.807],[-9.481,51.79],[-9.566,51.79],[-9.623,51.786],[-9.669,51.747],[-9.708,51.744],[-9.761,51.72],[-9.792,51.693],[-9.832,51.693],[-9.824,51.717],[-9.857,51.751],[-9.887,51.763],[-9.931,51.74],[-9.975,51.735],[-10.005,51.718],[-9.964,51.704],[-9.973,51.685],[-10.031,51.678],[-10.054,51.669],[-10.093,51.674],[-10.063,51.643],[-10.066,51.623],[-10.126,51.613],[-10.13,51.595],[-10.049,51.602],[-10.038,51.589],[-9.986,51.611],[-9.934,51.616],[-9.926,51.639],[-9.904,51.653],[-9.88,51.649],[-9.839,51.659],[-9.814,51.655],[-9.765,51.662],[-9.734,51.688],[-9.651,51.674],[-9.569,51.706],[-9.528,51.734],[-9.483,51.715],[-9.447,51.719],[-9.46,51.68],[-9.488,51.678],[-9.521,51.66],[-9.564,51.653],[-9.61,51.637],[-9.666,51.625],[-9.785,51.58],[-9.782,51.55],[-9.69,51.58],[-9.655,51.583],[-9.631,51.6],[-9.544,51.616],[-9.583,51.59],[-9.647,51.564],[-9.645,51.553],[-9.692,51.53],[-9.751,51.523],[-9.794,51.496],[-9.82,51.49],[-9.819,51.461],[-9.786,51.457],[-9.73,51.462],[-9.698,51.495],[-9.637,51.511],[-9.621,51.492],[-9.586,51.497],[-9.542,51.513],[-9.455,51.525],[-9.437,51.553],[-9.395,51.536],[-9.428,51.513],[-9.398,51.5],[-9.381,51.47],[-9.349,51.471],[-9.294,51.496],[-9.229,51.481],[-9.216,51.498],[-9.173,51.529],[-9.136,51.525],[-9.117,51.556],[-9.083,51.546],[-9.023,51.567],[-8.976,51.56],[-8.917,51.541],[-8.867,51.592],[-8.807,51.596],[-8.749,51.57],[-8.699,51.579],[-8.681,51.645],[-8.652,51.636],[-8.55,51.646],[-8.524,51.677],[-8.503,51.687],[-8.477,51.676],[-8.451,51.694],[-8.471,51.711],[-8.496,51.751],[-8.486,51.798],[-8.514,51.814],[-8.61,51.797],[-8.668,51.785],[-8.701,51.763],[-8.738,51.779],[-8.781,51.77],[-8.824,51.779],[-8.831,51.763],[-8.868,51.753],[-8.876,51.737],[-8.974,51.73],[-9.022,51.717],[-9.061,51.714],[-9.095,51.73],[-9.103,51.753],[-9.172,51.761],[-9.165,51.726],[-9.223,51.714],[-9.272,51.728],[-9.267,51.744],[-9.222,51.754],[-9.246,51.769],[-9.238,51.784],[-9.315,51.813],[-9.36,51.836]]],[[[-9.894,51.638],[-9.919,51.618],[-9.835,51.62],[-9.837,51.645],[-9.894,51.638]]]]},"properties":{"name":"Cork South-West","name_ga":"Corcaigh Thiar Theas","seats":3}},{"type":"Feature","geometry":{"type":"Polygon","coordinates":[[[-9.345,52.59],[-9.373,52.602],[-9.408,52.592],[-9.437,52.596],[-9.635,52.599],[-9.68,52.573],[-9.661,52.557],[-9.695,52.48],[-9.74,52.47],[-9.768,52.449],[-9.866,52.427],[-9.914,52.431],[-9.943,52.422],[-9.941,52.404],[-9.838,52.39],[-9.835,52.325],[-9.868,52.301],[-9.837,52.292],[-9.835,52.276],[-9.753,52.268],[-9.767,52.248],[-9.772,52.218],[-9.744,52.209],[-9.666,52.216],[-9.643,52.226],[-9.583,52.217],[-9.526,52.194],[-9.474,52.195],[-9.438,52.208],[-9.418,52.227],[-9.397,52.205],[-9.363,52.198],[-9.263,52.213],[-9.276,52.23],[-9.274,52.255],[-9.216,52.282],[-9.217,52.298],[-9.24,52.322],[-9.298,52.334],[-9.344,52.367],[-9.303,52.389],[-9.339,52.404],[-9.326,52.443],[-9.339,52.47],[-9.297,52.496],[-9.305,52.522],[-9.306,52.522],[-9.348,52.541],[-9.338,52.562],[-9.365,52.572],[-9.345,52.59]]]},"properties":{"name":"Kerry North","name_ga":"Ciarraí Thuaidh","seats":3}},{"type":"Feature","geometry":{"type":"MultiPolygon","coordinates":[[[[-9.263,52.213],[-9.363,52.198],[-9.397,52.205],[-9.418,52.227],[-9.438,52.208],[-9.474,52.195],[-9.526,52.194],[-9.583,52.217],[-9.643,52.226],[-9.666,52.216],[-9.744,52.209],[-9.772,52.218],[-9.767,52.248],[-9.837,52.248],[-9.896,52.229],[-9.951,52.232],[-9.997,52.249],[-10.022,52.267],[-10.05,52.267],[-10.084,52.249],[-10.171,52.236],[-10.151,52.262],[-10.158,52.288],[-10.177,52.29],[-10.295,52.257],[-10.306,52.24],[-10.363,52.234],[-10.384,52.179],[-10.415,52.184],[-10.455,52.179],[-10.47,52.135],[-10.452,52.097],[-10.373,52.108],[-10.361,52.132],[-10.326,52.115],[-10.295,52.111],[-10.215,52.123],[-10.19,52.11],[-10.16,52.121],[-10.139,52.112],[-10.051,52.137],[-9.963,52.142],[-9.865,52.16],[-9.804,52.16],[-9.813,52.132],[-9.861,52.114],[-9.893,52.111],[-9.936,52.085],[-9.936,52.074],[-9.978,52.053],[-10.031,52.037],[-10.057,52.04],[-10.105,52.025],[-10.131,52.029],[-10.208,52.002],[-10.259,51.99],[-10.28,51.952],[-10.249,51.911],[-10.351,51.885],[-10.386,51.883],[-10.389,51.841],[-10.338,51.846],[-10.34,51.784],[-10.284,51.803],[-10.245,51.844],[-10.215,51.844],[-10.172,51.824],[-10.18,51.788],[-10.199,51.778],[-10.142,51.759],[-10.1,51.756],[-10.016,51.771],[-9.95,51.801],[-9.908,51.804],[-9.9,51.815],[-9.83,51.816],[-9.83,51.826],[-9.782,51.835],[-9.731,51.853],[-9.658,51.87],[-9.652,51.845],[-9.725,51.837],[-9.746,51.821],[-9.823,51.786],[-9.813,51.769],[-9.856,51.766],[-9.857,51.751],[-9.824,51.717],[-9.832,51.693],[-9.792,51.693],[-9.761,51.72],[-9.708,51.744],[-9.669,51.747],[-9.623,51.786],[-9.566,51.79],[-9.481,51.79],[-9.446,51.807],[-9.438,51.823],[-9.36,51.836],[-9.33,51.846],[-9.279,51.894],[-9.302,51.924],[-9.303,51.946],[-9.255,51.97],[-9.195,51.982],[-9.138,51.983],[-9.12,51.996],[-9.163,52.007],[-9.184,52.027],[-9.212,52.023],[-9.221,52.055],[-9.205,52.088],[-9.238,52.148],[-9.232,52.177],[-9.263,52.213]]],[[[-10.392,51.892],[-10.382,51.887],[-10.292,51.913],[-10.296,51.928],[-10.329,51.93],[-10.423,51.899],[-10.392,51.892]]]]},"properties":{"name":"Kerry South","name_ga":"Ciarraí Theas","seats":3}}]}
