{"type":"FeatureCollection","_metadata":{"description":"Dáil constituency boundaries under the 1974 boundary regime (simplified pedagogical outline)","regime_year":1974,"data_status":"real-sourced-data","source":{"catalogue":"Civgraph (civgraph.net), map layer dail-1974","geometry_url":"https://data.civgraph.net/data/maps/parliamentary/1974_Dail.fgb","provider":"Phelim Birch (digitisation, via Civgraph)","arcgis_source":null,"licence":"CC BY-SA 4.0 (Civgraph digitised layers); see _static/data/dail_boundaries/NOTICE.md","retrieved":"2026-07-14"},"processing":"Reprojected to EPSG:4326 where needed; simplified with mapshaper (visvalingam weighted, 0.1% retained, keep-shapes, clean), coordinates rounded to 3 decimal places (~70-110 m). Outline only - not for legal or survey use."},"features":[{"type":"Feature","geometry":{"type":"Polygon","coordinates":[[[-7.842,51.954],[-7.83,51.941],[-7.721,51.939],[-7.708,51.969],[-7.614,51.981],[-7.583,51.996],[-7.586,52.019],[-7.552,52.054],[-7.587,52.051],[-7.636,52.082],[-7.588,52.1],[-7.545,52.095],[-7.5,52.103],[-7.442,52.127],[-7.37,52.139],[-7.292,52.141],[-7.218,52.132],[-7.171,52.137],[-7.131,52.169],[-7.099,52.169],[-7.079,52.156],[-7.108,52.134],[-7.023,52.133],[-6.965,52.175],[-6.983,52.189],[-6.966,52.241],[-6.988,52.25],[-7,52.276],[-7.041,52.256],[-7.042,52.256],[-7.045,52.256],[-7.047,52.256],[-7.048,52.256],[-7.051,52.256],[-7.052,52.256],[-7.053,52.256],[-7.056,52.257],[-7.057,52.257],[-7.061,52.257],[-7.064,52.257],[-7.065,52.257],[-7.066,52.257],[-7.067,52.257],[-7.068,52.257],[-7.069,52.257],[-7.07,52.257],[-7.071,52.257],[-7.072,52.257],[-7.073,52.256],[-7.076,52.256],[-7.077,52.255],[-7.078,52.255],[-7.079,52.255],[-7.08,52.254],[-7.081,52.254],[-7.082,52.253],[-7.083,52.253],[-7.084,52.252],[-7.085,52.252],[-7.086,52.252],[-7.087,52.252],[-7.088,52.252],[-7.089,52.252],[-7.09,52.252],[-7.091,52.252],[-7.092,52.253],[-7.097,52.257],[-7.101,52.266],[-7.099,52.269],[-7.1,52.27],[-7.104,52.269],[-7.105,52.269],[-7.105,52.267],[-7.109,52.267],[-7.11,52.267],[-7.116,52.267],[-7.123,52.268],[-7.124,52.268],[-7.125,52.268],[-7.13,52.269],[-7.133,52.269],[-7.134,52.27],[-7.135,52.27],[-7.135,52.271],[-7.14,52.273],[-7.142,52.274],[-7.143,52.275],[-7.146,52.276],[-7.148,52.277],[-7.151,52.279],[-7.152,52.279],[-7.152,52.28],[-7.153,52.28],[-7.155,52.28],[-7.156,52.28],[-7.158,52.279],[-7.159,52.279],[-7.16,52.279],[-7.163,52.278],[-7.165,52.277],[-7.166,52.276],[-7.167,52.275],[-7.169,52.275],[-7.17,52.274],[-7.171,52.273],[-7.172,52.272],[-7.173,52.272],[-7.173,52.271],[-7.174,52.271],[-7.176,52.269],[-7.177,52.268],[-7.179,52.266],[-7.184,52.262],[-7.187,52.261],[-7.191,52.258],[-7.194,52.255],[-7.212,52.243],[-7.265,52.267],[-7.324,52.331],[-7.372,52.343],[-7.394,52.335],[-7.437,52.348],[-7.516,52.359],[-7.596,52.364],[-7.663,52.359],[-7.726,52.349],[-7.727,52.349],[-7.732,52.348],[-7.733,52.348],[-7.78,52.343],[-7.797,52.301],[-7.753,52.256],[-7.75,52.241],[-7.746,52.217],[-7.786,52.221],[-7.808,52.213],[-7.851,52.227],[-7.915,52.228],[-7.941,52.243],[-7.972,52.242],[-7.997,52.226],[-7.99,52.212],[-8.105,52.206],[-8.12,52.195],[-8.156,52.141],[-8.072,52.144],[-8.029,52.103],[-8.014,52.074],[-8.023,52.057],[-7.938,52.014],[-7.91,51.974],[-7.86,51.976],[-7.842,51.954]]]},"properties":{"name":"Waterford","name_ga":"Port Láirge","seats":4}},{"type":"Feature","geometry":{"type":"Polygon","coordinates":[[[-7.372,52.343],[-7.397,52.364],[-7.382,52.42],[-7.425,52.452],[-7.432,52.455],[-7.468,52.472],[-7.433,52.496],[-7.458,52.537],[-7.501,52.529],[-7.568,52.548],[-7.623,52.556],[-7.647,52.547],[-7.673,52.559],[-7.812,52.544],[-7.848,52.535],[-7.892,52.54],[-7.894,52.572],[-7.968,52.592],[-7.965,52.634],[-7.982,52.65],[-8.027,52.652],[-8.106,52.684],[-8.189,52.67],[-8.194,52.648],[-8.215,52.632],[-8.214,52.595],[-8.24,52.512],[-8.286,52.522],[-8.319,52.506],[-8.36,52.511],[-8.396,52.484],[-8.405,52.465],[-8.381,52.436],[-8.314,52.436],[-8.283,52.401],[-8.232,52.411],[-8.228,52.386],[-8.193,52.364],[-8.168,52.368],[-8.169,52.292],[-8.183,52.288],[-8.161,52.242],[-8.103,52.231],[-8.105,52.206],[-7.99,52.212],[-7.997,52.226],[-7.972,52.242],[-7.941,52.243],[-7.915,52.228],[-7.851,52.227],[-7.808,52.213],[-7.786,52.221],[-7.746,52.217],[-7.75,52.241],[-7.753,52.256],[-7.797,52.301],[-7.78,52.343],[-7.733,52.348],[-7.732,52.348],[-7.727,52.349],[-7.726,52.349],[-7.663,52.359],[-7.596,52.364],[-7.516,52.359],[-7.437,52.348],[-7.394,52.335],[-7.372,52.343]]]},"properties":{"name":"South Tipperary","name_ga":"Tiobraid Árann Theas","seats":3}},{"type":"Feature","geometry":{"type":"Polygon","coordinates":[[[-7.458,52.537],[-7.451,52.582],[-7.476,52.591],[-7.475,52.616],[-7.521,52.655],[-7.537,52.691],[-7.553,52.703],[-7.646,52.735],[-7.668,52.754],[-7.674,52.781],[-7.697,52.832],[-7.735,52.858],[-7.726,52.887],[-7.664,52.923],[-7.702,52.934],[-7.73,52.958],[-7.802,52.982],[-7.826,52.973],[-7.862,52.943],[-7.845,52.932],[-7.884,52.9],[-7.964,52.857],[-7.989,52.855],[-8,52.881],[-8.04,52.889],[-8.04,52.938],[-7.993,52.931],[-7.975,52.949],[-7.993,52.999],[-7.95,52.995],[-7.964,53.042],[-7.943,53.044],[-7.922,53.083],[-7.926,53.107],[-7.956,53.125],[-8.081,53.167],[-8.124,53.16],[-8.148,53.145],[-8.174,53.112],[-8.219,53.068],[-8.268,53.056],[-8.278,53.019],[-8.317,52.985],[-8.285,52.973],[-8.338,52.915],[-8.408,52.913],[-8.418,52.875],[-8.455,52.847],[-8.443,52.787],[-8.48,52.757],[-8.465,52.704],[-8.428,52.678],[-8.407,52.69],[-8.361,52.679],[-8.306,52.694],[-8.253,52.682],[-8.229,52.665],[-8.189,52.67],[-8.106,52.684],[-8.027,52.652],[-7.982,52.65],[-7.965,52.634],[-7.968,52.592],[-7.894,52.572],[-7.892,52.54],[-7.848,52.535],[-7.812,52.544],[-7.673,52.559],[-7.647,52.547],[-7.623,52.556],[-7.568,52.548],[-7.501,52.529],[-7.458,52.537]]]},"properties":{"name":"North Tipperary","name_ga":"Tiobraid Árann Thuaidh","seats":3}},{"type":"Feature","geometry":{"type":"Polygon","coordinates":[[[-7.674,52.781],[-7.614,52.792],[-7.617,52.809],[-7.579,52.829],[-7.557,52.814],[-7.449,52.787],[-7.431,52.802],[-7.399,52.796],[-7.388,52.819],[-7.345,52.839],[-7.31,52.866],[-7.259,52.849],[-7.189,52.894],[-7.14,52.869],[-7.141,52.848],[-7.121,52.826],[-7.099,52.827],[-7.039,52.808],[-6.972,52.809],[-6.971,52.809],[-6.951,52.816],[-6.934,52.843],[-6.932,52.845],[-6.932,52.846],[-6.932,52.847],[-6.932,52.848],[-6.933,52.848],[-6.939,52.88],[-6.935,52.915],[-6.98,52.978],[-7.016,52.968],[-7.054,52.978],[-7.088,52.999],[-7.069,53.021],[-7.045,53.073],[-7.061,53.106],[-7.097,53.141],[-7.065,53.16],[-7.064,53.16],[-7.063,53.162],[-7.099,53.187],[-7.036,53.19],[-7.038,53.208],[-7.013,53.218],[-7.055,53.243],[-7.019,53.253],[-7.035,53.276],[-6.981,53.314],[-7.013,53.328],[-7.015,53.328],[-7.044,53.357],[-7.088,53.368],[-7.098,53.382],[-7.192,53.423],[-7.216,53.407],[-7.268,53.398],[-7.399,53.33],[-7.423,53.335],[-7.456,53.318],[-7.472,53.333],[-7.567,53.361],[-7.567,53.378],[-7.625,53.418],[-7.662,53.408],[-7.717,53.36],[-7.772,53.347],[-7.826,53.356],[-7.883,53.349],[-7.923,53.363],[-7.942,53.343],[-7.983,53.338],[-8.056,53.274],[-7.983,53.24],[-7.967,53.226],[-7.993,53.193],[-8.062,53.188],[-8.081,53.167],[-7.956,53.125],[-7.926,53.107],[-7.922,53.083],[-7.943,53.044],[-7.964,53.042],[-7.95,52.995],[-7.993,52.999],[-7.975,52.949],[-7.993,52.931],[-8.04,52.938],[-8.04,52.889],[-8,52.881],[-7.989,52.855],[-7.964,52.857],[-7.884,52.9],[-7.845,52.932],[-7.862,52.943],[-7.826,52.973],[-7.802,52.982],[-7.73,52.958],[-7.702,52.934],[-7.664,52.923],[-7.726,52.887],[-7.735,52.858],[-7.697,52.832],[-7.674,52.781]]]},"properties":{"name":"Laoighis-Offaly","name_ga":"Laois-Uíbh Fhailí","seats":5}},{"type":"Feature","geometry":{"type":"Polygon","coordinates":[[[-6.939,52.88],[-6.88,52.858],[-6.788,52.871],[-6.751,52.889],[-6.737,52.916],[-6.743,52.948],[-6.792,52.992],[-6.766,53.009],[-6.731,53.047],[-6.733,53.065],[-6.629,53.092],[-6.593,53.113],[-6.574,53.13],[-6.576,53.149],[-6.518,53.189],[-6.509,53.214],[-6.493,53.221],[-6.482,53.229],[-6.479,53.23],[-6.478,53.232],[-6.476,53.234],[-6.475,53.234],[-6.472,53.237],[-6.496,53.242],[-6.518,53.249],[-6.509,53.266],[-6.513,53.265],[-6.513,53.264],[-6.529,53.269],[-6.546,53.275],[-6.545,53.278],[-6.547,53.279],[-6.603,53.304],[-6.58,53.352],[-6.637,53.367],[-6.695,53.379],[-6.731,53.362],[-6.72,53.342],[-6.731,53.322],[-6.766,53.331],[-6.765,53.35],[-6.816,53.364],[-6.862,53.358],[-6.881,53.339],[-6.922,53.345],[-6.968,53.329],[-6.981,53.314],[-7.035,53.276],[-7.019,53.253],[-7.055,53.243],[-7.013,53.218],[-7.038,53.208],[-7.036,53.19],[-7.099,53.187],[-7.063,53.162],[-7.064,53.16],[-7.065,53.16],[-7.097,53.141],[-7.061,53.106],[-7.045,53.073],[-7.069,53.021],[-7.088,52.999],[-7.054,52.978],[-7.016,52.968],[-6.98,52.978],[-6.935,52.915],[-6.939,52.88]]]},"properties":{"name":"Kildare","name_ga":"Cill Dara","seats":3}},{"type":"Feature","geometry":{"type":"Polygon","coordinates":[[[-7,52.276],[-7.018,52.295],[-6.986,52.324],[-6.992,52.364],[-6.965,52.378],[-6.915,52.43],[-6.927,52.442],[-6.917,52.464],[-6.884,52.466],[-6.863,52.479],[-6.832,52.52],[-6.837,52.53],[-6.806,52.549],[-6.801,52.566],[-6.763,52.561],[-6.714,52.538],[-6.697,52.577],[-6.634,52.612],[-6.605,52.619],[-6.573,52.584],[-6.53,52.599],[-6.522,52.618],[-6.494,52.625],[-6.489,52.656],[-6.459,52.672],[-6.465,52.687],[-6.497,52.69],[-6.57,52.684],[-6.574,52.705],[-6.619,52.713],[-6.654,52.746],[-6.657,52.769],[-6.702,52.787],[-6.695,52.812],[-6.661,52.836],[-6.625,52.822],[-6.615,52.808],[-6.571,52.803],[-6.525,52.823],[-6.529,52.865],[-6.51,52.867],[-6.535,52.89],[-6.549,52.875],[-6.587,52.88],[-6.61,52.897],[-6.712,52.918],[-6.737,52.916],[-6.751,52.889],[-6.788,52.871],[-6.88,52.858],[-6.939,52.88],[-6.933,52.848],[-6.932,52.848],[-6.932,52.847],[-6.932,52.846],[-6.932,52.845],[-6.934,52.843],[-6.951,52.816],[-6.971,52.809],[-6.972,52.809],[-7.039,52.808],[-7.099,52.827],[-7.121,52.826],[-7.141,52.848],[-7.14,52.869],[-7.189,52.894],[-7.259,52.849],[-7.31,52.866],[-7.345,52.839],[-7.388,52.819],[-7.399,52.796],[-7.431,52.802],[-7.449,52.787],[-7.557,52.814],[-7.579,52.829],[-7.617,52.809],[-7.614,52.792],[-7.674,52.781],[-7.668,52.754],[-7.646,52.735],[-7.553,52.703],[-7.537,52.691],[-7.521,52.655],[-7.475,52.616],[-7.476,52.591],[-7.451,52.582],[-7.458,52.537],[-7.433,52.496],[-7.468,52.472],[-7.432,52.455],[-7.425,52.452],[-7.382,52.42],[-7.397,52.364],[-7.372,52.343],[-7.324,52.331],[-7.265,52.267],[-7.212,52.243],[-7.194,52.255],[-7.191,52.258],[-7.187,52.261],[-7.184,52.262],[-7.179,52.266],[-7.177,52.268],[-7.176,52.269],[-7.174,52.271],[-7.173,52.271],[-7.173,52.272],[-7.172,52.272],[-7.171,52.273],[-7.17,52.274],[-7.169,52.275],[-7.167,52.275],[-7.166,52.276],[-7.165,52.277],[-7.163,52.278],[-7.16,52.279],[-7.159,52.279],[-7.158,52.279],[-7.156,52.28],[-7.155,52.28],[-7.153,52.28],[-7.152,52.28],[-7.152,52.279],[-7.151,52.279],[-7.148,52.277],[-7.146,52.276],[-7.143,52.275],[-7.142,52.274],[-7.14,52.273],[-7.135,52.271],[-7.135,52.27],[-7.134,52.27],[-7.133,52.269],[-7.13,52.269],[-7.125,52.268],[-7.124,52.268],[-7.123,52.268],[-7.116,52.267],[-7.11,52.267],[-7.109,52.267],[-7.105,52.267],[-7.105,52.269],[-7.104,52.269],[-7.1,52.27],[-7.099,52.269],[-7.101,52.266],[-7.097,52.257],[-7.092,52.253],[-7.091,52.252],[-7.09,52.252],[-7.089,52.252],[-7.088,52.252],[-7.087,52.252],[-7.086,52.252],[-7.085,52.252],[-7.084,52.252],[-7.083,52.253],[-7.082,52.253],[-7.081,52.254],[-7.08,52.254],[-7.079,52.255],[-7.078,52.255],[-7.077,52.255],[-7.076,52.256],[-7.073,52.256],[-7.072,52.257],[-7.071,52.257],[-7.07,52.257],[-7.069,52.257],[-7.068,52.257],[-7.067,52.257],[-7.066,52.257],[-7.065,52.257],[-7.064,52.257],[-7.061,52.257],[-7.057,52.257],[-7.056,52.257],[-7.053,52.256],[-7.052,52.256],[-7.051,52.256],[-7.048,52.256],[-7.047,52.256],[-7.045,52.256],[-7.042,52.256],[-7.041,52.256],[-7,52.276]]]},"properties":{"name":"Carlow-Kilkenny","name_ga":"Ceatharlach-Cill Chainnigh","seats":5}},{"type":"Feature","geometry":{"type":"Polygon","coordinates":[[[-6.966,52.241],[-6.921,52.218],[-6.902,52.196],[-6.901,52.155],[-6.83,52.172],[-6.83,52.222],[-6.797,52.24],[-6.786,52.204],[-6.755,52.214],[-6.682,52.219],[-6.658,52.214],[-6.596,52.177],[-6.491,52.191],[-6.418,52.187],[-6.36,52.174],[-6.35,52.203],[-6.314,52.24],[-6.335,52.255],[-6.364,52.251],[-6.412,52.298],[-6.446,52.307],[-6.451,52.346],[-6.436,52.356],[-6.386,52.356],[-6.364,52.368],[-6.351,52.411],[-6.294,52.465],[-6.216,52.53],[-6.195,52.562],[-6.209,52.602],[-6.229,52.625],[-6.225,52.648],[-6.197,52.688],[-6.159,52.715],[-6.145,52.738],[-6.174,52.748],[-6.181,52.768],[-6.182,52.768],[-6.243,52.778],[-6.261,52.795],[-6.292,52.782],[-6.318,52.797],[-6.369,52.795],[-6.413,52.778],[-6.433,52.735],[-6.497,52.69],[-6.465,52.687],[-6.459,52.672],[-6.489,52.656],[-6.494,52.625],[-6.522,52.618],[-6.53,52.599],[-6.573,52.584],[-6.605,52.619],[-6.634,52.612],[-6.697,52.577],[-6.714,52.538],[-6.763,52.561],[-6.801,52.566],[-6.806,52.549],[-6.837,52.53],[-6.832,52.52],[-6.863,52.479],[-6.884,52.466],[-6.917,52.464],[-6.927,52.442],[-6.915,52.43],[-6.965,52.378],[-6.992,52.364],[-6.986,52.324],[-7.018,52.295],[-7,52.276],[-6.988,52.25],[-6.966,52.241]]]},"properties":{"name":"Wexford","name_ga":"Loch Garman","seats":4}},{"type":"Feature","geometry":{"type":"Polygon","coordinates":[[[-6.737,52.916],[-6.712,52.918],[-6.61,52.897],[-6.587,52.88],[-6.549,52.875],[-6.535,52.89],[-6.51,52.867],[-6.529,52.865],[-6.525,52.823],[-6.571,52.803],[-6.615,52.808],[-6.625,52.822],[-6.661,52.836],[-6.695,52.812],[-6.702,52.787],[-6.657,52.769],[-6.654,52.746],[-6.619,52.713],[-6.574,52.705],[-6.57,52.684],[-6.497,52.69],[-6.433,52.735],[-6.413,52.778],[-6.369,52.795],[-6.318,52.797],[-6.292,52.782],[-6.261,52.795],[-6.243,52.778],[-6.182,52.768],[-6.181,52.768],[-6.174,52.748],[-6.145,52.738],[-6.138,52.758],[-6.141,52.801],[-6.11,52.835],[-6.057,52.859],[-6.065,52.869],[-6.021,52.925],[-6.008,52.972],[-6.04,52.983],[-6.05,53.005],[-6.034,53.07],[-6.042,53.12],[-6.07,53.154],[-6.08,53.192],[-6.11,53.205],[-6.132,53.2],[-6.132,53.199],[-6.131,53.199],[-6.137,53.199],[-6.141,53.201],[-6.151,53.203],[-6.162,53.203],[-6.163,53.203],[-6.164,53.204],[-6.165,53.205],[-6.166,53.205],[-6.166,53.206],[-6.167,53.207],[-6.174,53.21],[-6.173,53.21],[-6.174,53.211],[-6.174,53.212],[-6.175,53.212],[-6.175,53.213],[-6.178,53.216],[-6.181,53.22],[-6.182,53.221],[-6.24,53.202],[-6.269,53.21],[-6.305,53.225],[-6.305,53.224],[-6.311,53.222],[-6.308,53.216],[-6.308,53.215],[-6.308,53.214],[-6.312,53.194],[-6.353,53.169],[-6.351,53.156],[-6.314,53.138],[-6.385,53.1],[-6.384,53.061],[-6.423,53.049],[-6.481,53.071],[-6.48,53.088],[-6.515,53.108],[-6.545,53.1],[-6.593,53.113],[-6.629,53.092],[-6.733,53.065],[-6.731,53.047],[-6.766,53.009],[-6.792,52.992],[-6.743,52.948],[-6.737,52.916]]]},"properties":{"name":"Wicklow","name_ga":"Cill Mhantáin","seats":3}},{"type":"Feature","geometry":{"type":"Polygon","coordinates":[[[-6.593,53.113],[-6.545,53.1],[-6.515,53.108],[-6.48,53.088],[-6.481,53.071],[-6.423,53.049],[-6.384,53.061],[-6.385,53.1],[-6.314,53.138],[-6.351,53.156],[-6.353,53.169],[-6.312,53.194],[-6.308,53.214],[-6.308,53.215],[-6.308,53.216],[-6.311,53.222],[-6.305,53.224],[-6.305,53.225],[-6.269,53.21],[-6.267,53.212],[-6.268,53.213],[-6.27,53.215],[-6.27,53.216],[-6.27,53.217],[-6.269,53.217],[-6.268,53.218],[-6.267,53.22],[-6.267,53.221],[-6.268,53.221],[-6.267,53.222],[-6.268,53.222],[-6.268,53.223],[-6.267,53.223],[-6.268,53.224],[-6.267,53.224],[-6.267,53.225],[-6.267,53.226],[-6.264,53.227],[-6.262,53.227],[-6.264,53.227],[-6.264,53.228],[-6.264,53.229],[-6.264,53.23],[-6.268,53.234],[-6.267,53.234],[-6.268,53.235],[-6.254,53.239],[-6.258,53.246],[-6.258,53.247],[-6.257,53.249],[-6.257,53.25],[-6.256,53.252],[-6.255,53.254],[-6.257,53.255],[-6.257,53.256],[-6.258,53.257],[-6.255,53.257],[-6.256,53.258],[-6.252,53.259],[-6.253,53.26],[-6.252,53.26],[-6.253,53.26],[-6.252,53.26],[-6.252,53.261],[-6.253,53.261],[-6.254,53.262],[-6.254,53.263],[-6.253,53.263],[-6.252,53.264],[-6.252,53.265],[-6.253,53.266],[-6.253,53.267],[-6.255,53.268],[-6.263,53.274],[-6.263,53.275],[-6.265,53.276],[-6.27,53.279],[-6.272,53.28],[-6.273,53.28],[-6.274,53.28],[-6.275,53.28],[-6.277,53.281],[-6.278,53.281],[-6.279,53.282],[-6.279,53.283],[-6.279,53.284],[-6.28,53.284],[-6.281,53.284],[-6.281,53.285],[-6.282,53.286],[-6.283,53.288],[-6.283,53.289],[-6.283,53.29],[-6.282,53.291],[-6.281,53.291],[-6.28,53.291],[-6.278,53.291],[-6.277,53.291],[-6.274,53.289],[-6.272,53.289],[-6.271,53.289],[-6.269,53.289],[-6.269,53.29],[-6.268,53.292],[-6.267,53.292],[-6.266,53.292],[-6.265,53.292],[-6.264,53.292],[-6.263,53.292],[-6.26,53.293],[-6.259,53.295],[-6.259,53.296],[-6.258,53.297],[-6.258,53.298],[-6.258,53.299],[-6.26,53.3],[-6.26,53.301],[-6.26,53.302],[-6.259,53.302],[-6.26,53.306],[-6.261,53.306],[-6.263,53.307],[-6.264,53.307],[-6.265,53.307],[-6.266,53.307],[-6.266,53.306],[-6.267,53.306],[-6.267,53.305],[-6.268,53.304],[-6.269,53.304],[-6.27,53.304],[-6.271,53.304],[-6.272,53.304],[-6.273,53.305],[-6.274,53.305],[-6.275,53.305],[-6.276,53.305],[-6.277,53.305],[-6.278,53.305],[-6.279,53.305],[-6.28,53.305],[-6.281,53.305],[-6.282,53.305],[-6.283,53.305],[-6.283,53.306],[-6.284,53.306],[-6.284,53.307],[-6.284,53.308],[-6.284,53.309],[-6.284,53.31],[-6.297,53.302],[-6.302,53.311],[-6.301,53.312],[-6.309,53.311],[-6.31,53.311],[-6.311,53.312],[-6.311,53.313],[-6.31,53.314],[-6.311,53.314],[-6.312,53.314],[-6.312,53.315],[-6.313,53.315],[-6.314,53.315],[-6.315,53.316],[-6.316,53.316],[-6.317,53.316],[-6.333,53.317],[-6.334,53.317],[-6.335,53.317],[-6.336,53.317],[-6.337,53.317],[-6.378,53.303],[-6.384,53.307],[-6.387,53.309],[-6.388,53.309],[-6.388,53.308],[-6.388,53.307],[-6.389,53.307],[-6.389,53.306],[-6.39,53.305],[-6.391,53.305],[-6.391,53.306],[-6.392,53.306],[-6.393,53.305],[-6.394,53.305],[-6.395,53.305],[-6.396,53.305],[-6.397,53.305],[-6.398,53.305],[-6.398,53.306],[-6.398,53.307],[-6.399,53.307],[-6.401,53.306],[-6.402,53.306],[-6.403,53.305],[-6.404,53.304],[-6.403,53.304],[-6.402,53.303],[-6.401,53.303],[-6.401,53.302],[-6.4,53.301],[-6.4,53.3],[-6.4,53.299],[-6.399,53.299],[-6.398,53.299],[-6.397,53.299],[-6.396,53.298],[-6.395,53.298],[-6.395,53.297],[-6.396,53.297],[-6.397,53.297],[-6.398,53.297],[-6.398,53.296],[-6.399,53.296],[-6.398,53.296],[-6.398,53.295],[-6.397,53.295],[-6.396,53.294],[-6.396,53.293],[-6.396,53.292],[-6.396,53.291],[-6.397,53.291],[-6.397,53.29],[-6.398,53.291],[-6.399,53.291],[-6.4,53.291],[-6.401,53.291],[-6.402,53.29],[-6.402,53.289],[-6.403,53.289],[-6.403,53.29],[-6.404,53.29],[-6.406,53.29],[-6.427,53.28],[-6.443,53.231],[-6.46,53.226],[-6.469,53.23],[-6.472,53.232],[-6.473,53.232],[-6.475,53.234],[-6.476,53.234],[-6.478,53.232],[-6.479,53.23],[-6.482,53.229],[-6.493,53.221],[-6.509,53.214],[-6.518,53.189],[-6.576,53.149],[-6.574,53.13],[-6.593,53.113]]]},"properties":{"name":"Mid County Dublin","name_ga":"Contae Bhaile Átha Cliath Láir","seats":3}},{"type":"Feature","geometry":{"type":"Polygon","coordinates":[[[-6.475,53.234],[-6.473,53.232],[-6.472,53.232],[-6.469,53.23],[-6.46,53.226],[-6.443,53.231],[-6.427,53.28],[-6.406,53.29],[-6.404,53.29],[-6.403,53.29],[-6.403,53.289],[-6.402,53.289],[-6.402,53.29],[-6.401,53.291],[-6.4,53.291],[-6.399,53.291],[-6.398,53.291],[-6.397,53.29],[-6.397,53.291],[-6.396,53.291],[-6.396,53.292],[-6.396,53.293],[-6.396,53.294],[-6.397,53.295],[-6.398,53.295],[-6.398,53.296],[-6.399,53.296],[-6.398,53.296],[-6.398,53.297],[-6.397,53.297],[-6.396,53.297],[-6.395,53.297],[-6.395,53.298],[-6.396,53.298],[-6.397,53.299],[-6.398,53.299],[-6.399,53.299],[-6.4,53.299],[-6.4,53.3],[-6.4,53.301],[-6.401,53.302],[-6.401,53.303],[-6.402,53.303],[-6.403,53.304],[-6.404,53.304],[-6.403,53.305],[-6.402,53.306],[-6.401,53.306],[-6.399,53.307],[-6.398,53.307],[-6.398,53.306],[-6.398,53.305],[-6.397,53.305],[-6.396,53.305],[-6.395,53.305],[-6.394,53.305],[-6.393,53.305],[-6.392,53.306],[-6.391,53.306],[-6.391,53.305],[-6.39,53.305],[-6.389,53.306],[-6.389,53.307],[-6.388,53.307],[-6.388,53.308],[-6.388,53.309],[-6.387,53.309],[-6.384,53.307],[-6.378,53.303],[-6.337,53.317],[-6.336,53.317],[-6.335,53.317],[-6.334,53.317],[-6.333,53.317],[-6.317,53.316],[-6.317,53.317],[-6.316,53.317],[-6.316,53.318],[-6.315,53.318],[-6.315,53.319],[-6.316,53.32],[-6.316,53.321],[-6.317,53.321],[-6.318,53.321],[-6.318,53.322],[-6.319,53.322],[-6.32,53.323],[-6.319,53.323],[-6.319,53.324],[-6.318,53.324],[-6.317,53.325],[-6.316,53.326],[-6.331,53.329],[-6.332,53.329],[-6.332,53.328],[-6.332,53.327],[-6.333,53.327],[-6.334,53.327],[-6.335,53.327],[-6.335,53.328],[-6.336,53.328],[-6.339,53.328],[-6.342,53.327],[-6.343,53.327],[-6.344,53.327],[-6.346,53.326],[-6.347,53.328],[-6.347,53.329],[-6.349,53.329],[-6.35,53.329],[-6.35,53.33],[-6.35,53.332],[-6.351,53.332],[-6.352,53.332],[-6.354,53.332],[-6.356,53.332],[-6.356,53.333],[-6.355,53.334],[-6.354,53.335],[-6.354,53.336],[-6.355,53.336],[-6.356,53.336],[-6.358,53.336],[-6.362,53.337],[-6.362,53.338],[-6.366,53.337],[-6.367,53.337],[-6.367,53.338],[-6.368,53.338],[-6.369,53.338],[-6.37,53.338],[-6.371,53.339],[-6.374,53.339],[-6.371,53.343],[-6.37,53.343],[-6.37,53.344],[-6.369,53.345],[-6.369,53.346],[-6.368,53.346],[-6.367,53.346],[-6.366,53.346],[-6.365,53.346],[-6.364,53.346],[-6.363,53.345],[-6.363,53.346],[-6.363,53.347],[-6.362,53.347],[-6.361,53.347],[-6.36,53.353],[-6.359,53.353],[-6.357,53.352],[-6.356,53.353],[-6.356,53.354],[-6.355,53.354],[-6.352,53.354],[-6.353,53.356],[-6.356,53.359],[-6.354,53.361],[-6.354,53.362],[-6.353,53.363],[-6.334,53.371],[-6.333,53.371],[-6.332,53.37],[-6.324,53.366],[-6.323,53.367],[-6.322,53.369],[-6.318,53.37],[-6.318,53.369],[-6.315,53.369],[-6.314,53.368],[-6.312,53.368],[-6.311,53.368],[-6.311,53.369],[-6.309,53.37],[-6.308,53.371],[-6.306,53.371],[-6.306,53.372],[-6.306,53.373],[-6.307,53.373],[-6.308,53.374],[-6.308,53.375],[-6.309,53.375],[-6.31,53.376],[-6.31,53.377],[-6.312,53.378],[-6.313,53.378],[-6.314,53.378],[-6.315,53.378],[-6.316,53.378],[-6.317,53.378],[-6.317,53.379],[-6.318,53.379],[-6.32,53.38],[-6.321,53.38],[-6.322,53.38],[-6.322,53.383],[-6.322,53.384],[-6.321,53.384],[-6.321,53.385],[-6.32,53.385],[-6.32,53.386],[-6.32,53.387],[-6.32,53.388],[-6.319,53.391],[-6.319,53.392],[-6.318,53.392],[-6.317,53.394],[-6.319,53.409],[-6.349,53.423],[-6.349,53.424],[-6.349,53.425],[-6.348,53.425],[-6.348,53.427],[-6.347,53.427],[-6.346,53.427],[-6.346,53.428],[-6.348,53.429],[-6.349,53.428],[-6.35,53.428],[-6.353,53.429],[-6.353,53.428],[-6.354,53.428],[-6.355,53.427],[-6.356,53.427],[-6.357,53.427],[-6.358,53.427],[-6.359,53.427],[-6.36,53.427],[-6.375,53.444],[-6.387,53.438],[-6.407,53.441],[-6.419,53.435],[-6.419,53.434],[-6.418,53.434],[-6.418,53.433],[-6.417,53.433],[-6.417,53.432],[-6.416,53.432],[-6.415,53.431],[-6.415,53.43],[-6.418,53.428],[-6.418,53.427],[-6.418,53.426],[-6.417,53.426],[-6.421,53.424],[-6.422,53.423],[-6.422,53.421],[-6.422,53.42],[-6.421,53.42],[-6.422,53.42],[-6.421,53.42],[-6.421,53.419],[-6.422,53.419],[-6.422,53.418],[-6.421,53.418],[-6.421,53.417],[-6.438,53.412],[-6.438,53.411],[-6.437,53.411],[-6.436,53.411],[-6.435,53.411],[-6.434,53.411],[-6.439,53.408],[-6.441,53.406],[-6.441,53.405],[-6.44,53.405],[-6.439,53.404],[-6.452,53.391],[-6.494,53.384],[-6.547,53.405],[-6.573,53.389],[-6.61,53.399],[-6.65,53.395],[-6.637,53.367],[-6.58,53.352],[-6.603,53.304],[-6.547,53.279],[-6.545,53.278],[-6.546,53.275],[-6.529,53.269],[-6.513,53.264],[-6.513,53.265],[-6.509,53.266],[-6.518,53.249],[-6.496,53.242],[-6.472,53.237],[-6.475,53.234]]]},"properties":{"name":"West County Dublin","name_ga":"Contae Bhaile Átha Cliath Thiar","seats":3}},{"type":"Feature","geometry":{"type":"Polygon","coordinates":[[[-6.316,53.326],[-6.284,53.331],[-6.326,53.342],[-6.324,53.343],[-6.325,53.343],[-6.325,53.344],[-6.325,53.345],[-6.326,53.345],[-6.352,53.354],[-6.355,53.354],[-6.356,53.354],[-6.356,53.353],[-6.357,53.352],[-6.359,53.353],[-6.36,53.353],[-6.361,53.347],[-6.362,53.347],[-6.363,53.347],[-6.363,53.346],[-6.363,53.345],[-6.364,53.346],[-6.365,53.346],[-6.366,53.346],[-6.367,53.346],[-6.368,53.346],[-6.369,53.346],[-6.369,53.345],[-6.37,53.344],[-6.37,53.343],[-6.371,53.343],[-6.374,53.339],[-6.371,53.339],[-6.37,53.338],[-6.369,53.338],[-6.368,53.338],[-6.367,53.338],[-6.367,53.337],[-6.366,53.337],[-6.362,53.338],[-6.362,53.337],[-6.358,53.336],[-6.356,53.336],[-6.355,53.336],[-6.354,53.336],[-6.354,53.335],[-6.355,53.334],[-6.356,53.333],[-6.356,53.332],[-6.354,53.332],[-6.352,53.332],[-6.351,53.332],[-6.35,53.332],[-6.35,53.33],[-6.35,53.329],[-6.349,53.329],[-6.347,53.329],[-6.347,53.328],[-6.346,53.326],[-6.344,53.327],[-6.343,53.327],[-6.342,53.327],[-6.339,53.328],[-6.336,53.328],[-6.335,53.328],[-6.335,53.327],[-6.334,53.327],[-6.333,53.327],[-6.332,53.327],[-6.332,53.328],[-6.332,53.329],[-6.331,53.329],[-6.316,53.326]]]},"properties":{"name":"Dublin (Ballyfermot)","name_ga":"Baile Átha Cliath (Baile Formaid)","seats":3}},{"type":"Feature","geometry":{"type":"Polygon","coordinates":[[[-6.26,53.306],[-6.259,53.308],[-6.26,53.33],[-6.284,53.331],[-6.316,53.326],[-6.317,53.325],[-6.318,53.324],[-6.319,53.324],[-6.319,53.323],[-6.32,53.323],[-6.319,53.322],[-6.318,53.322],[-6.318,53.321],[-6.317,53.321],[-6.316,53.321],[-6.316,53.32],[-6.315,53.319],[-6.315,53.318],[-6.316,53.318],[-6.316,53.317],[-6.317,53.317],[-6.317,53.316],[-6.316,53.316],[-6.315,53.316],[-6.314,53.315],[-6.313,53.315],[-6.312,53.315],[-6.312,53.314],[-6.311,53.314],[-6.31,53.314],[-6.311,53.313],[-6.311,53.312],[-6.31,53.311],[-6.309,53.311],[-6.301,53.312],[-6.302,53.311],[-6.297,53.302],[-6.284,53.31],[-6.284,53.309],[-6.284,53.308],[-6.284,53.307],[-6.284,53.306],[-6.283,53.306],[-6.283,53.305],[-6.282,53.305],[-6.281,53.305],[-6.28,53.305],[-6.279,53.305],[-6.278,53.305],[-6.277,53.305],[-6.276,53.305],[-6.275,53.305],[-6.274,53.305],[-6.273,53.305],[-6.272,53.304],[-6.271,53.304],[-6.27,53.304],[-6.269,53.304],[-6.268,53.304],[-6.267,53.305],[-6.267,53.306],[-6.266,53.306],[-6.266,53.307],[-6.265,53.307],[-6.264,53.307],[-6.263,53.307],[-6.261,53.306],[-6.26,53.306]]]},"properties":{"name":"Dublin (Rathmines West)","name_ga":"Baile Átha Cliath (Ráth Maonais Thiar)","seats":3}},{"type":"Feature","geometry":{"type":"Polygon","coordinates":[[[-6.352,53.354],[-6.326,53.345],[-6.325,53.345],[-6.27,53.345],[-6.264,53.358],[-6.272,53.366],[-6.272,53.367],[-6.273,53.368],[-6.274,53.368],[-6.276,53.369],[-6.278,53.37],[-6.28,53.37],[-6.28,53.371],[-6.281,53.372],[-6.282,53.372],[-6.283,53.372],[-6.283,53.373],[-6.284,53.373],[-6.285,53.373],[-6.285,53.374],[-6.286,53.374],[-6.286,53.375],[-6.286,53.376],[-6.287,53.376],[-6.287,53.377],[-6.288,53.377],[-6.289,53.377],[-6.29,53.377],[-6.29,53.378],[-6.294,53.377],[-6.299,53.376],[-6.3,53.376],[-6.304,53.376],[-6.305,53.376],[-6.306,53.377],[-6.307,53.378],[-6.308,53.378],[-6.309,53.378],[-6.31,53.378],[-6.311,53.378],[-6.312,53.378],[-6.31,53.377],[-6.31,53.376],[-6.309,53.375],[-6.308,53.375],[-6.308,53.374],[-6.307,53.373],[-6.306,53.373],[-6.306,53.372],[-6.306,53.371],[-6.308,53.371],[-6.309,53.37],[-6.311,53.369],[-6.311,53.368],[-6.312,53.368],[-6.314,53.368],[-6.315,53.369],[-6.318,53.369],[-6.318,53.37],[-6.322,53.369],[-6.323,53.367],[-6.324,53.366],[-6.332,53.37],[-6.333,53.371],[-6.334,53.371],[-6.353,53.363],[-6.354,53.362],[-6.354,53.361],[-6.356,53.359],[-6.353,53.356],[-6.352,53.354]]]},"properties":{"name":"Dublin (Cabra)","name_ga":"Baile Átha Cliath (An Chabrach)","seats":3}},{"type":"Feature","geometry":{"type":"Polygon","coordinates":[[[-6.322,53.383],[-6.321,53.383],[-6.322,53.381],[-6.322,53.38],[-6.321,53.38],[-6.32,53.38],[-6.318,53.379],[-6.317,53.379],[-6.317,53.378],[-6.316,53.378],[-6.315,53.378],[-6.314,53.378],[-6.313,53.378],[-6.312,53.378],[-6.311,53.378],[-6.31,53.378],[-6.309,53.378],[-6.308,53.378],[-6.307,53.378],[-6.306,53.377],[-6.305,53.376],[-6.304,53.376],[-6.3,53.376],[-6.299,53.376],[-6.294,53.377],[-6.29,53.378],[-6.29,53.377],[-6.289,53.377],[-6.288,53.377],[-6.287,53.377],[-6.287,53.376],[-6.286,53.376],[-6.286,53.375],[-6.286,53.374],[-6.285,53.374],[-6.285,53.373],[-6.284,53.373],[-6.283,53.373],[-6.283,53.372],[-6.282,53.372],[-6.281,53.372],[-6.28,53.371],[-6.28,53.37],[-6.278,53.37],[-6.276,53.369],[-6.274,53.368],[-6.273,53.368],[-6.272,53.367],[-6.272,53.366],[-6.264,53.358],[-6.25,53.376],[-6.265,53.379],[-6.266,53.38],[-6.265,53.389],[-6.279,53.393],[-6.285,53.397],[-6.286,53.397],[-6.287,53.397],[-6.288,53.397],[-6.289,53.398],[-6.29,53.398],[-6.291,53.398],[-6.292,53.398],[-6.293,53.398],[-6.294,53.399],[-6.295,53.399],[-6.296,53.399],[-6.297,53.399],[-6.298,53.4],[-6.299,53.4],[-6.3,53.4],[-6.301,53.4],[-6.302,53.4],[-6.303,53.4],[-6.303,53.401],[-6.304,53.401],[-6.305,53.401],[-6.306,53.401],[-6.307,53.402],[-6.308,53.402],[-6.308,53.403],[-6.309,53.403],[-6.31,53.403],[-6.31,53.402],[-6.31,53.398],[-6.311,53.398],[-6.314,53.399],[-6.316,53.394],[-6.317,53.394],[-6.318,53.392],[-6.319,53.392],[-6.319,53.391],[-6.32,53.388],[-6.32,53.387],[-6.32,53.386],[-6.32,53.385],[-6.321,53.385],[-6.321,53.384],[-6.322,53.384],[-6.322,53.383]]]},"properties":{"name":"Dublin (Finglas)","name_ga":"Baile Átha Cliath (Fionnghlas)","seats":3}},{"type":"Feature","geometry":{"type":"Polygon","coordinates":[[[-6.25,53.376],[-6.203,53.37],[-6.201,53.386],[-6.201,53.387],[-6.192,53.393],[-6.193,53.394],[-6.193,53.395],[-6.194,53.395],[-6.198,53.396],[-6.198,53.397],[-6.198,53.399],[-6.205,53.4],[-6.206,53.4],[-6.208,53.4],[-6.21,53.401],[-6.212,53.401],[-6.213,53.401],[-6.216,53.401],[-6.216,53.4],[-6.215,53.399],[-6.215,53.398],[-6.215,53.397],[-6.216,53.397],[-6.22,53.398],[-6.221,53.399],[-6.222,53.399],[-6.224,53.399],[-6.225,53.398],[-6.225,53.397],[-6.226,53.396],[-6.233,53.396],[-6.234,53.396],[-6.234,53.395],[-6.233,53.395],[-6.233,53.394],[-6.234,53.394],[-6.235,53.394],[-6.237,53.393],[-6.246,53.392],[-6.246,53.393],[-6.249,53.392],[-6.258,53.388],[-6.261,53.388],[-6.265,53.389],[-6.266,53.38],[-6.265,53.379],[-6.25,53.376]]]},"properties":{"name":"Dublin (Artane)","name_ga":"Baile Átha Cliath (Ard Aidhin)","seats":3}},{"type":"Feature","geometry":{"type":"Polygon","coordinates":[[[-6.259,53.308],[-6.258,53.308],[-6.257,53.308],[-6.254,53.308],[-6.252,53.308],[-6.249,53.308],[-6.249,53.309],[-6.245,53.313],[-6.241,53.314],[-6.24,53.314],[-6.23,53.293],[-6.229,53.293],[-6.225,53.293],[-6.222,53.294],[-6.221,53.295],[-6.22,53.295],[-6.22,53.296],[-6.22,53.297],[-6.22,53.298],[-6.219,53.299],[-6.217,53.3],[-6.214,53.302],[-6.212,53.302],[-6.209,53.303],[-6.209,53.304],[-6.208,53.309],[-6.207,53.309],[-6.207,53.31],[-6.207,53.311],[-6.205,53.312],[-6.204,53.312],[-6.203,53.312],[-6.202,53.312],[-6.201,53.312],[-6.2,53.312],[-6.199,53.312],[-6.198,53.312],[-6.199,53.313],[-6.228,53.346],[-6.243,53.347],[-6.26,53.33],[-6.259,53.308]]]},"properties":{"name":"Dublin South-East","name_ga":"Baile Átha Cliath Thoir Theas","seats":3}},{"type":"Feature","geometry":{"type":"Polygon","coordinates":[[[-6.27,53.345],[-6.243,53.347],[-6.228,53.346],[-6.223,53.345],[-6.21,53.36],[-6.203,53.37],[-6.25,53.376],[-6.264,53.358],[-6.27,53.345]]]},"properties":{"name":"Dublin North-Central","name_ga":"Baile Átha Cliath Thuaidh-Lár","seats":3}},{"type":"Feature","geometry":{"type":"Polygon","coordinates":[[[-6.284,53.331],[-6.26,53.33],[-6.243,53.347],[-6.27,53.345],[-6.325,53.345],[-6.325,53.344],[-6.325,53.343],[-6.324,53.343],[-6.326,53.342],[-6.284,53.331]]]},"properties":{"name":"Dublin South-Central","name_ga":"Baile Átha Cliath Theas-Lár","seats":3}},{"type":"Feature","geometry":{"type":"Polygon","coordinates":[[[-6.11,53.205],[-6.116,53.245],[-6.118,53.244],[-6.122,53.242],[-6.123,53.242],[-6.124,53.242],[-6.126,53.242],[-6.13,53.243],[-6.13,53.242],[-6.132,53.242],[-6.133,53.242],[-6.133,53.243],[-6.134,53.243],[-6.134,53.244],[-6.135,53.244],[-6.137,53.247],[-6.136,53.248],[-6.135,53.249],[-6.134,53.25],[-6.133,53.251],[-6.132,53.251],[-6.131,53.251],[-6.13,53.252],[-6.129,53.252],[-6.128,53.252],[-6.128,53.253],[-6.128,53.254],[-6.128,53.255],[-6.128,53.256],[-6.128,53.257],[-6.128,53.258],[-6.128,53.259],[-6.129,53.259],[-6.129,53.26],[-6.13,53.261],[-6.131,53.263],[-6.132,53.263],[-6.132,53.264],[-6.134,53.265],[-6.134,53.266],[-6.135,53.266],[-6.134,53.266],[-6.133,53.266],[-6.133,53.267],[-6.132,53.267],[-6.131,53.267],[-6.13,53.267],[-6.13,53.268],[-6.13,53.267],[-6.129,53.267],[-6.129,53.268],[-6.128,53.268],[-6.127,53.268],[-6.127,53.269],[-6.126,53.269],[-6.125,53.269],[-6.124,53.27],[-6.123,53.27],[-6.122,53.27],[-6.122,53.271],[-6.121,53.271],[-6.121,53.272],[-6.121,53.273],[-6.121,53.274],[-6.122,53.275],[-6.123,53.275],[-6.124,53.275],[-6.125,53.275],[-6.126,53.275],[-6.126,53.276],[-6.126,53.275],[-6.127,53.275],[-6.127,53.274],[-6.128,53.274],[-6.129,53.274],[-6.129,53.273],[-6.13,53.273],[-6.13,53.272],[-6.131,53.272],[-6.132,53.272],[-6.133,53.272],[-6.134,53.272],[-6.135,53.272],[-6.136,53.272],[-6.14,53.273],[-6.141,53.273],[-6.144,53.274],[-6.144,53.275],[-6.143,53.275],[-6.143,53.276],[-6.143,53.277],[-6.143,53.276],[-6.144,53.276],[-6.15,53.261],[-6.151,53.261],[-6.151,53.26],[-6.152,53.26],[-6.153,53.257],[-6.154,53.256],[-6.154,53.255],[-6.155,53.255],[-6.157,53.255],[-6.158,53.255],[-6.161,53.255],[-6.162,53.255],[-6.165,53.256],[-6.166,53.257],[-6.169,53.258],[-6.17,53.258],[-6.172,53.255],[-6.199,53.277],[-6.198,53.279],[-6.2,53.279],[-6.201,53.279],[-6.202,53.279],[-6.202,53.28],[-6.201,53.28],[-6.201,53.281],[-6.201,53.282],[-6.203,53.284],[-6.204,53.284],[-6.206,53.284],[-6.208,53.284],[-6.209,53.285],[-6.209,53.286],[-6.208,53.286],[-6.208,53.287],[-6.208,53.288],[-6.207,53.289],[-6.206,53.289],[-6.204,53.288],[-6.203,53.288],[-6.202,53.288],[-6.199,53.289],[-6.198,53.289],[-6.202,53.293],[-6.201,53.293],[-6.205,53.3],[-6.206,53.3],[-6.206,53.301],[-6.207,53.301],[-6.208,53.302],[-6.208,53.303],[-6.209,53.303],[-6.209,53.304],[-6.209,53.303],[-6.212,53.302],[-6.214,53.302],[-6.217,53.3],[-6.219,53.299],[-6.22,53.298],[-6.22,53.297],[-6.22,53.296],[-6.22,53.295],[-6.221,53.295],[-6.222,53.294],[-6.225,53.293],[-6.229,53.293],[-6.23,53.293],[-6.24,53.314],[-6.241,53.314],[-6.245,53.313],[-6.249,53.309],[-6.249,53.308],[-6.252,53.308],[-6.254,53.308],[-6.257,53.308],[-6.258,53.308],[-6.259,53.308],[-6.26,53.306],[-6.259,53.302],[-6.26,53.302],[-6.26,53.301],[-6.26,53.3],[-6.258,53.299],[-6.258,53.298],[-6.258,53.297],[-6.259,53.296],[-6.259,53.295],[-6.26,53.293],[-6.263,53.292],[-6.264,53.292],[-6.265,53.292],[-6.266,53.292],[-6.267,53.292],[-6.268,53.292],[-6.269,53.29],[-6.269,53.289],[-6.271,53.289],[-6.272,53.289],[-6.274,53.289],[-6.277,53.291],[-6.278,53.291],[-6.28,53.291],[-6.281,53.291],[-6.282,53.291],[-6.283,53.29],[-6.283,53.289],[-6.283,53.288],[-6.282,53.286],[-6.281,53.285],[-6.281,53.284],[-6.28,53.284],[-6.279,53.284],[-6.279,53.283],[-6.279,53.282],[-6.278,53.281],[-6.277,53.281],[-6.275,53.28],[-6.274,53.28],[-6.273,53.28],[-6.272,53.28],[-6.27,53.279],[-6.265,53.276],[-6.263,53.275],[-6.263,53.274],[-6.255,53.268],[-6.253,53.267],[-6.253,53.266],[-6.252,53.265],[-6.252,53.264],[-6.253,53.263],[-6.254,53.263],[-6.254,53.262],[-6.253,53.261],[-6.252,53.261],[-6.252,53.26],[-6.253,53.26],[-6.252,53.26],[-6.253,53.26],[-6.252,53.259],[-6.256,53.258],[-6.255,53.257],[-6.258,53.257],[-6.257,53.256],[-6.257,53.255],[-6.255,53.254],[-6.256,53.252],[-6.257,53.25],[-6.257,53.249],[-6.258,53.247],[-6.258,53.246],[-6.254,53.239],[-6.268,53.235],[-6.267,53.234],[-6.268,53.234],[-6.264,53.23],[-6.264,53.229],[-6.264,53.228],[-6.264,53.227],[-6.262,53.227],[-6.264,53.227],[-6.267,53.226],[-6.267,53.225],[-6.267,53.224],[-6.268,53.224],[-6.267,53.223],[-6.268,53.223],[-6.268,53.222],[-6.267,53.222],[-6.268,53.221],[-6.267,53.221],[-6.267,53.22],[-6.268,53.218],[-6.269,53.217],[-6.27,53.217],[-6.27,53.216],[-6.27,53.215],[-6.268,53.213],[-6.267,53.212],[-6.269,53.21],[-6.24,53.202],[-6.182,53.221],[-6.181,53.22],[-6.178,53.216],[-6.175,53.213],[-6.175,53.212],[-6.174,53.212],[-6.174,53.211],[-6.173,53.21],[-6.174,53.21],[-6.167,53.207],[-6.166,53.206],[-6.166,53.205],[-6.165,53.205],[-6.164,53.204],[-6.163,53.203],[-6.162,53.203],[-6.151,53.203],[-6.141,53.201],[-6.137,53.199],[-6.131,53.199],[-6.132,53.199],[-6.132,53.2],[-6.11,53.205]]]},"properties":{"name":"South County Dublin","name_ga":"Contae Bhaile Átha Cliath Theas","seats":3}},{"type":"Feature","geometry":{"type":"Polygon","coordinates":[[[-6.209,53.304],[-6.209,53.303],[-6.208,53.303],[-6.208,53.302],[-6.207,53.301],[-6.206,53.301],[-6.206,53.3],[-6.205,53.3],[-6.201,53.293],[-6.202,53.293],[-6.198,53.289],[-6.199,53.289],[-6.202,53.288],[-6.203,53.288],[-6.204,53.288],[-6.206,53.289],[-6.207,53.289],[-6.208,53.288],[-6.208,53.287],[-6.208,53.286],[-6.209,53.286],[-6.209,53.285],[-6.208,53.284],[-6.206,53.284],[-6.204,53.284],[-6.203,53.284],[-6.201,53.282],[-6.201,53.281],[-6.201,53.28],[-6.202,53.28],[-6.202,53.279],[-6.201,53.279],[-6.2,53.279],[-6.198,53.279],[-6.199,53.277],[-6.172,53.255],[-6.17,53.258],[-6.169,53.258],[-6.166,53.257],[-6.165,53.256],[-6.162,53.255],[-6.161,53.255],[-6.158,53.255],[-6.157,53.255],[-6.155,53.255],[-6.154,53.255],[-6.154,53.256],[-6.153,53.257],[-6.152,53.26],[-6.151,53.26],[-6.151,53.261],[-6.15,53.261],[-6.144,53.276],[-6.143,53.276],[-6.143,53.277],[-6.143,53.276],[-6.143,53.275],[-6.144,53.275],[-6.144,53.274],[-6.141,53.273],[-6.14,53.273],[-6.136,53.272],[-6.135,53.272],[-6.134,53.272],[-6.133,53.272],[-6.132,53.272],[-6.131,53.272],[-6.13,53.272],[-6.13,53.273],[-6.129,53.273],[-6.129,53.274],[-6.128,53.274],[-6.127,53.274],[-6.127,53.275],[-6.126,53.275],[-6.126,53.276],[-6.126,53.275],[-6.125,53.275],[-6.124,53.275],[-6.123,53.275],[-6.122,53.275],[-6.121,53.274],[-6.121,53.273],[-6.121,53.272],[-6.121,53.271],[-6.122,53.271],[-6.122,53.27],[-6.123,53.27],[-6.124,53.27],[-6.125,53.269],[-6.126,53.269],[-6.127,53.269],[-6.127,53.268],[-6.128,53.268],[-6.129,53.268],[-6.129,53.267],[-6.13,53.267],[-6.13,53.268],[-6.13,53.267],[-6.131,53.267],[-6.132,53.267],[-6.133,53.267],[-6.133,53.266],[-6.134,53.266],[-6.135,53.266],[-6.134,53.266],[-6.134,53.265],[-6.132,53.264],[-6.132,53.263],[-6.131,53.263],[-6.13,53.261],[-6.129,53.26],[-6.129,53.259],[-6.128,53.259],[-6.128,53.258],[-6.128,53.257],[-6.128,53.256],[-6.128,53.255],[-6.128,53.254],[-6.128,53.253],[-6.128,53.252],[-6.129,53.252],[-6.13,53.252],[-6.131,53.251],[-6.132,53.251],[-6.133,53.251],[-6.134,53.25],[-6.135,53.249],[-6.136,53.248],[-6.137,53.247],[-6.135,53.244],[-6.134,53.244],[-6.134,53.243],[-6.133,53.243],[-6.133,53.242],[-6.132,53.242],[-6.13,53.242],[-6.13,53.243],[-6.126,53.242],[-6.124,53.242],[-6.123,53.242],[-6.122,53.242],[-6.118,53.244],[-6.116,53.245],[-6.094,53.275],[-6.132,53.296],[-6.198,53.312],[-6.199,53.312],[-6.2,53.312],[-6.201,53.312],[-6.202,53.312],[-6.203,53.312],[-6.204,53.312],[-6.205,53.312],[-6.207,53.311],[-6.207,53.31],[-6.207,53.309],[-6.208,53.309],[-6.209,53.304]]]},"properties":{"name":"Dún Laoghaire","name_ga":"Dún Laoghaire","seats":4}},{"type":"Feature","geometry":{"type":"Polygon","coordinates":[[[-6.203,53.37],[-6.21,53.36],[-6.178,53.363],[-6.158,53.378],[-6.117,53.389],[-6.085,53.363],[-6.059,53.364],[-6.045,53.385],[-6.128,53.4],[-6.135,53.398],[-6.136,53.398],[-6.139,53.399],[-6.141,53.399],[-6.141,53.4],[-6.144,53.401],[-6.144,53.4],[-6.145,53.399],[-6.145,53.397],[-6.146,53.397],[-6.147,53.397],[-6.15,53.398],[-6.151,53.398],[-6.151,53.397],[-6.151,53.396],[-6.152,53.396],[-6.152,53.395],[-6.152,53.394],[-6.153,53.394],[-6.154,53.393],[-6.155,53.392],[-6.156,53.392],[-6.16,53.392],[-6.162,53.392],[-6.163,53.393],[-6.167,53.393],[-6.168,53.393],[-6.169,53.393],[-6.173,53.392],[-6.174,53.392],[-6.175,53.392],[-6.178,53.393],[-6.178,53.394],[-6.179,53.393],[-6.179,53.392],[-6.18,53.392],[-6.18,53.393],[-6.182,53.393],[-6.183,53.393],[-6.184,53.393],[-6.186,53.393],[-6.187,53.393],[-6.188,53.392],[-6.192,53.393],[-6.201,53.387],[-6.201,53.386],[-6.203,53.37]]]},"properties":{"name":"Dublin (Clontarf)","name_ga":"Baile Átha Cliath (Cluain Tarbh)","seats":3}},{"type":"Feature","geometry":{"type":"MultiPolygon","coordinates":[[[[-6.317,53.394],[-6.316,53.394],[-6.314,53.399],[-6.311,53.398],[-6.31,53.398],[-6.31,53.402],[-6.31,53.403],[-6.309,53.403],[-6.308,53.403],[-6.308,53.402],[-6.307,53.402],[-6.306,53.401],[-6.305,53.401],[-6.304,53.401],[-6.303,53.401],[-6.303,53.4],[-6.302,53.4],[-6.301,53.4],[-6.3,53.4],[-6.299,53.4],[-6.298,53.4],[-6.297,53.399],[-6.296,53.399],[-6.295,53.399],[-6.294,53.399],[-6.293,53.398],[-6.292,53.398],[-6.291,53.398],[-6.29,53.398],[-6.289,53.398],[-6.288,53.397],[-6.287,53.397],[-6.286,53.397],[-6.285,53.397],[-6.279,53.393],[-6.265,53.389],[-6.261,53.388],[-6.258,53.388],[-6.249,53.392],[-6.246,53.393],[-6.246,53.392],[-6.237,53.393],[-6.235,53.394],[-6.234,53.394],[-6.233,53.394],[-6.233,53.395],[-6.234,53.395],[-6.234,53.396],[-6.233,53.396],[-6.226,53.396],[-6.225,53.397],[-6.225,53.398],[-6.224,53.399],[-6.222,53.399],[-6.221,53.399],[-6.22,53.398],[-6.216,53.397],[-6.215,53.397],[-6.215,53.398],[-6.215,53.399],[-6.216,53.4],[-6.216,53.401],[-6.213,53.401],[-6.212,53.401],[-6.21,53.401],[-6.208,53.4],[-6.206,53.4],[-6.205,53.4],[-6.198,53.399],[-6.198,53.397],[-6.198,53.396],[-6.194,53.395],[-6.193,53.395],[-6.193,53.394],[-6.192,53.393],[-6.188,53.392],[-6.187,53.393],[-6.186,53.393],[-6.184,53.393],[-6.183,53.393],[-6.182,53.393],[-6.18,53.393],[-6.18,53.392],[-6.179,53.392],[-6.179,53.393],[-6.178,53.394],[-6.178,53.393],[-6.175,53.392],[-6.174,53.392],[-6.173,53.392],[-6.169,53.393],[-6.168,53.393],[-6.167,53.393],[-6.163,53.393],[-6.162,53.392],[-6.16,53.392],[-6.156,53.392],[-6.155,53.392],[-6.154,53.393],[-6.153,53.394],[-6.152,53.394],[-6.152,53.395],[-6.152,53.396],[-6.151,53.396],[-6.151,53.397],[-6.151,53.398],[-6.15,53.398],[-6.147,53.397],[-6.146,53.397],[-6.145,53.397],[-6.145,53.399],[-6.144,53.4],[-6.144,53.401],[-6.141,53.4],[-6.141,53.399],[-6.139,53.399],[-6.136,53.398],[-6.135,53.398],[-6.128,53.4],[-6.113,53.403],[-6.134,53.453],[-6.108,53.494],[-6.118,53.509],[-6.084,53.517],[-6.084,53.56],[-6.105,53.581],[-6.155,53.591],[-6.188,53.626],[-6.215,53.633],[-6.257,53.632],[-6.272,53.597],[-6.335,53.573],[-6.369,53.589],[-6.414,53.573],[-6.433,53.544],[-6.367,53.506],[-6.329,53.492],[-6.338,53.478],[-6.348,53.472],[-6.352,53.466],[-6.353,53.466],[-6.354,53.464],[-6.354,53.463],[-6.355,53.463],[-6.355,53.462],[-6.354,53.462],[-6.355,53.462],[-6.355,53.461],[-6.355,53.46],[-6.355,53.459],[-6.355,53.458],[-6.354,53.457],[-6.355,53.456],[-6.355,53.453],[-6.355,53.452],[-6.356,53.451],[-6.355,53.451],[-6.354,53.45],[-6.354,53.448],[-6.353,53.448],[-6.354,53.448],[-6.355,53.447],[-6.365,53.444],[-6.375,53.444],[-6.36,53.427],[-6.359,53.427],[-6.358,53.427],[-6.357,53.427],[-6.356,53.427],[-6.355,53.427],[-6.354,53.428],[-6.353,53.428],[-6.353,53.429],[-6.35,53.428],[-6.349,53.428],[-6.348,53.429],[-6.346,53.428],[-6.346,53.427],[-6.347,53.427],[-6.348,53.427],[-6.348,53.425],[-6.349,53.425],[-6.349,53.424],[-6.349,53.423],[-6.319,53.409],[-6.317,53.394]]],[[[-6.322,53.38],[-6.322,53.381],[-6.321,53.383],[-6.322,53.383],[-6.322,53.38]]]]},"properties":{"name":"North County Dublin","name_ga":"Contae Bhaile Átha Cliath Thuaidh","seats":3}},{"type":"Feature","geometry":{"type":"Polygon","coordinates":[[[-6.581,53.817],[-6.515,53.767],[-6.467,53.77],[-6.447,53.758],[-6.482,53.73],[-6.444,53.716],[-6.428,53.721],[-6.418,53.726],[-6.348,53.705],[-6.325,53.719],[-6.27,53.732],[-6.247,53.722],[-6.249,53.754],[-6.238,53.784],[-6.26,53.806],[-6.25,53.851],[-6.238,53.86],[-6.306,53.879],[-6.331,53.876],[-6.369,53.904],[-6.377,53.957],[-6.366,53.98],[-6.34,53.997],[-6.297,54.009],[-6.25,53.988],[-6.164,53.977],[-6.11,53.996],[-6.129,54.031],[-6.152,54.028],[-6.195,54.056],[-6.246,54.077],[-6.278,54.109],[-6.368,54.111],[-6.367,54.07],[-6.387,54.062],[-6.433,54.061],[-6.476,54.069],[-6.516,54.053],[-6.587,54.058],[-6.624,54.036],[-6.667,54.002],[-6.636,53.983],[-6.658,53.952],[-6.717,53.939],[-6.718,53.906],[-6.626,53.88],[-6.594,53.851],[-6.581,53.817]]]},"properties":{"name":"Louth","name_ga":"Lú","seats":4}},{"type":"Feature","geometry":{"type":"Polygon","coordinates":[[[-6.981,53.314],[-6.968,53.329],[-6.922,53.345],[-6.881,53.339],[-6.862,53.358],[-6.816,53.364],[-6.765,53.35],[-6.766,53.331],[-6.731,53.322],[-6.72,53.342],[-6.731,53.362],[-6.695,53.379],[-6.637,53.367],[-6.65,53.395],[-6.61,53.399],[-6.573,53.389],[-6.547,53.405],[-6.494,53.384],[-6.452,53.391],[-6.439,53.404],[-6.44,53.405],[-6.441,53.405],[-6.441,53.406],[-6.439,53.408],[-6.434,53.411],[-6.435,53.411],[-6.436,53.411],[-6.437,53.411],[-6.438,53.411],[-6.438,53.412],[-6.421,53.417],[-6.421,53.418],[-6.422,53.418],[-6.422,53.419],[-6.421,53.419],[-6.421,53.42],[-6.422,53.42],[-6.421,53.42],[-6.422,53.42],[-6.422,53.421],[-6.422,53.423],[-6.421,53.424],[-6.417,53.426],[-6.418,53.426],[-6.418,53.427],[-6.418,53.428],[-6.415,53.43],[-6.415,53.431],[-6.416,53.432],[-6.417,53.432],[-6.417,53.433],[-6.418,53.433],[-6.418,53.434],[-6.419,53.434],[-6.419,53.435],[-6.407,53.441],[-6.387,53.438],[-6.375,53.444],[-6.365,53.444],[-6.355,53.447],[-6.354,53.448],[-6.353,53.448],[-6.354,53.448],[-6.354,53.45],[-6.355,53.451],[-6.356,53.451],[-6.355,53.452],[-6.355,53.453],[-6.355,53.456],[-6.354,53.457],[-6.355,53.458],[-6.355,53.459],[-6.355,53.46],[-6.355,53.461],[-6.355,53.462],[-6.354,53.462],[-6.355,53.462],[-6.355,53.463],[-6.354,53.463],[-6.354,53.464],[-6.353,53.466],[-6.352,53.466],[-6.348,53.472],[-6.338,53.478],[-6.329,53.492],[-6.367,53.506],[-6.433,53.544],[-6.414,53.573],[-6.369,53.589],[-6.335,53.573],[-6.272,53.597],[-6.257,53.632],[-6.215,53.633],[-6.231,53.664],[-6.247,53.722],[-6.27,53.732],[-6.325,53.719],[-6.348,53.705],[-6.418,53.726],[-6.428,53.721],[-6.444,53.716],[-6.482,53.73],[-6.447,53.758],[-6.467,53.77],[-6.515,53.767],[-6.581,53.817],[-6.594,53.851],[-6.626,53.88],[-6.718,53.906],[-6.777,53.914],[-6.784,53.898],[-6.835,53.895],[-6.845,53.879],[-6.881,53.875],[-6.884,53.88],[-6.916,53.891],[-6.917,53.891],[-6.921,53.892],[-6.931,53.872],[-6.972,53.858],[-6.953,53.836],[-6.918,53.817],[-6.951,53.782],[-7.004,53.766],[-7.105,53.777],[-7.141,53.799],[-7.194,53.795],[-7.229,53.772],[-7.278,53.782],[-7.308,53.813],[-7.344,53.799],[-7.336,53.788],[-7.292,53.778],[-7.264,53.748],[-7.23,53.734],[-7.226,53.703],[-7.147,53.684],[-7.131,53.674],[-7.13,53.674],[-7.074,53.648],[-7.055,53.655],[-7.004,53.677],[-6.981,53.671],[-6.96,53.648],[-6.99,53.578],[-7.023,53.575],[-7.035,53.559],[-7.035,53.558],[-7.028,53.55],[-7.028,53.549],[-7.027,53.549],[-7.022,53.534],[-7.022,53.533],[-7.035,53.504],[-7.065,53.497],[-7.067,53.48],[-7.067,53.478],[-7.063,53.469],[-7.123,53.446],[-7.186,53.434],[-7.192,53.423],[-7.098,53.382],[-7.088,53.368],[-7.044,53.357],[-7.015,53.328],[-7.013,53.328],[-6.981,53.314]]]},"properties":{"name":"Meath","name_ga":"An Mhí","seats":4}},{"type":"Feature","geometry":{"type":"MultiPolygon","coordinates":[[[[-8.006,54.546],[-7.938,54.533],[-7.869,54.535],[-7.8,54.576],[-7.76,54.594],[-7.696,54.611],[-7.705,54.632],[-7.743,54.62],[-7.784,54.633],[-7.897,54.658],[-7.914,54.676],[-7.911,54.701],[-7.877,54.705],[-7.837,54.736],[-7.805,54.719],[-7.746,54.704],[-7.712,54.726],[-7.677,54.731],[-7.637,54.751],[-7.579,54.743],[-7.548,54.755],[-7.542,54.798],[-7.484,54.824],[-7.444,54.869],[-7.452,54.9],[-7.448,54.934],[-7.405,54.942],[-7.391,55.022],[-7.345,55.051],[-7.318,55.045],[-7.259,55.066],[-7.201,55.121],[-7.157,55.15],[-7.121,55.158],[-7.05,55.187],[-6.95,55.211],[-6.923,55.236],[-6.957,55.254],[-6.996,55.254],[-7.011,55.266],[-7.063,55.272],[-7.105,55.288],[-7.156,55.297],[-7.179,55.34],[-7.291,55.369],[-7.332,55.368],[-7.37,55.383],[-7.386,55.367],[-7.348,55.358],[-7.354,55.332],[-7.258,55.286],[-7.29,55.275],[-7.316,55.304],[-7.375,55.316],[-7.384,55.293],[-7.45,55.289],[-7.509,55.265],[-7.518,55.239],[-7.536,55.229],[-7.555,55.198],[-7.516,55.183],[-7.489,55.159],[-7.459,55.119],[-7.479,55.09],[-7.533,55.072],[-7.513,55.04],[-7.517,55.025],[-7.597,54.993],[-7.616,54.972],[-7.659,54.969],[-7.634,54.997],[-7.559,55.035],[-7.568,55.054],[-7.597,55.062],[-7.584,55.082],[-7.533,55.094],[-7.522,55.136],[-7.615,55.192],[-7.607,55.217],[-7.627,55.269],[-7.659,55.277],[-7.702,55.248],[-7.755,55.247],[-7.758,55.234],[-7.794,55.221],[-7.772,55.192],[-7.68,55.165],[-7.697,55.152],[-7.726,55.175],[-7.796,55.183],[-7.814,55.198],[-7.817,55.226],[-7.867,55.227],[-7.874,55.205],[-7.839,55.195],[-7.825,55.177],[-7.854,55.164],[-7.902,55.177],[-7.946,55.181],[-7.942,55.212],[-7.975,55.224],[-8.016,55.214],[-8.027,55.173],[-8.119,55.16],[-8.123,55.145],[-8.273,55.155],[-8.313,55.114],[-8.315,55.075],[-8.349,55.064],[-8.343,55.047],[-8.395,55.044],[-8.408,55.014],[-8.452,54.999],[-8.414,54.959],[-8.373,54.943],[-8.427,54.935],[-8.459,54.919],[-8.443,54.905],[-8.388,54.888],[-8.386,54.852],[-8.447,54.839],[-8.502,54.845],[-8.527,54.812],[-8.473,54.79],[-8.537,54.765],[-8.594,54.778],[-8.665,54.769],[-8.75,54.728],[-8.75,54.708],[-8.806,54.698],[-8.795,54.669],[-8.773,54.657],[-8.692,54.642],[-8.676,54.62],[-8.623,54.623],[-8.562,54.616],[-8.487,54.635],[-8.464,54.606],[-8.432,54.63],[-8.397,54.635],[-8.353,54.615],[-8.342,54.631],[-8.272,54.635],[-8.272,54.607],[-8.187,54.64],[-8.156,54.634],[-8.121,54.646],[-8.115,54.62],[-8.134,54.605],[-8.163,54.604],[-8.176,54.588],[-8.221,54.568],[-8.21,54.549],[-8.265,54.528],[-8.254,54.512],[-8.215,54.502],[-8.113,54.491],[-8.114,54.527],[-8.148,54.524],[-8.131,54.553],[-8.07,54.573],[-8.014,54.563],[-8.006,54.546]]],[[[-8.516,55.007],[-8.539,55.02],[-8.563,54.995],[-8.567,54.976],[-8.488,54.973],[-8.516,55.007]]]]},"properties":{"name":"Donegal","name_ga":"Dún na nGall","seats":5}},{"type":"Feature","geometry":{"type":"Polygon","coordinates":[[[-6.624,54.036],[-6.65,54.061],[-6.645,54.099],[-6.661,54.123],[-6.632,54.147],[-6.636,54.171],[-6.665,54.193],[-6.707,54.2],[-6.746,54.189],[-6.801,54.213],[-6.829,54.247],[-6.827,54.26],[-6.876,54.278],[-6.852,54.291],[-6.877,54.347],[-6.907,54.352],[-6.911,54.375],[-6.982,54.41],[-7.029,54.421],[-7.054,54.412],[-7.071,54.39],[-7.109,54.366],[-7.104,54.356],[-7.152,54.336],[-7.212,54.3],[-7.173,54.286],[-7.151,54.258],[-7.147,54.225],[-7.185,54.225],[-7.248,54.204],[-7.26,54.184],[-7.253,54.155],[-7.263,54.137],[-7.31,54.167],[-7.339,54.147],[-7.307,54.124],[-7.335,54.117],[-7.442,54.154],[-7.481,54.122],[-7.528,54.136],[-7.546,54.127],[-7.61,54.144],[-7.625,54.165],[-7.692,54.204],[-7.804,54.207],[-7.862,54.219],[-7.861,54.261],[-7.871,54.288],[-7.888,54.301],[-7.947,54.304],[-7.951,54.3],[-7.953,54.298],[-8.01,54.248],[-8.041,54.254],[-8.058,54.236],[-8.034,54.216],[-8.039,54.184],[-8.006,54.192],[-7.984,54.179],[-7.953,54.179],[-7.888,54.142],[-7.859,54.113],[-7.822,54.096],[-7.788,54.108],[-7.753,54.102],[-7.751,54.102],[-7.737,54.083],[-7.709,54.084],[-7.685,54.06],[-7.658,54.056],[-7.64,54.023],[-7.601,54.013],[-7.585,53.981],[-7.61,53.938],[-7.558,53.904],[-7.585,53.857],[-7.543,53.853],[-7.494,53.86],[-7.477,53.854],[-7.456,53.802],[-7.378,53.785],[-7.344,53.799],[-7.308,53.813],[-7.278,53.782],[-7.229,53.772],[-7.194,53.795],[-7.141,53.799],[-7.105,53.777],[-7.004,53.766],[-6.951,53.782],[-6.918,53.817],[-6.953,53.836],[-6.972,53.858],[-6.931,53.872],[-6.921,53.892],[-6.917,53.891],[-6.916,53.891],[-6.884,53.88],[-6.881,53.875],[-6.845,53.879],[-6.835,53.895],[-6.784,53.898],[-6.777,53.914],[-6.718,53.906],[-6.717,53.939],[-6.658,53.952],[-6.636,53.983],[-6.667,54.002],[-6.624,54.036]]]},"properties":{"name":"Cavan-Monaghan","name_ga":"An Cabhán-Muineachán","seats":5}},{"type":"Feature","geometry":{"type":"Polygon","coordinates":[[[-7.192,53.423],[-7.186,53.434],[-7.123,53.446],[-7.063,53.469],[-7.067,53.478],[-7.067,53.48],[-7.065,53.497],[-7.035,53.504],[-7.022,53.533],[-7.022,53.534],[-7.027,53.549],[-7.028,53.549],[-7.028,53.55],[-7.035,53.558],[-7.035,53.559],[-7.023,53.575],[-6.99,53.578],[-6.96,53.648],[-6.981,53.671],[-7.004,53.677],[-7.055,53.655],[-7.074,53.648],[-7.13,53.674],[-7.131,53.674],[-7.147,53.684],[-7.226,53.703],[-7.23,53.734],[-7.264,53.748],[-7.292,53.778],[-7.336,53.788],[-7.344,53.799],[-7.378,53.785],[-7.456,53.802],[-7.477,53.854],[-7.494,53.86],[-7.543,53.853],[-7.585,53.857],[-7.558,53.904],[-7.61,53.938],[-7.647,53.941],[-7.667,53.921],[-7.693,53.916],[-7.738,53.876],[-7.777,53.868],[-7.772,53.846],[-7.788,53.816],[-7.829,53.811],[-7.864,53.826],[-7.883,53.821],[-7.882,53.823],[-7.882,53.826],[-7.882,53.827],[-7.918,53.819],[-7.909,53.794],[-7.876,53.777],[-7.89,53.758],[-7.944,53.728],[-7.951,53.712],[-7.988,53.698],[-7.984,53.68],[-8.035,53.643],[-8.036,53.608],[-7.981,53.552],[-7.955,53.481],[-7.967,53.45],[-7.914,53.379],[-7.923,53.363],[-7.883,53.349],[-7.826,53.356],[-7.772,53.347],[-7.717,53.36],[-7.662,53.408],[-7.625,53.418],[-7.567,53.378],[-7.567,53.361],[-7.472,53.333],[-7.456,53.318],[-7.423,53.335],[-7.399,53.33],[-7.268,53.398],[-7.216,53.407],[-7.192,53.423]]]},"properties":{"name":"Longford-Westmeath","name_ga":"An Longfort-An Iarmhí","seats":4}},{"type":"Feature","geometry":{"type":"Polygon","coordinates":[[[-7.923,53.363],[-7.914,53.379],[-7.967,53.45],[-7.955,53.481],[-7.981,53.552],[-8.036,53.608],[-8.035,53.643],[-7.984,53.68],[-7.988,53.698],[-7.951,53.712],[-7.944,53.728],[-7.89,53.758],[-7.876,53.777],[-7.909,53.794],[-7.918,53.819],[-7.882,53.827],[-7.882,53.826],[-7.882,53.823],[-7.883,53.821],[-7.864,53.826],[-7.829,53.811],[-7.788,53.816],[-7.772,53.846],[-7.777,53.868],[-7.738,53.876],[-7.693,53.916],[-7.667,53.921],[-7.647,53.941],[-7.61,53.938],[-7.585,53.981],[-7.601,54.013],[-7.64,54.023],[-7.658,54.056],[-7.685,54.06],[-7.709,54.084],[-7.737,54.083],[-7.751,54.102],[-7.753,54.102],[-7.788,54.108],[-7.822,54.096],[-7.859,54.113],[-7.888,54.142],[-7.953,54.179],[-7.984,54.179],[-8.006,54.192],[-8.039,54.184],[-8.053,54.105],[-8.072,54.105],[-8.073,54.105],[-8.083,54.105],[-8.083,54.106],[-8.148,54.124],[-8.177,54.088],[-8.218,54.084],[-8.219,54.062],[-8.295,54.045],[-8.315,54.005],[-8.366,54.005],[-8.405,53.961],[-8.361,53.948],[-8.336,53.926],[-8.448,53.926],[-8.473,53.916],[-8.473,53.917],[-8.488,53.921],[-8.513,53.917],[-8.459,53.868],[-8.513,53.832],[-8.531,53.811],[-8.508,53.793],[-8.533,53.764],[-8.521,53.75],[-8.464,53.728],[-8.47,53.715],[-8.447,53.705],[-8.428,53.67],[-8.363,53.651],[-8.397,53.635],[-8.397,53.634],[-8.396,53.631],[-8.39,53.627],[-8.383,53.604],[-8.354,53.599],[-8.342,53.579],[-8.297,53.566],[-8.293,53.509],[-8.275,53.494],[-8.286,53.471],[-8.263,53.461],[-8.243,53.448],[-8.242,53.448],[-8.263,53.43],[-8.253,53.412],[-8.238,53.411],[-8.238,53.41],[-8.238,53.407],[-8.225,53.397],[-8.246,53.374],[-8.23,53.351],[-8.195,53.339],[-8.195,53.338],[-8.195,53.309],[-8.195,53.308],[-8.174,53.288],[-8.076,53.272],[-8.056,53.274],[-7.983,53.338],[-7.942,53.343],[-7.923,53.363]]]},"properties":{"name":"Roscommon-Leitrim","name_ga":"Ros Comáin-Liatroim","seats":3}},{"type":"Feature","geometry":{"type":"Polygon","coordinates":[[[-8.488,53.921],[-8.519,53.927],[-8.537,53.958],[-8.585,53.954],[-8.594,53.967],[-8.583,54.013],[-8.647,54.033],[-8.701,54.005],[-8.738,53.995],[-8.783,53.966],[-8.845,53.972],[-8.889,54.007],[-8.942,54.01],[-8.969,54.027],[-9.012,54.024],[-9.015,54.052],[-8.965,54.073],[-8.96,54.102],[-8.917,54.118],[-8.937,54.143],[-8.993,54.15],[-9.025,54.162],[-9.057,54.146],[-9.103,54.149],[-9.132,54.162],[-9.157,54.196],[-9.182,54.208],[-9.214,54.252],[-9.207,54.277],[-9.256,54.274],[-9.248,54.296],[-9.264,54.31],[-9.335,54.321],[-9.372,54.303],[-9.315,54.267],[-9.258,54.262],[-9.292,54.241],[-9.336,54.239],[-9.375,54.205],[-9.438,54.176],[-9.529,54.17],[-9.561,54.152],[-9.568,54.123],[-9.468,54.106],[-9.388,54.078],[-9.44,54.06],[-9.403,54.05],[-9.366,54.055],[-9.264,54.038],[-9.192,53.978],[-9.145,53.965],[-9.119,53.939],[-9.094,53.94],[-9.075,53.903],[-9.096,53.894],[-9.1,53.849],[-9.142,53.851],[-9.152,53.818],[-9.121,53.771],[-9.122,53.712],[-9.115,53.683],[-9.061,53.694],[-9.03,53.678],[-9.049,53.649],[-8.99,53.603],[-8.975,53.625],[-8.971,53.655],[-8.938,53.66],[-8.899,53.652],[-8.843,53.653],[-8.819,53.666],[-8.749,53.662],[-8.656,53.677],[-8.635,53.704],[-8.574,53.719],[-8.52,53.712],[-8.47,53.715],[-8.464,53.728],[-8.521,53.75],[-8.533,53.764],[-8.508,53.793],[-8.531,53.811],[-8.513,53.832],[-8.459,53.868],[-8.513,53.917],[-8.488,53.921]]]},"properties":{"name":"East Mayo","name_ga":"Maigh Eo Thoir","seats":3}},{"type":"Feature","geometry":{"type":"Polygon","coordinates":[[[-8.215,54.502],[-8.254,54.501],[-8.288,54.478],[-8.476,54.452],[-8.487,54.421],[-8.532,54.402],[-8.619,54.379],[-8.672,54.36],[-8.645,54.333],[-8.594,54.343],[-8.555,54.342],[-8.572,54.305],[-8.527,54.303],[-8.492,54.292],[-8.517,54.276],[-8.584,54.276],[-8.616,54.26],[-8.558,54.23],[-8.57,54.217],[-8.628,54.238],[-8.645,54.261],[-8.682,54.273],[-8.725,54.263],[-8.785,54.271],[-8.826,54.253],[-8.95,54.293],[-9.055,54.294],[-9.054,54.274],[-9.092,54.228],[-9.095,54.215],[-9.133,54.207],[-9.124,54.182],[-9.132,54.162],[-9.103,54.149],[-9.057,54.146],[-9.025,54.162],[-8.993,54.15],[-8.937,54.143],[-8.917,54.118],[-8.96,54.102],[-8.965,54.073],[-9.015,54.052],[-9.012,54.024],[-8.969,54.027],[-8.942,54.01],[-8.889,54.007],[-8.845,53.972],[-8.783,53.966],[-8.738,53.995],[-8.701,54.005],[-8.647,54.033],[-8.583,54.013],[-8.594,53.967],[-8.585,53.954],[-8.537,53.958],[-8.519,53.927],[-8.488,53.921],[-8.473,53.917],[-8.473,53.916],[-8.448,53.926],[-8.336,53.926],[-8.361,53.948],[-8.405,53.961],[-8.366,54.005],[-8.315,54.005],[-8.295,54.045],[-8.219,54.062],[-8.218,54.084],[-8.177,54.088],[-8.148,54.124],[-8.083,54.106],[-8.083,54.105],[-8.073,54.105],[-8.072,54.105],[-8.053,54.105],[-8.039,54.184],[-8.034,54.216],[-8.058,54.236],[-8.041,54.254],[-8.01,54.248],[-7.953,54.298],[-7.951,54.3],[-7.947,54.304],[-7.999,54.347],[-8.057,54.366],[-8.097,54.406],[-8.154,54.437],[-8.17,54.461],[-8.085,54.487],[-8.043,54.488],[-8.042,54.507],[-8.006,54.546],[-8.014,54.563],[-8.07,54.573],[-8.131,54.553],[-8.148,54.524],[-8.114,54.527],[-8.113,54.491],[-8.215,54.502]]]},"properties":{"name":"Sligo-Leitrim","name_ga":"Sligeach-Liatroim","seats":3}},{"type":"Feature","geometry":{"type":"MultiPolygon","coordinates":[[[[-9.372,54.303],[-9.491,54.316],[-9.517,54.309],[-9.562,54.32],[-9.627,54.325],[-9.66,54.314],[-9.802,54.342],[-9.859,54.323],[-9.857,54.304],[-9.808,54.287],[-9.856,54.274],[-9.879,54.257],[-9.867,54.235],[-9.876,54.218],[-9.915,54.227],[-9.892,54.254],[-9.958,54.271],[-9.997,54.306],[-10.025,54.284],[-10.07,54.277],[-10.095,54.236],[-10.056,54.228],[-10.064,54.209],[-10.096,54.199],[-10.087,54.181],[-10.118,54.146],[-10.131,54.109],[-10.094,54.088],[-10.064,54.097],[-10.087,54.127],[-10.063,54.151],[-10.063,54.171],[-10.013,54.191],[-10,54.224],[-9.956,54.197],[-9.955,54.149],[-9.938,54.112],[-9.976,54.096],[-9.969,54.062],[-9.893,54.072],[-9.858,54.066],[-9.906,54.043],[-9.878,54.008],[-9.848,53.995],[-9.852,53.958],[-9.906,53.952],[-9.929,53.913],[-9.93,53.87],[-9.905,53.862],[-9.82,53.876],[-9.771,53.9],[-9.689,53.9],[-9.663,53.893],[-9.586,53.897],[-9.571,53.889],[-9.59,53.846],[-9.617,53.845],[-9.617,53.811],[-9.554,53.797],[-9.594,53.782],[-9.658,53.782],[-9.668,53.789],[-9.74,53.774],[-9.77,53.782],[-9.826,53.77],[-9.901,53.764],[-9.894,53.738],[-9.918,53.691],[-9.908,53.652],[-9.88,53.634],[-9.784,53.603],[-9.697,53.605],[-9.67,53.613],[-9.652,53.602],[-9.611,53.607],[-9.585,53.599],[-9.565,53.613],[-9.543,53.581],[-9.481,53.562],[-9.361,53.574],[-9.289,53.54],[-9.279,53.515],[-9.236,53.499],[-9.237,53.48],[-9.182,53.472],[-9.137,53.477],[-9.094,53.515],[-9.039,53.536],[-9.025,53.551],[-9.044,53.576],[-9.007,53.584],[-8.99,53.603],[-9.049,53.649],[-9.03,53.678],[-9.061,53.694],[-9.115,53.683],[-9.122,53.712],[-9.121,53.771],[-9.152,53.818],[-9.142,53.851],[-9.1,53.849],[-9.096,53.894],[-9.075,53.903],[-9.094,53.94],[-9.119,53.939],[-9.145,53.965],[-9.192,53.978],[-9.264,54.038],[-9.366,54.055],[-9.403,54.05],[-9.44,54.06],[-9.388,54.078],[-9.468,54.106],[-9.568,54.123],[-9.561,54.152],[-9.529,54.17],[-9.438,54.176],[-9.375,54.205],[-9.336,54.239],[-9.292,54.241],[-9.258,54.262],[-9.315,54.267],[-9.372,54.303]]],[[[-10.051,53.945],[-10.052,53.915],[-10.016,53.912],[-9.963,53.874],[-9.937,53.899],[-9.927,53.954],[-9.955,53.973],[-9.93,53.998],[-9.968,54.027],[-9.988,54.012],[-10.064,54.025],[-10.133,53.999],[-10.185,54.002],[-10.213,53.98],[-10.159,53.968],[-10.087,53.971],[-10.051,53.964],[-10.051,53.945]]],[[[-9.996,53.79],[-9.951,53.798],[-9.98,53.829],[-9.996,53.814],[-10.049,53.802],[-10.041,53.79],[-9.996,53.79]]]]},"properties":{"name":"West Mayo","name_ga":"Maigh Eo Thiar","seats":3}},{"type":"Feature","geometry":{"type":"MultiPolygon","coordinates":[[[[-9.67,53.613],[-9.704,53.595],[-9.731,53.6],[-9.789,53.594],[-9.872,53.625],[-9.911,53.601],[-9.968,53.601],[-9.997,53.611],[-10.049,53.609],[-10.02,53.578],[-9.963,53.571],[-9.988,53.548],[-10.014,53.567],[-10.099,53.577],[-10.129,53.576],[-10.158,53.557],[-10.1,53.48],[-10.058,53.457],[-10.065,53.442],[-10.133,53.451],[-10.184,53.413],[-10.141,53.417],[-10.105,53.41],[-10.052,53.415],[-10.037,53.391],[-9.989,53.379],[-9.935,53.379],[-9.915,53.392],[-9.903,53.422],[-9.866,53.389],[-9.829,53.416],[-9.792,53.394],[-9.817,53.378],[-9.889,53.369],[-9.906,53.324],[-9.882,53.312],[-9.839,53.321],[-9.774,53.3],[-9.74,53.306],[-9.697,53.36],[-9.63,53.381],[-9.647,53.343],[-9.609,53.334],[-9.598,53.36],[-9.552,53.342],[-9.62,53.327],[-9.598,53.28],[-9.63,53.25],[-9.614,53.232],[-9.578,53.247],[-9.51,53.222],[-9.456,53.232],[-9.34,53.238],[-9.224,53.25],[-9.163,53.246],[-9.13,53.256],[-9.099,53.255],[-9.039,53.27],[-8.946,53.274],[-8.979,53.255],[-8.989,53.219],[-8.967,53.21],[-8.925,53.213],[-8.955,53.177],[-9.043,53.16],[-9.009,53.141],[-9.053,53.158],[-9.12,53.152],[-9.121,53.137],[-9.152,53.119],[-9.187,53.135],[-9.265,53.154],[-9.292,53.133],[-9.288,53.119],[-9.31,53.092],[-9.355,53.075],[-9.364,53.051],[-9.409,53.019],[-9.392,53.008],[-9.428,52.986],[-9.429,52.97],[-9.474,52.943],[-9.4,52.933],[-9.361,52.944],[-9.348,52.929],[-9.32,52.931],[-9.301,52.905],[-9.317,52.897],[-9.271,52.878],[-9.207,52.885],[-9.193,52.874],[-9.151,52.876],[-9.117,52.866],[-9.09,52.889],[-9.05,52.885],[-9.042,52.866],[-8.954,52.884],[-8.953,52.938],[-8.924,52.961],[-8.883,52.976],[-8.899,53.008],[-8.888,53.036],[-8.861,53.073],[-8.861,53.115],[-8.831,53.105],[-8.798,53.123],[-8.748,53.124],[-8.753,53.166],[-8.777,53.182],[-8.756,53.212],[-8.763,53.232],[-8.749,53.25],[-8.794,53.256],[-8.838,53.292],[-8.868,53.3],[-8.876,53.315],[-8.925,53.344],[-8.901,53.353],[-8.917,53.377],[-8.95,53.368],[-9.017,53.385],[-9.019,53.418],[-9.102,53.403],[-9.122,53.423],[-9.185,53.425],[-9.214,53.444],[-9.26,53.45],[-9.266,53.469],[-9.237,53.48],[-9.236,53.499],[-9.279,53.515],[-9.289,53.54],[-9.361,53.574],[-9.481,53.562],[-9.543,53.581],[-9.565,53.613],[-9.585,53.599],[-9.611,53.607],[-9.652,53.602],[-9.67,53.613]]],[[[-9.786,53.13],[-9.691,53.108],[-9.665,53.119],[-9.703,53.142],[-9.786,53.13]]],[[[-9.72,53.257],[-9.7,53.225],[-9.655,53.227],[-9.642,53.257],[-9.654,53.279],[-9.72,53.257]]],[[[-9.575,53.102],[-9.613,53.084],[-9.607,53.065],[-9.562,53.087],[-9.575,53.102]]]]},"properties":{"name":"West Galway","name_ga":"Gaillimh Thiar","seats":4}},{"type":"Feature","geometry":{"type":"Polygon","coordinates":[[[-8.081,53.167],[-8.062,53.188],[-7.993,53.193],[-7.967,53.226],[-7.983,53.24],[-8.056,53.274],[-8.076,53.272],[-8.174,53.288],[-8.195,53.308],[-8.195,53.309],[-8.195,53.338],[-8.195,53.339],[-8.23,53.351],[-8.246,53.374],[-8.225,53.397],[-8.238,53.407],[-8.238,53.41],[-8.238,53.411],[-8.253,53.412],[-8.263,53.43],[-8.242,53.448],[-8.243,53.448],[-8.263,53.461],[-8.286,53.471],[-8.275,53.494],[-8.293,53.509],[-8.297,53.566],[-8.342,53.579],[-8.354,53.599],[-8.383,53.604],[-8.39,53.627],[-8.396,53.631],[-8.397,53.634],[-8.397,53.635],[-8.363,53.651],[-8.428,53.67],[-8.447,53.705],[-8.47,53.715],[-8.52,53.712],[-8.574,53.719],[-8.635,53.704],[-8.656,53.677],[-8.749,53.662],[-8.819,53.666],[-8.843,53.653],[-8.899,53.652],[-8.938,53.66],[-8.971,53.655],[-8.975,53.625],[-8.99,53.603],[-9.007,53.584],[-9.044,53.576],[-9.025,53.551],[-9.039,53.536],[-9.094,53.515],[-9.137,53.477],[-9.182,53.472],[-9.237,53.48],[-9.266,53.469],[-9.26,53.45],[-9.214,53.444],[-9.185,53.425],[-9.122,53.423],[-9.102,53.403],[-9.019,53.418],[-9.017,53.385],[-8.95,53.368],[-8.917,53.377],[-8.901,53.353],[-8.925,53.344],[-8.876,53.315],[-8.868,53.3],[-8.838,53.292],[-8.794,53.256],[-8.749,53.25],[-8.763,53.232],[-8.756,53.212],[-8.777,53.182],[-8.753,53.166],[-8.748,53.124],[-8.798,53.123],[-8.831,53.105],[-8.861,53.115],[-8.861,53.073],[-8.888,53.036],[-8.899,53.008],[-8.883,52.976],[-8.846,52.983],[-8.784,52.973],[-8.779,52.988],[-8.737,53.006],[-8.72,53.025],[-8.635,53.042],[-8.627,53.034],[-8.554,53.042],[-8.485,52.989],[-8.45,52.972],[-8.407,52.994],[-8.359,52.971],[-8.317,52.985],[-8.278,53.019],[-8.268,53.056],[-8.219,53.068],[-8.174,53.112],[-8.148,53.145],[-8.124,53.16],[-8.081,53.167]]]},"properties":{"name":"East Galway","name_ga":"Gaillimh Thoir","seats":4}},{"type":"Feature","geometry":{"type":"Polygon","coordinates":[[[-8.189,52.67],[-8.229,52.665],[-8.253,52.682],[-8.306,52.694],[-8.361,52.679],[-8.407,52.69],[-8.428,52.678],[-8.465,52.704],[-8.48,52.757],[-8.509,52.746],[-8.502,52.719],[-8.533,52.704],[-8.544,52.682],[-8.59,52.67],[-8.621,52.689],[-8.622,52.689],[-8.625,52.689],[-8.627,52.684],[-8.628,52.684],[-8.629,52.684],[-8.629,52.685],[-8.63,52.685],[-8.63,52.684],[-8.63,52.685],[-8.631,52.685],[-8.637,52.686],[-8.637,52.687],[-8.636,52.687],[-8.636,52.688],[-8.651,52.689],[-8.653,52.689],[-8.654,52.69],[-8.655,52.69],[-8.666,52.688],[-8.667,52.688],[-8.668,52.687],[-8.67,52.687],[-8.672,52.687],[-8.673,52.687],[-8.689,52.678],[-8.691,52.676],[-8.694,52.676],[-8.697,52.675],[-8.698,52.675],[-8.705,52.674],[-8.706,52.674],[-8.709,52.671],[-8.634,52.64],[-8.637,52.62],[-8.672,52.613],[-8.661,52.58],[-8.682,52.562],[-8.651,52.52],[-8.593,52.506],[-8.546,52.459],[-8.544,52.429],[-8.515,52.424],[-8.461,52.437],[-8.392,52.41],[-8.355,52.423],[-8.381,52.436],[-8.405,52.465],[-8.396,52.484],[-8.36,52.511],[-8.319,52.506],[-8.286,52.522],[-8.24,52.512],[-8.214,52.595],[-8.215,52.632],[-8.194,52.648],[-8.189,52.67]]]},"properties":{"name":"East Limerick","name_ga":"Luimneach Thoir","seats":4}},{"type":"Feature","geometry":{"type":"Polygon","coordinates":[[[-8.381,52.436],[-8.355,52.423],[-8.392,52.41],[-8.461,52.437],[-8.515,52.424],[-8.544,52.429],[-8.546,52.459],[-8.593,52.506],[-8.651,52.52],[-8.682,52.562],[-8.661,52.58],[-8.672,52.613],[-8.637,52.62],[-8.634,52.64],[-8.709,52.671],[-8.712,52.672],[-8.719,52.673],[-8.803,52.672],[-8.833,52.68],[-8.973,52.666],[-9.017,52.65],[-9.073,52.65],[-9.124,52.633],[-9.149,52.615],[-9.229,52.608],[-9.294,52.58],[-9.345,52.59],[-9.365,52.572],[-9.338,52.562],[-9.348,52.541],[-9.306,52.522],[-9.305,52.522],[-9.297,52.496],[-9.339,52.47],[-9.326,52.443],[-9.339,52.404],[-9.303,52.389],[-9.344,52.367],[-9.298,52.334],[-9.24,52.322],[-9.217,52.298],[-9.175,52.312],[-9.14,52.333],[-9.075,52.331],[-8.986,52.311],[-8.962,52.319],[-8.883,52.332],[-8.882,52.347],[-8.829,52.371],[-8.82,52.384],[-8.777,52.387],[-8.724,52.371],[-8.674,52.384],[-8.662,52.352],[-8.624,52.344],[-8.585,52.307],[-8.565,52.306],[-8.535,52.287],[-8.505,52.28],[-8.441,52.293],[-8.386,52.295],[-8.341,52.329],[-8.312,52.322],[-8.285,52.287],[-8.251,52.296],[-8.183,52.288],[-8.169,52.292],[-8.168,52.368],[-8.193,52.364],[-8.228,52.386],[-8.232,52.411],[-8.283,52.401],[-8.314,52.436],[-8.381,52.436]]]},"properties":{"name":"West Limerick","name_ga":"Luimneach Thiar","seats":3}},{"type":"Feature","geometry":{"type":"Polygon","coordinates":[[[-8.317,52.985],[-8.359,52.971],[-8.407,52.994],[-8.45,52.972],[-8.485,52.989],[-8.554,53.042],[-8.627,53.034],[-8.635,53.042],[-8.72,53.025],[-8.737,53.006],[-8.779,52.988],[-8.784,52.973],[-8.846,52.983],[-8.883,52.976],[-8.924,52.961],[-8.953,52.938],[-8.954,52.884],[-9.042,52.866],[-9.05,52.885],[-9.09,52.889],[-9.117,52.866],[-9.151,52.876],[-9.193,52.874],[-9.207,52.885],[-9.271,52.878],[-9.317,52.897],[-9.301,52.905],[-9.32,52.931],[-9.348,52.929],[-9.39,52.897],[-9.434,52.882],[-9.432,52.837],[-9.457,52.817],[-9.49,52.807],[-9.483,52.775],[-9.511,52.745],[-9.557,52.752],[-9.607,52.744],[-9.666,52.682],[-9.803,52.618],[-9.81,52.603],[-9.867,52.592],[-9.913,52.576],[-9.929,52.556],[-9.878,52.558],[-9.845,52.572],[-9.812,52.565],[-9.747,52.58],[-9.741,52.587],[-9.68,52.573],[-9.635,52.599],[-9.437,52.596],[-9.408,52.592],[-9.373,52.602],[-9.345,52.59],[-9.294,52.58],[-9.229,52.608],[-9.149,52.615],[-9.124,52.633],[-9.073,52.65],[-9.017,52.65],[-8.973,52.666],[-8.833,52.68],[-8.803,52.672],[-8.719,52.673],[-8.712,52.672],[-8.709,52.671],[-8.706,52.674],[-8.705,52.674],[-8.698,52.675],[-8.697,52.675],[-8.694,52.676],[-8.691,52.676],[-8.689,52.678],[-8.673,52.687],[-8.672,52.687],[-8.67,52.687],[-8.668,52.687],[-8.667,52.688],[-8.666,52.688],[-8.655,52.69],[-8.654,52.69],[-8.653,52.689],[-8.651,52.689],[-8.636,52.688],[-8.636,52.687],[-8.637,52.687],[-8.637,52.686],[-8.631,52.685],[-8.63,52.685],[-8.63,52.684],[-8.63,52.685],[-8.629,52.685],[-8.629,52.684],[-8.628,52.684],[-8.627,52.684],[-8.625,52.689],[-8.622,52.689],[-8.621,52.689],[-8.59,52.67],[-8.544,52.682],[-8.533,52.704],[-8.502,52.719],[-8.509,52.746],[-8.48,52.757],[-8.443,52.787],[-8.455,52.847],[-8.418,52.875],[-8.408,52.913],[-8.338,52.915],[-8.285,52.973],[-8.317,52.985]]]},"properties":{"name":"Clare","name_ga":"An Clár","seats":3}},{"type":"Feature","geometry":{"type":"Polygon","coordinates":[[[-8.105,52.206],[-8.103,52.231],[-8.161,52.242],[-8.183,52.288],[-8.251,52.296],[-8.285,52.287],[-8.312,52.322],[-8.341,52.329],[-8.386,52.295],[-8.441,52.293],[-8.505,52.28],[-8.535,52.287],[-8.565,52.306],[-8.557,52.281],[-8.572,52.251],[-8.642,52.246],[-8.659,52.271],[-8.71,52.283],[-8.725,52.31],[-8.797,52.282],[-8.839,52.254],[-8.816,52.233],[-8.768,52.242],[-8.704,52.224],[-8.739,52.215],[-8.77,52.179],[-8.765,52.157],[-8.79,52.144],[-8.775,52.127],[-8.736,52.127],[-8.722,52.089],[-8.781,52.042],[-8.744,52.024],[-8.661,52.039],[-8.6,52.062],[-8.583,52.046],[-8.553,52.039],[-8.534,51.987],[-8.563,51.986],[-8.556,51.959],[-8.512,51.926],[-8.493,51.924],[-8.427,51.917],[-8.394,51.901],[-8.342,51.882],[-8.328,51.866],[-8.32,51.844],[-8.257,51.857],[-8.181,51.86],[-8.199,51.844],[-8.238,51.838],[-8.252,51.794],[-8.178,51.795],[-8.136,51.804],[-8.062,51.809],[-8.001,51.827],[-8.021,51.846],[-7.997,51.861],[-7.865,51.883],[-7.887,51.911],[-7.842,51.941],[-7.842,51.954],[-7.86,51.976],[-7.91,51.974],[-7.938,52.014],[-8.023,52.057],[-8.014,52.074],[-8.029,52.103],[-8.072,52.144],[-8.156,52.141],[-8.12,52.195],[-8.105,52.206]]]},"properties":{"name":"North-East Cork","name_ga":"Corcaigh Thoir Thuaidh","seats":4}},{"type":"Feature","geometry":{"type":"Polygon","coordinates":[[[-9.217,52.298],[-9.216,52.282],[-9.274,52.255],[-9.276,52.23],[-9.263,52.213],[-9.232,52.177],[-9.238,52.148],[-9.205,52.088],[-9.221,52.055],[-9.212,52.023],[-9.184,52.027],[-9.163,52.007],[-9.12,51.996],[-9.138,51.983],[-9.195,51.982],[-9.255,51.97],[-9.303,51.946],[-9.302,51.924],[-9.279,51.894],[-9.33,51.846],[-9.357,51.836],[-9.438,51.823],[-9.461,51.795],[-9.437,51.749],[-9.407,51.757],[-9.299,51.759],[-9.247,51.772],[-9.222,51.754],[-9.267,51.744],[-9.272,51.728],[-9.223,51.714],[-9.165,51.726],[-9.172,51.761],[-9.121,51.757],[-9.096,51.748],[-9.042,51.759],[-9.022,51.771],[-9.034,51.794],[-8.972,51.809],[-8.941,51.798],[-8.886,51.811],[-8.848,51.806],[-8.742,51.829],[-8.655,51.843],[-8.622,51.816],[-8.634,51.789],[-8.61,51.765],[-8.628,51.758],[-8.63,51.73],[-8.596,51.722],[-8.55,51.746],[-8.496,51.751],[-8.471,51.711],[-8.44,51.685],[-8.419,51.704],[-8.386,51.714],[-8.343,51.716],[-8.33,51.734],[-8.297,51.754],[-8.275,51.809],[-8.339,51.842],[-8.328,51.866],[-8.342,51.882],[-8.394,51.901],[-8.392,51.881],[-8.433,51.883],[-8.474,51.876],[-8.481,51.893],[-8.534,51.871],[-8.538,51.896],[-8.493,51.924],[-8.512,51.926],[-8.556,51.959],[-8.563,51.986],[-8.534,51.987],[-8.553,52.039],[-8.583,52.046],[-8.6,52.062],[-8.661,52.039],[-8.744,52.024],[-8.781,52.042],[-8.722,52.089],[-8.736,52.127],[-8.775,52.127],[-8.79,52.144],[-8.765,52.157],[-8.77,52.179],[-8.739,52.215],[-8.704,52.224],[-8.768,52.242],[-8.816,52.233],[-8.839,52.254],[-8.797,52.282],[-8.725,52.31],[-8.71,52.283],[-8.659,52.271],[-8.642,52.246],[-8.572,52.251],[-8.557,52.281],[-8.565,52.306],[-8.585,52.307],[-8.624,52.344],[-8.662,52.352],[-8.674,52.384],[-8.724,52.371],[-8.777,52.387],[-8.82,52.384],[-8.829,52.371],[-8.882,52.347],[-8.883,52.332],[-8.962,52.319],[-8.986,52.311],[-9.075,52.331],[-9.14,52.333],[-9.175,52.312],[-9.217,52.298]]]},"properties":{"name":"Mid-Cork","name_ga":"Corcaigh Láir","seats":5}},{"type":"Feature","geometry":{"type":"Polygon","coordinates":[[[-8.493,51.924],[-8.538,51.896],[-8.534,51.871],[-8.481,51.893],[-8.474,51.876],[-8.433,51.883],[-8.392,51.881],[-8.394,51.901],[-8.427,51.917],[-8.493,51.924]]]},"properties":{"name":"Cork City","name_ga":"Cathair Chorcaí","seats":5}},{"type":"Feature","geometry":{"type":"Polygon","coordinates":[[[-9.461,51.795],[-9.524,51.787],[-9.623,51.786],[-9.669,51.747],[-9.708,51.744],[-9.761,51.72],[-9.792,51.693],[-9.822,51.688],[-9.85,51.699],[-9.866,51.687],[-9.867,51.657],[-9.814,51.655],[-9.765,51.662],[-9.734,51.688],[-9.651,51.674],[-9.569,51.706],[-9.528,51.734],[-9.483,51.715],[-9.447,51.719],[-9.46,51.68],[-9.488,51.678],[-9.521,51.66],[-9.564,51.653],[-9.61,51.637],[-9.666,51.625],[-9.785,51.58],[-9.782,51.55],[-9.69,51.58],[-9.655,51.583],[-9.631,51.6],[-9.544,51.616],[-9.583,51.59],[-9.647,51.564],[-9.645,51.553],[-9.692,51.53],[-9.751,51.523],[-9.794,51.496],[-9.82,51.49],[-9.819,51.461],[-9.786,51.457],[-9.73,51.462],[-9.698,51.495],[-9.637,51.511],[-9.621,51.492],[-9.586,51.497],[-9.542,51.513],[-9.489,51.524],[-9.455,51.525],[-9.437,51.553],[-9.395,51.536],[-9.428,51.513],[-9.398,51.5],[-9.381,51.47],[-9.349,51.471],[-9.294,51.496],[-9.229,51.481],[-9.216,51.498],[-9.173,51.529],[-9.136,51.525],[-9.117,51.556],[-9.083,51.546],[-9.023,51.567],[-8.976,51.56],[-8.917,51.541],[-8.867,51.592],[-8.807,51.596],[-8.759,51.574],[-8.713,51.569],[-8.699,51.579],[-8.681,51.645],[-8.652,51.636],[-8.55,51.646],[-8.524,51.677],[-8.503,51.687],[-8.477,51.676],[-8.451,51.694],[-8.471,51.711],[-8.496,51.751],[-8.55,51.746],[-8.596,51.722],[-8.63,51.73],[-8.628,51.758],[-8.61,51.765],[-8.634,51.789],[-8.622,51.816],[-8.655,51.843],[-8.742,51.829],[-8.848,51.806],[-8.886,51.811],[-8.941,51.798],[-8.972,51.809],[-9.034,51.794],[-9.022,51.771],[-9.042,51.759],[-9.096,51.748],[-9.121,51.757],[-9.172,51.761],[-9.165,51.726],[-9.223,51.714],[-9.272,51.728],[-9.267,51.744],[-9.222,51.754],[-9.247,51.772],[-9.299,51.759],[-9.407,51.757],[-9.437,51.749],[-9.461,51.795]]]},"properties":{"name":"South-West Cork","name_ga":"Corcaigh Thiar Theas","seats":3}},{"type":"Feature","geometry":{"type":"MultiPolygon","coordinates":[[[[-9.263,52.213],[-9.363,52.198],[-9.397,52.205],[-9.418,52.227],[-9.438,52.208],[-9.474,52.195],[-9.515,52.194],[-9.553,52.184],[-9.567,52.197],[-9.601,52.198],[-9.606,52.218],[-9.643,52.226],[-9.666,52.216],[-9.744,52.209],[-9.76,52.217],[-9.863,52.198],[-9.944,52.165],[-9.97,52.187],[-10.019,52.197],[-10.061,52.19],[-10.083,52.204],[-10.109,52.184],[-10.242,52.179],[-10.253,52.203],[-10.236,52.216],[-10.254,52.235],[-10.263,52.266],[-10.295,52.257],[-10.306,52.24],[-10.363,52.234],[-10.384,52.179],[-10.415,52.184],[-10.455,52.179],[-10.47,52.135],[-10.452,52.097],[-10.373,52.108],[-10.361,52.132],[-10.326,52.115],[-10.295,52.111],[-10.215,52.123],[-10.19,52.11],[-10.16,52.121],[-10.139,52.112],[-10.051,52.137],[-9.963,52.142],[-9.865,52.16],[-9.804,52.16],[-9.813,52.132],[-9.861,52.114],[-9.893,52.111],[-9.936,52.085],[-9.936,52.074],[-9.978,52.053],[-10.031,52.037],[-10.057,52.04],[-10.105,52.025],[-10.131,52.029],[-10.208,52.002],[-10.259,51.99],[-10.28,51.952],[-10.249,51.911],[-10.351,51.885],[-10.386,51.883],[-10.389,51.841],[-10.338,51.846],[-10.34,51.784],[-10.284,51.803],[-10.245,51.844],[-10.215,51.844],[-10.172,51.824],[-10.18,51.788],[-10.199,51.778],[-10.142,51.759],[-10.1,51.756],[-10.016,51.771],[-9.95,51.801],[-9.908,51.804],[-9.9,51.815],[-9.83,51.816],[-9.83,51.826],[-9.782,51.835],[-9.731,51.853],[-9.658,51.87],[-9.652,51.845],[-9.725,51.837],[-9.746,51.821],[-9.823,51.786],[-9.813,51.769],[-9.887,51.763],[-9.931,51.74],[-9.975,51.735],[-10.005,51.718],[-9.964,51.704],[-9.973,51.685],[-10.031,51.678],[-10.054,51.669],[-10.093,51.674],[-10.063,51.643],[-10.066,51.623],[-10.126,51.613],[-10.13,51.595],[-10.049,51.602],[-10.038,51.589],[-9.986,51.611],[-9.934,51.616],[-9.926,51.639],[-9.904,51.653],[-9.867,51.657],[-9.866,51.687],[-9.85,51.699],[-9.822,51.688],[-9.792,51.693],[-9.761,51.72],[-9.708,51.744],[-9.669,51.747],[-9.623,51.786],[-9.524,51.787],[-9.461,51.795],[-9.438,51.823],[-9.357,51.836],[-9.33,51.846],[-9.279,51.894],[-9.302,51.924],[-9.303,51.946],[-9.255,51.97],[-9.195,51.982],[-9.138,51.983],[-9.12,51.996],[-9.163,52.007],[-9.184,52.027],[-9.212,52.023],[-9.221,52.055],[-9.205,52.088],[-9.238,52.148],[-9.232,52.177],[-9.263,52.213]]],[[[-10.392,51.892],[-10.382,51.887],[-10.292,51.913],[-10.296,51.928],[-10.329,51.93],[-10.423,51.899],[-10.392,51.892]]],[[[-9.894,51.638],[-9.919,51.618],[-9.835,51.62],[-9.837,51.645],[-9.894,51.638]]]]},"properties":{"name":"South Kerry","name_ga":"Ciarraí Theas","seats":3}},{"type":"Feature","geometry":{"type":"Polygon","coordinates":[[[-9.345,52.59],[-9.373,52.602],[-9.408,52.592],[-9.437,52.596],[-9.635,52.599],[-9.68,52.573],[-9.661,52.557],[-9.695,52.48],[-9.74,52.47],[-9.768,52.449],[-9.866,52.427],[-9.914,52.431],[-9.943,52.422],[-9.941,52.404],[-9.838,52.39],[-9.835,52.325],[-9.868,52.301],[-9.837,52.292],[-9.835,52.276],[-9.753,52.268],[-9.765,52.248],[-9.837,52.248],[-9.896,52.229],[-9.951,52.232],[-9.997,52.249],[-10.022,52.267],[-10.05,52.267],[-10.084,52.249],[-10.171,52.236],[-10.151,52.262],[-10.158,52.288],[-10.177,52.29],[-10.263,52.266],[-10.254,52.235],[-10.236,52.216],[-10.253,52.203],[-10.242,52.179],[-10.109,52.184],[-10.083,52.204],[-10.061,52.19],[-10.019,52.197],[-9.97,52.187],[-9.944,52.165],[-9.863,52.198],[-9.76,52.217],[-9.744,52.209],[-9.666,52.216],[-9.643,52.226],[-9.606,52.218],[-9.601,52.198],[-9.567,52.197],[-9.553,52.184],[-9.515,52.194],[-9.474,52.195],[-9.438,52.208],[-9.418,52.227],[-9.397,52.205],[-9.363,52.198],[-9.263,52.213],[-9.276,52.23],[-9.274,52.255],[-9.216,52.282],[-9.217,52.298],[-9.24,52.322],[-9.298,52.334],[-9.344,52.367],[-9.303,52.389],[-9.339,52.404],[-9.326,52.443],[-9.339,52.47],[-9.297,52.496],[-9.305,52.522],[-9.306,52.522],[-9.348,52.541],[-9.338,52.562],[-9.365,52.572],[-9.345,52.59]]]},"properties":{"name":"North Kerry","name_ga":"Ciarraí Thuaidh","seats":3}}]}
