{"type":"FeatureCollection","_metadata":{"description":"Dáil constituency boundaries under the 2017 boundary regime (simplified pedagogical outline)","regime_year":2017,"data_status":"real-sourced-data","source":{"catalogue":"Civgraph (civgraph.net), map layer dail-2017","geometry_url":"https://data.civgraph.net/data/maps/parliamentary/ROIConstituencies2017.fgb","provider":"Tailte Éireann (via Civgraph)","arcgis_source":"https://data-osi.opendata.arcgis.com/datasets/osi::constituency-boundaries-ungeneralised-national-electoral-boundaries-2017","licence":"CC BY-SA 4.0 (Civgraph digitised layers); see _static/data/dail_boundaries/NOTICE.md","retrieved":"2026-07-14"},"processing":"Reprojected to EPSG:4326 where needed; simplified with mapshaper (visvalingam weighted, 0.1% retained, keep-shapes, clean), coordinates rounded to 3 decimal places (~70-110 m). Outline only - not for legal or survey use."},"features":[{"type":"Feature","geometry":{"type":"Polygon","coordinates":[[[-7.842,51.954],[-7.86,51.976],[-7.91,51.974],[-7.938,52.014],[-7.987,52.035],[-8.023,52.057],[-8.016,52.082],[-8.061,52.133],[-8.111,52.145],[-8.143,52.141],[-8.12,52.195],[-8.105,52.206],[-8.103,52.231],[-8.161,52.242],[-8.183,52.288],[-8.251,52.296],[-8.285,52.287],[-8.312,52.322],[-8.341,52.329],[-8.387,52.295],[-8.425,52.293],[-8.504,52.281],[-8.534,52.286],[-8.565,52.306],[-8.557,52.281],[-8.561,52.259],[-8.603,52.253],[-8.627,52.242],[-8.669,52.27],[-8.686,52.242],[-8.716,52.241],[-8.77,52.179],[-8.765,52.157],[-8.79,52.144],[-8.774,52.127],[-8.718,52.133],[-8.677,52.124],[-8.655,52.101],[-8.601,52.114],[-8.603,52.14],[-8.544,52.15],[-8.547,52.107],[-8.524,52.086],[-8.496,52.107],[-8.45,52.1],[-8.431,52.108],[-8.402,52.1],[-8.365,52.112],[-8.323,52.075],[-8.331,52.057],[-8.304,52.049],[-8.298,52.012],[-8.327,51.999],[-8.364,51.995],[-8.332,51.933],[-8.325,51.895],[-8.339,51.88],[-8.328,51.866],[-8.32,51.844],[-8.256,51.857],[-8.222,51.842],[-8.232,51.827],[-8.258,51.82],[-8.252,51.794],[-8.179,51.795],[-8.157,51.789],[-8.136,51.804],[-8.061,51.809],[-8.001,51.827],[-8.02,51.845],[-7.964,51.869],[-7.916,51.873],[-7.864,51.884],[-7.906,51.906],[-7.843,51.941],[-7.842,51.954]]]},"properties":{"name":"Cork East","name_ga":"Corcaigh Thoir","seats":4}},{"type":"Feature","geometry":{"type":"Polygon","coordinates":[[[-7.842,51.954],[-7.83,51.941],[-7.795,51.942],[-7.772,51.952],[-7.744,51.939],[-7.709,51.943],[-7.72,51.958],[-7.702,51.972],[-7.614,51.981],[-7.582,51.996],[-7.586,52.019],[-7.566,52.041],[-7.605,52.065],[-7.631,52.061],[-7.632,52.085],[-7.597,52.092],[-7.554,52.078],[-7.544,52.095],[-7.5,52.103],[-7.468,52.118],[-7.424,52.131],[-7.388,52.129],[-7.37,52.138],[-7.306,52.135],[-7.297,52.141],[-7.218,52.131],[-7.169,52.139],[-7.152,52.159],[-7.099,52.169],[-7.08,52.155],[-7.108,52.134],[-7.051,52.139],[-7.032,52.133],[-6.992,52.145],[-6.97,52.178],[-6.984,52.19],[-6.966,52.24],[-6.988,52.25],[-7,52.276],[-7.038,52.256],[-7.074,52.256],[-7.101,52.266],[-7.168,52.275],[-7.199,52.25],[-7.265,52.267],[-7.324,52.331],[-7.372,52.343],[-7.394,52.335],[-7.437,52.348],[-7.516,52.359],[-7.571,52.358],[-7.596,52.364],[-7.661,52.359],[-7.692,52.349],[-7.78,52.343],[-7.797,52.301],[-7.746,52.244],[-7.746,52.216],[-7.786,52.221],[-7.808,52.213],[-7.851,52.227],[-7.915,52.228],[-7.941,52.243],[-7.989,52.243],[-7.99,52.212],[-8.105,52.206],[-8.12,52.195],[-8.143,52.141],[-8.111,52.145],[-8.061,52.133],[-8.016,52.082],[-8.023,52.057],[-7.987,52.035],[-7.938,52.014],[-7.91,51.974],[-7.86,51.976],[-7.842,51.954]]]},"properties":{"name":"Waterford","name_ga":"Port Láirge","seats":4}},{"type":"Feature","geometry":{"type":"Polygon","coordinates":[[[-8.105,52.206],[-7.99,52.212],[-7.989,52.243],[-7.941,52.243],[-7.915,52.228],[-7.851,52.227],[-7.808,52.213],[-7.786,52.221],[-7.746,52.216],[-7.746,52.244],[-7.797,52.301],[-7.78,52.343],[-7.692,52.349],[-7.661,52.359],[-7.596,52.364],[-7.571,52.358],[-7.516,52.359],[-7.437,52.348],[-7.394,52.335],[-7.372,52.343],[-7.397,52.364],[-7.395,52.395],[-7.382,52.42],[-7.423,52.452],[-7.461,52.466],[-7.455,52.484],[-7.433,52.496],[-7.457,52.524],[-7.451,52.582],[-7.476,52.591],[-7.475,52.616],[-7.521,52.655],[-7.537,52.691],[-7.553,52.703],[-7.646,52.735],[-7.668,52.754],[-7.674,52.781],[-7.697,52.832],[-7.735,52.858],[-7.717,52.865],[-7.726,52.887],[-7.664,52.923],[-7.702,52.934],[-7.73,52.958],[-7.802,52.982],[-7.862,52.943],[-7.845,52.932],[-7.884,52.9],[-7.964,52.857],[-7.989,52.855],[-8,52.881],[-8.04,52.889],[-8.038,52.912],[-8.055,52.928],[-8.04,52.938],[-7.993,52.931],[-7.975,52.949],[-7.987,52.973],[-8.008,52.984],[-7.993,52.999],[-7.95,52.995],[-7.963,53.017],[-7.964,53.042],[-7.943,53.044],[-7.92,53.089],[-7.941,53.118],[-8.019,53.147],[-8.081,53.167],[-8.126,53.159],[-8.148,53.145],[-8.174,53.112],[-8.219,53.068],[-8.268,53.056],[-8.278,53.019],[-8.302,53.007],[-8.317,52.985],[-8.285,52.973],[-8.314,52.936],[-8.338,52.915],[-8.408,52.913],[-8.418,52.875],[-8.455,52.847],[-8.443,52.787],[-8.455,52.781],[-8.409,52.779],[-8.395,52.792],[-8.35,52.769],[-8.401,52.758],[-8.359,52.747],[-8.396,52.733],[-8.395,52.716],[-8.347,52.701],[-8.271,52.689],[-8.254,52.67],[-8.229,52.664],[-8.188,52.668],[-8.195,52.645],[-8.215,52.632],[-8.209,52.602],[-8.226,52.575],[-8.24,52.512],[-8.286,52.522],[-8.326,52.505],[-8.362,52.51],[-8.391,52.491],[-8.406,52.466],[-8.394,52.441],[-8.366,52.446],[-8.351,52.434],[-8.314,52.436],[-8.309,52.42],[-8.26,52.408],[-8.232,52.411],[-8.228,52.386],[-8.193,52.364],[-8.168,52.368],[-8.169,52.292],[-8.183,52.288],[-8.161,52.242],[-8.103,52.231],[-8.105,52.206]]]},"properties":{"name":"Tipperary","name_ga":"Tiobraid Árann","seats":5}},{"type":"Feature","geometry":{"type":"Polygon","coordinates":[[[-7.674,52.781],[-7.614,52.792],[-7.617,52.809],[-7.579,52.829],[-7.557,52.814],[-7.449,52.787],[-7.431,52.802],[-7.399,52.796],[-7.388,52.819],[-7.345,52.839],[-7.31,52.866],[-7.259,52.849],[-7.189,52.894],[-7.14,52.869],[-7.141,52.848],[-7.121,52.826],[-7.099,52.827],[-7.07,52.813],[-7.039,52.808],[-6.965,52.809],[-6.938,52.829],[-6.939,52.88],[-6.935,52.915],[-6.98,52.978],[-7.016,52.968],[-7.054,52.978],[-7.088,52.999],[-7.069,53.021],[-7.045,53.073],[-7.061,53.106],[-7.098,53.102],[-7.166,53.109],[-7.221,53.133],[-7.243,53.173],[-7.158,53.191],[-7.099,53.187],[-7.036,53.19],[-7.038,53.208],[-7.013,53.218],[-7.055,53.243],[-7.019,53.253],[-7.035,53.276],[-7.013,53.296],[-6.978,53.308],[-6.99,53.321],[-7.025,53.331],[-7.024,53.343],[-7.088,53.368],[-7.081,53.382],[-7.144,53.397],[-7.192,53.423],[-7.216,53.407],[-7.268,53.398],[-7.399,53.33],[-7.423,53.335],[-7.456,53.318],[-7.472,53.333],[-7.567,53.361],[-7.567,53.378],[-7.625,53.418],[-7.662,53.408],[-7.717,53.36],[-7.772,53.347],[-7.826,53.356],[-7.854,53.347],[-7.883,53.349],[-7.923,53.363],[-7.945,53.341],[-7.983,53.338],[-8.056,53.274],[-7.983,53.24],[-7.967,53.226],[-7.993,53.193],[-8.024,53.196],[-8.062,53.188],[-8.081,53.167],[-8.019,53.147],[-7.941,53.118],[-7.92,53.089],[-7.943,53.044],[-7.964,53.042],[-7.963,53.017],[-7.95,52.995],[-7.993,52.999],[-8.008,52.984],[-7.987,52.973],[-7.975,52.949],[-7.993,52.931],[-8.04,52.938],[-8.055,52.928],[-8.038,52.912],[-8.04,52.889],[-8,52.881],[-7.989,52.855],[-7.964,52.857],[-7.884,52.9],[-7.845,52.932],[-7.862,52.943],[-7.802,52.982],[-7.73,52.958],[-7.702,52.934],[-7.664,52.923],[-7.726,52.887],[-7.717,52.865],[-7.735,52.858],[-7.697,52.832],[-7.674,52.781]]]},"properties":{"name":"Laois-Offaly","name_ga":"Laois-Uíbh Fhailí","seats":5}},{"type":"Feature","geometry":{"type":"Polygon","coordinates":[[[-6.997,53.441],[-6.978,53.409],[-6.9,53.386],[-6.86,53.369],[-6.885,53.335],[-6.846,53.325],[-6.797,53.323],[-6.784,53.297],[-6.791,53.278],[-6.764,53.265],[-6.742,53.272],[-6.676,53.259],[-6.702,53.237],[-6.708,53.203],[-6.64,53.186],[-6.617,53.169],[-6.631,53.152],[-6.579,53.146],[-6.544,53.17],[-6.55,53.187],[-6.518,53.189],[-6.509,53.214],[-6.475,53.234],[-6.518,53.249],[-6.518,53.265],[-6.544,53.282],[-6.529,53.291],[-6.528,53.314],[-6.501,53.321],[-6.499,53.346],[-6.475,53.363],[-6.46,53.388],[-6.494,53.384],[-6.547,53.405],[-6.573,53.389],[-6.61,53.399],[-6.65,53.395],[-6.704,53.417],[-6.769,53.429],[-6.812,53.398],[-6.883,53.415],[-6.915,53.437],[-6.963,53.451],[-6.997,53.441]]]},"properties":{"name":"Kildare North","name_ga":"Cill Dara Thuaidh","seats":4}},{"type":"Feature","geometry":{"type":"Polygon","coordinates":[[[-6.939,52.88],[-6.88,52.858],[-6.825,52.869],[-6.788,52.871],[-6.751,52.889],[-6.737,52.916],[-6.73,52.927],[-6.792,52.992],[-6.771,53.023],[-6.731,53.047],[-6.726,53.066],[-6.629,53.092],[-6.574,53.13],[-6.579,53.146],[-6.631,53.152],[-6.617,53.169],[-6.64,53.186],[-6.708,53.203],[-6.702,53.237],[-6.676,53.259],[-6.742,53.272],[-6.764,53.265],[-6.791,53.278],[-6.784,53.297],[-6.797,53.323],[-6.846,53.325],[-6.885,53.335],[-6.86,53.369],[-6.9,53.386],[-6.978,53.409],[-6.997,53.441],[-7.034,53.409],[-7.074,53.396],[-7.081,53.382],[-7.088,53.368],[-7.024,53.343],[-7.025,53.331],[-6.99,53.321],[-6.978,53.308],[-7.013,53.296],[-7.035,53.276],[-7.019,53.253],[-7.055,53.243],[-7.013,53.218],[-7.038,53.208],[-7.036,53.19],[-7.099,53.187],[-7.158,53.191],[-7.243,53.173],[-7.221,53.133],[-7.166,53.109],[-7.098,53.102],[-7.061,53.106],[-7.045,53.073],[-7.069,53.021],[-7.088,52.999],[-7.054,52.978],[-7.016,52.968],[-6.98,52.978],[-6.935,52.915],[-6.939,52.88]]]},"properties":{"name":"Kildare South","name_ga":"Cill Dara Theas","seats":4}},{"type":"Feature","geometry":{"type":"Polygon","coordinates":[[[-7,52.276],[-7.017,52.297],[-6.986,52.324],[-6.997,52.348],[-6.992,52.364],[-6.965,52.378],[-6.943,52.413],[-6.915,52.43],[-6.927,52.442],[-6.917,52.464],[-6.884,52.466],[-6.863,52.479],[-6.832,52.52],[-6.837,52.53],[-6.806,52.549],[-6.778,52.58],[-6.783,52.597],[-6.772,52.625],[-6.73,52.643],[-6.679,52.637],[-6.653,52.664],[-6.68,52.668],[-6.62,52.709],[-6.654,52.746],[-6.657,52.769],[-6.702,52.787],[-6.695,52.812],[-6.672,52.816],[-6.661,52.836],[-6.625,52.822],[-6.615,52.808],[-6.571,52.803],[-6.565,52.815],[-6.527,52.824],[-6.529,52.865],[-6.508,52.88],[-6.535,52.89],[-6.549,52.875],[-6.587,52.88],[-6.61,52.897],[-6.712,52.918],[-6.737,52.916],[-6.751,52.889],[-6.788,52.871],[-6.825,52.869],[-6.88,52.858],[-6.939,52.88],[-6.938,52.829],[-6.965,52.809],[-7.039,52.808],[-7.07,52.813],[-7.099,52.827],[-7.121,52.826],[-7.141,52.848],[-7.14,52.869],[-7.189,52.894],[-7.259,52.849],[-7.31,52.866],[-7.345,52.839],[-7.388,52.819],[-7.399,52.796],[-7.431,52.802],[-7.449,52.787],[-7.557,52.814],[-7.579,52.829],[-7.617,52.809],[-7.614,52.792],[-7.674,52.781],[-7.668,52.754],[-7.646,52.735],[-7.553,52.703],[-7.537,52.691],[-7.521,52.655],[-7.475,52.616],[-7.476,52.591],[-7.451,52.582],[-7.457,52.524],[-7.433,52.496],[-7.455,52.484],[-7.461,52.466],[-7.423,52.452],[-7.382,52.42],[-7.395,52.395],[-7.397,52.364],[-7.372,52.343],[-7.324,52.331],[-7.265,52.267],[-7.199,52.25],[-7.168,52.275],[-7.101,52.266],[-7.074,52.256],[-7.038,52.256],[-7,52.276]]]},"properties":{"name":"Carlow-Kilkenny","name_ga":"Ceatharlach-Cill Chainnigh","seats":5}},{"type":"Feature","geometry":{"type":"Polygon","coordinates":[[[-6.966,52.24],[-6.92,52.218],[-6.903,52.196],[-6.901,52.155],[-6.853,52.168],[-6.832,52.181],[-6.818,52.209],[-6.83,52.222],[-6.797,52.24],[-6.789,52.214],[-6.686,52.218],[-6.629,52.206],[-6.629,52.196],[-6.593,52.172],[-6.484,52.195],[-6.483,52.208],[-6.389,52.178],[-6.36,52.175],[-6.346,52.19],[-6.343,52.214],[-6.314,52.241],[-6.335,52.255],[-6.357,52.252],[-6.382,52.268],[-6.399,52.296],[-6.446,52.307],[-6.451,52.345],[-6.437,52.356],[-6.384,52.355],[-6.365,52.37],[-6.354,52.407],[-6.325,52.43],[-6.245,52.51],[-6.218,52.53],[-6.194,52.565],[-6.229,52.626],[-6.226,52.647],[-6.187,52.7],[-6.159,52.716],[-6.145,52.738],[-6.208,52.776],[-6.243,52.778],[-6.261,52.795],[-6.292,52.782],[-6.318,52.797],[-6.369,52.795],[-6.413,52.778],[-6.433,52.735],[-6.498,52.69],[-6.536,52.683],[-6.57,52.684],[-6.574,52.705],[-6.62,52.709],[-6.68,52.668],[-6.653,52.664],[-6.679,52.637],[-6.73,52.643],[-6.772,52.625],[-6.783,52.597],[-6.778,52.58],[-6.806,52.549],[-6.837,52.53],[-6.832,52.52],[-6.863,52.479],[-6.884,52.466],[-6.917,52.464],[-6.927,52.442],[-6.915,52.43],[-6.943,52.413],[-6.965,52.378],[-6.992,52.364],[-6.997,52.348],[-6.986,52.324],[-7.017,52.297],[-7,52.276],[-6.988,52.25],[-6.966,52.24]]]},"properties":{"name":"Wexford","name_ga":"Loch Garman","seats":5}},{"type":"Feature","geometry":{"type":"Polygon","coordinates":[[[-6.579,53.146],[-6.574,53.13],[-6.629,53.092],[-6.726,53.066],[-6.731,53.047],[-6.771,53.023],[-6.792,52.992],[-6.73,52.927],[-6.737,52.916],[-6.712,52.918],[-6.61,52.897],[-6.587,52.88],[-6.549,52.875],[-6.535,52.89],[-6.508,52.88],[-6.529,52.865],[-6.527,52.824],[-6.565,52.815],[-6.571,52.803],[-6.615,52.808],[-6.625,52.822],[-6.661,52.836],[-6.672,52.816],[-6.695,52.812],[-6.702,52.787],[-6.657,52.769],[-6.654,52.746],[-6.62,52.709],[-6.574,52.705],[-6.57,52.684],[-6.536,52.683],[-6.498,52.69],[-6.433,52.735],[-6.413,52.778],[-6.369,52.795],[-6.318,52.797],[-6.292,52.782],[-6.261,52.795],[-6.243,52.778],[-6.208,52.776],[-6.145,52.738],[-6.138,52.758],[-6.146,52.784],[-6.139,52.802],[-6.11,52.835],[-6.057,52.859],[-6.063,52.871],[-6.021,52.925],[-6.008,52.973],[-6.038,52.982],[-6.05,53.008],[-6.034,53.07],[-6.042,53.12],[-6.076,53.164],[-6.076,53.188],[-6.103,53.211],[-6.137,53.199],[-6.162,53.203],[-6.182,53.221],[-6.24,53.202],[-6.298,53.224],[-6.312,53.194],[-6.332,53.178],[-6.375,53.192],[-6.368,53.214],[-6.41,53.216],[-6.442,53.231],[-6.475,53.234],[-6.509,53.214],[-6.518,53.189],[-6.55,53.187],[-6.544,53.17],[-6.579,53.146]]]},"properties":{"name":"Wicklow","name_ga":"Cill Mhantáin","seats":5}},{"type":"Feature","geometry":{"type":"Polygon","coordinates":[[[-6.298,53.224],[-6.288,53.239],[-6.297,53.26],[-6.276,53.267],[-6.269,53.304],[-6.297,53.302],[-6.35,53.305],[-6.368,53.318],[-6.401,53.311],[-6.433,53.292],[-6.428,53.257],[-6.442,53.231],[-6.41,53.216],[-6.368,53.214],[-6.375,53.192],[-6.332,53.178],[-6.312,53.194],[-6.298,53.224]]]},"properties":{"name":"Dublin South-West","name_ga":"Baile Átha Cliath Thiar Theas","seats":5}},{"type":"Feature","geometry":{"type":"Polygon","coordinates":[[[-6.475,53.234],[-6.442,53.231],[-6.428,53.257],[-6.433,53.292],[-6.401,53.311],[-6.368,53.318],[-6.386,53.337],[-6.356,53.354],[-6.367,53.362],[-6.437,53.368],[-6.475,53.363],[-6.499,53.346],[-6.501,53.321],[-6.528,53.314],[-6.529,53.291],[-6.544,53.282],[-6.518,53.265],[-6.518,53.249],[-6.475,53.234]]]},"properties":{"name":"Dublin Mid-West","name_ga":"Baile Átha Cliath Thiar-Meán","seats":4}},{"type":"Feature","geometry":{"type":"Polygon","coordinates":[[[-6.475,53.363],[-6.437,53.368],[-6.367,53.362],[-6.356,53.354],[-6.338,53.347],[-6.295,53.348],[-6.311,53.378],[-6.354,53.388],[-6.311,53.404],[-6.354,53.463],[-6.355,53.447],[-6.41,53.441],[-6.46,53.388],[-6.475,53.363]]]},"properties":{"name":"Dublin West","name_ga":"Baile Átha Cliath Thiar","seats":4}},{"type":"Feature","geometry":{"type":"Polygon","coordinates":[[[-6.297,53.302],[-6.272,53.345],[-6.295,53.348],[-6.338,53.347],[-6.356,53.354],[-6.386,53.337],[-6.368,53.318],[-6.35,53.305],[-6.297,53.302]]]},"properties":{"name":"Dublin South-Central","name_ga":"Baile Átha Cliath Theas-Lár","seats":4}},{"type":"Feature","geometry":{"type":"Polygon","coordinates":[[[-6.311,53.378],[-6.243,53.374],[-6.228,53.411],[-6.311,53.404],[-6.354,53.388],[-6.311,53.378]]]},"properties":{"name":"Dublin North-West","name_ga":"Baile Átha Cliath Thiar Thuaidh","seats":3}},{"type":"Feature","geometry":{"type":"Polygon","coordinates":[[[-6.295,53.348],[-6.272,53.345],[-6.227,53.346],[-6.234,53.358],[-6.243,53.374],[-6.311,53.378],[-6.295,53.348]]]},"properties":{"name":"Dublin Central","name_ga":"Baile Átha Cliath Láir","seats":4}},{"type":"Feature","geometry":{"type":"Polygon","coordinates":[[[-6.243,53.374],[-6.234,53.358],[-6.221,53.363],[-6.165,53.352],[-6.139,53.379],[-6.105,53.387],[-6.077,53.36],[-6.055,53.366],[-6.046,53.385],[-6.123,53.394],[-6.136,53.409],[-6.186,53.406],[-6.228,53.411],[-6.243,53.374]]]},"properties":{"name":"Dublin Bay North","name_ga":"Cuan Bhaile Átha Cliath Thuaidh","seats":5}},{"type":"Feature","geometry":{"type":"Polygon","coordinates":[[[-6.269,53.304],[-6.22,53.311],[-6.199,53.313],[-6.227,53.346],[-6.272,53.345],[-6.297,53.302],[-6.269,53.304]]]},"properties":{"name":"Dublin Bay South","name_ga":"Cuan Bhaile Átha Cliath Theas","seats":4}},{"type":"Feature","geometry":{"type":"Polygon","coordinates":[[[-6.182,53.221],[-6.18,53.255],[-6.202,53.267],[-6.193,53.282],[-6.22,53.311],[-6.269,53.304],[-6.276,53.267],[-6.297,53.26],[-6.288,53.239],[-6.298,53.224],[-6.24,53.202],[-6.182,53.221]]]},"properties":{"name":"Dublin Rathdown","name_ga":"Baile Átha Cliath-Ráth an Dúin","seats":3}},{"type":"Feature","geometry":{"type":"Polygon","coordinates":[[[-6.103,53.211],[-6.112,53.257],[-6.094,53.275],[-6.134,53.296],[-6.151,53.296],[-6.199,53.313],[-6.22,53.311],[-6.193,53.282],[-6.202,53.267],[-6.18,53.255],[-6.182,53.221],[-6.162,53.203],[-6.137,53.199],[-6.103,53.211]]]},"properties":{"name":"Dún Laoghaire","name_ga":"Dún Laoghaire","seats":4}},{"type":"Feature","geometry":{"type":"Polygon","coordinates":[[[-6.311,53.404],[-6.228,53.411],[-6.186,53.406],[-6.136,53.409],[-6.121,53.42],[-6.125,53.444],[-6.197,53.463],[-6.111,53.483],[-6.141,53.509],[-6.093,53.518],[-6.08,53.553],[-6.109,53.582],[-6.151,53.587],[-6.188,53.626],[-6.213,53.634],[-6.256,53.633],[-6.272,53.597],[-6.335,53.573],[-6.369,53.589],[-6.414,53.573],[-6.433,53.544],[-6.408,53.526],[-6.367,53.517],[-6.331,53.486],[-6.354,53.463],[-6.311,53.404]]]},"properties":{"name":"Dublin Fingal","name_ga":"Baile Átha Cliath-Fine Gall","seats":5}},{"type":"Feature","geometry":{"type":"Polygon","coordinates":[[[-6.218,53.645],[-6.236,53.675],[-6.254,53.731],[-6.234,53.789],[-6.26,53.806],[-6.261,53.823],[-6.242,53.859],[-6.306,53.879],[-6.331,53.876],[-6.37,53.905],[-6.377,53.957],[-6.366,53.981],[-6.34,53.997],[-6.346,54.011],[-6.297,54.009],[-6.251,53.988],[-6.165,53.977],[-6.103,54],[-6.129,54.03],[-6.155,54.029],[-6.195,54.056],[-6.246,54.078],[-6.272,54.105],[-6.308,54.107],[-6.336,54.095],[-6.362,54.097],[-6.367,54.07],[-6.387,54.062],[-6.446,54.058],[-6.48,54.067],[-6.516,54.053],[-6.532,54.06],[-6.595,54.045],[-6.576,54.035],[-6.551,54.003],[-6.588,53.97],[-6.619,53.984],[-6.642,53.971],[-6.66,53.942],[-6.63,53.927],[-6.647,53.916],[-6.695,53.908],[-6.679,53.893],[-6.626,53.88],[-6.594,53.851],[-6.593,53.831],[-6.579,53.803],[-6.554,53.798],[-6.516,53.767],[-6.479,53.77],[-6.447,53.758],[-6.482,53.73],[-6.463,53.713],[-6.408,53.695],[-6.367,53.662],[-6.332,53.655],[-6.327,53.631],[-6.296,53.628],[-6.273,53.643],[-6.218,53.645]]]},"properties":{"name":"Louth","name_ga":"Lú","seats":5}},{"type":"Feature","geometry":{"type":"Polygon","coordinates":[[[-6.46,53.388],[-6.41,53.441],[-6.355,53.447],[-6.354,53.463],[-6.331,53.486],[-6.367,53.517],[-6.408,53.526],[-6.433,53.544],[-6.414,53.573],[-6.369,53.589],[-6.335,53.573],[-6.272,53.597],[-6.256,53.633],[-6.213,53.634],[-6.218,53.645],[-6.273,53.643],[-6.296,53.628],[-6.327,53.631],[-6.332,53.655],[-6.367,53.662],[-6.408,53.695],[-6.463,53.713],[-6.482,53.73],[-6.447,53.758],[-6.479,53.77],[-6.516,53.767],[-6.554,53.798],[-6.579,53.803],[-6.593,53.831],[-6.655,53.828],[-6.659,53.816],[-6.705,53.806],[-6.75,53.86],[-6.767,53.859],[-6.845,53.803],[-6.877,53.831],[-6.938,53.853],[-6.952,53.837],[-6.918,53.817],[-6.94,53.798],[-6.94,53.781],[-6.938,53.771],[-6.9,53.741],[-6.924,53.734],[-6.889,53.704],[-6.864,53.705],[-6.84,53.723],[-6.835,53.747],[-6.779,53.74],[-6.756,53.714],[-6.77,53.704],[-6.73,53.672],[-6.705,53.689],[-6.655,53.7],[-6.61,53.679],[-6.628,53.66],[-6.614,53.645],[-6.628,53.618],[-6.664,53.6],[-6.666,53.576],[-6.633,53.574],[-6.632,53.547],[-6.644,53.528],[-6.627,53.505],[-6.654,53.498],[-6.68,53.506],[-6.699,53.483],[-6.68,53.451],[-6.704,53.417],[-6.65,53.395],[-6.61,53.399],[-6.573,53.389],[-6.547,53.405],[-6.494,53.384],[-6.46,53.388]]]},"properties":{"name":"Meath East","name_ga":"An Mhí Thoir","seats":3}},{"type":"Feature","geometry":{"type":"Polygon","coordinates":[[[-7.081,53.382],[-7.074,53.396],[-7.034,53.409],[-6.997,53.441],[-6.963,53.451],[-6.915,53.437],[-6.883,53.415],[-6.812,53.398],[-6.769,53.429],[-6.704,53.417],[-6.68,53.451],[-6.699,53.483],[-6.68,53.506],[-6.654,53.498],[-6.627,53.505],[-6.644,53.528],[-6.632,53.547],[-6.633,53.574],[-6.666,53.576],[-6.664,53.6],[-6.628,53.618],[-6.614,53.645],[-6.628,53.66],[-6.61,53.679],[-6.655,53.7],[-6.705,53.689],[-6.73,53.672],[-6.77,53.704],[-6.756,53.714],[-6.779,53.74],[-6.835,53.747],[-6.84,53.723],[-6.864,53.705],[-6.889,53.704],[-6.924,53.734],[-6.9,53.741],[-6.938,53.771],[-6.94,53.781],[-6.963,53.791],[-7.004,53.766],[-7.105,53.777],[-7.107,53.789],[-7.141,53.799],[-7.194,53.795],[-7.229,53.772],[-7.278,53.782],[-7.308,53.813],[-7.344,53.799],[-7.336,53.788],[-7.292,53.778],[-7.275,53.763],[-7.274,53.741],[-7.308,53.732],[-7.305,53.702],[-7.312,53.674],[-7.356,53.651],[-7.31,53.625],[-7.294,53.609],[-7.25,53.611],[-7.215,53.605],[-7.157,53.574],[-7.145,53.555],[-7.115,53.551],[-7.098,53.533],[-7.099,53.515],[-7.062,53.487],[-7.063,53.469],[-7.123,53.446],[-7.186,53.434],[-7.192,53.423],[-7.144,53.397],[-7.081,53.382]]]},"properties":{"name":"Meath West","name_ga":"An Mhí Thiar","seats":3}},{"type":"Feature","geometry":{"type":"MultiPolygon","coordinates":[[[[-8.006,54.546],[-7.978,54.545],[-7.938,54.533],[-7.869,54.535],[-7.8,54.576],[-7.76,54.594],[-7.694,54.614],[-7.705,54.632],[-7.743,54.62],[-7.771,54.621],[-7.804,54.635],[-7.851,54.631],[-7.857,54.65],[-7.891,54.656],[-7.914,54.676],[-7.855,54.727],[-7.818,54.734],[-7.805,54.719],[-7.746,54.704],[-7.735,54.717],[-7.676,54.733],[-7.637,54.751],[-7.578,54.742],[-7.548,54.755],[-7.549,54.789],[-7.528,54.808],[-7.484,54.824],[-7.443,54.871],[-7.452,54.9],[-7.448,54.93],[-7.407,54.955],[-7.406,55.003],[-7.391,55.022],[-7.345,55.051],[-7.318,55.045],[-7.258,55.067],[-7.201,55.121],[-7.157,55.15],[-7.118,55.159],[-7.05,55.187],[-6.955,55.21],[-6.926,55.226],[-6.937,55.246],[-7.01,55.266],[-7.066,55.271],[-7.153,55.303],[-7.176,55.321],[-7.177,55.34],[-7.277,55.365],[-7.332,55.368],[-7.38,55.382],[-7.386,55.367],[-7.348,55.358],[-7.354,55.332],[-7.318,55.311],[-7.258,55.286],[-7.298,55.277],[-7.309,55.299],[-7.333,55.311],[-7.375,55.316],[-7.38,55.295],[-7.476,55.281],[-7.499,55.29],[-7.518,55.239],[-7.548,55.208],[-7.513,55.18],[-7.46,55.123],[-7.479,55.09],[-7.533,55.072],[-7.513,55.04],[-7.517,55.025],[-7.597,54.993],[-7.617,54.97],[-7.652,54.982],[-7.559,55.035],[-7.568,55.053],[-7.61,55.045],[-7.597,55.074],[-7.533,55.094],[-7.518,55.124],[-7.572,55.18],[-7.613,55.191],[-7.624,55.205],[-7.607,55.218],[-7.628,55.267],[-7.658,55.277],[-7.702,55.248],[-7.75,55.249],[-7.752,55.237],[-7.794,55.221],[-7.772,55.192],[-7.665,55.16],[-7.697,55.152],[-7.724,55.174],[-7.785,55.185],[-7.814,55.201],[-7.817,55.225],[-7.865,55.228],[-7.873,55.203],[-7.825,55.177],[-7.839,55.15],[-7.86,55.14],[-7.877,55.166],[-7.917,55.185],[-7.946,55.182],[-7.942,55.212],[-7.975,55.224],[-8.017,55.213],[-8.019,55.179],[-8.068,55.163],[-8.119,55.16],[-8.134,55.127],[-8.162,55.146],[-8.291,55.153],[-8.294,55.13],[-8.317,55.105],[-8.315,55.075],[-8.348,55.063],[-8.343,55.047],[-8.383,55.034],[-8.411,55.006],[-8.451,55.004],[-8.438,54.979],[-8.414,54.959],[-8.442,54.944],[-8.456,54.912],[-8.38,54.884],[-8.4,54.853],[-8.447,54.839],[-8.489,54.848],[-8.53,54.813],[-8.473,54.79],[-8.53,54.79],[-8.514,54.77],[-8.537,54.765],[-8.598,54.779],[-8.665,54.769],[-8.75,54.728],[-8.748,54.712],[-8.779,54.702],[-8.787,54.673],[-8.773,54.658],[-8.692,54.642],[-8.676,54.62],[-8.561,54.616],[-8.488,54.635],[-8.464,54.606],[-8.445,54.621],[-8.406,54.632],[-8.353,54.615],[-8.342,54.631],[-8.302,54.639],[-8.282,54.63],[-8.281,54.605],[-8.235,54.618],[-8.187,54.64],[-8.156,54.634],[-8.133,54.646],[-8.114,54.615],[-8.135,54.603],[-8.04,54.598],[-7.963,54.608],[-8.004,54.571],[-8.006,54.546]]],[[[-8.559,54.983],[-8.546,54.973],[-8.487,54.974],[-8.504,55.007],[-8.545,55.013],[-8.559,54.983]]]]},"properties":{"name":"Donegal","name_ga":"Dún na nGall","seats":5}},{"type":"Feature","geometry":{"type":"Polygon","coordinates":[[[-6.595,54.045],[-6.623,54.039],[-6.665,54.066],[-6.645,54.099],[-6.661,54.123],[-6.632,54.147],[-6.636,54.17],[-6.665,54.193],[-6.707,54.2],[-6.745,54.185],[-6.815,54.227],[-6.837,54.266],[-6.859,54.283],[-6.865,54.329],[-6.959,54.398],[-7.029,54.421],[-7.054,54.412],[-7.071,54.389],[-7.152,54.335],[-7.184,54.34],[-7.18,54.309],[-7.212,54.3],[-7.173,54.286],[-7.143,54.252],[-7.147,54.225],[-7.185,54.225],[-7.248,54.204],[-7.26,54.184],[-7.253,54.156],[-7.263,54.138],[-7.31,54.167],[-7.327,54.135],[-7.36,54.13],[-7.4,54.141],[-7.409,54.156],[-7.442,54.154],[-7.491,54.123],[-7.532,54.133],[-7.566,54.127],[-7.625,54.153],[-7.625,54.165],[-7.688,54.204],[-7.804,54.207],[-7.862,54.219],[-7.861,54.261],[-7.888,54.301],[-7.946,54.305],[-7.974,54.274],[-8.01,54.248],[-8.041,54.254],[-8.058,54.236],[-8.034,54.216],[-8.048,54.187],[-8.006,54.192],[-7.984,54.179],[-7.953,54.179],[-7.888,54.142],[-7.857,54.112],[-7.822,54.096],[-7.788,54.108],[-7.756,54.106],[-7.737,54.083],[-7.709,54.084],[-7.685,54.06],[-7.658,54.056],[-7.64,54.023],[-7.601,54.013],[-7.585,53.981],[-7.61,53.938],[-7.583,53.915],[-7.558,53.904],[-7.585,53.857],[-7.543,53.854],[-7.495,53.86],[-7.477,53.854],[-7.456,53.802],[-7.378,53.785],[-7.344,53.799],[-7.308,53.813],[-7.278,53.782],[-7.229,53.772],[-7.194,53.795],[-7.141,53.799],[-7.107,53.789],[-7.105,53.777],[-7.004,53.766],[-6.963,53.791],[-6.94,53.781],[-6.94,53.798],[-6.918,53.817],[-6.952,53.837],[-6.938,53.853],[-6.877,53.831],[-6.845,53.803],[-6.767,53.859],[-6.75,53.86],[-6.705,53.806],[-6.659,53.816],[-6.655,53.828],[-6.593,53.831],[-6.594,53.851],[-6.626,53.88],[-6.679,53.893],[-6.695,53.908],[-6.647,53.916],[-6.63,53.927],[-6.66,53.942],[-6.642,53.971],[-6.619,53.984],[-6.588,53.97],[-6.551,54.003],[-6.576,54.035],[-6.595,54.045]]]},"properties":{"name":"Cavan-Monaghan","name_ga":"An Cabhán-Muineachán","seats":5}},{"type":"Feature","geometry":{"type":"Polygon","coordinates":[[[-7.192,53.423],[-7.186,53.434],[-7.123,53.446],[-7.063,53.469],[-7.062,53.487],[-7.099,53.515],[-7.098,53.533],[-7.115,53.551],[-7.145,53.555],[-7.157,53.574],[-7.215,53.605],[-7.25,53.611],[-7.294,53.609],[-7.31,53.625],[-7.356,53.651],[-7.312,53.674],[-7.305,53.702],[-7.308,53.732],[-7.274,53.741],[-7.275,53.763],[-7.292,53.778],[-7.336,53.788],[-7.344,53.799],[-7.378,53.785],[-7.456,53.802],[-7.477,53.854],[-7.495,53.86],[-7.543,53.854],[-7.585,53.857],[-7.558,53.904],[-7.583,53.915],[-7.61,53.938],[-7.658,53.937],[-7.667,53.921],[-7.693,53.916],[-7.738,53.876],[-7.777,53.868],[-7.772,53.846],[-7.788,53.816],[-7.829,53.811],[-7.865,53.825],[-7.919,53.821],[-7.909,53.794],[-7.876,53.777],[-7.89,53.758],[-7.944,53.728],[-7.951,53.712],[-7.988,53.698],[-7.984,53.682],[-8.035,53.643],[-8.036,53.608],[-8.015,53.581],[-7.981,53.552],[-7.955,53.481],[-7.967,53.45],[-7.914,53.379],[-7.923,53.363],[-7.883,53.349],[-7.854,53.347],[-7.826,53.356],[-7.772,53.347],[-7.717,53.36],[-7.662,53.408],[-7.625,53.418],[-7.567,53.378],[-7.567,53.361],[-7.472,53.333],[-7.456,53.318],[-7.423,53.335],[-7.399,53.33],[-7.268,53.398],[-7.216,53.407],[-7.192,53.423]]]},"properties":{"name":"Longford-Westmeath","name_ga":"An Longfort-An Iarmhí","seats":4}},{"type":"Feature","geometry":{"type":"Polygon","coordinates":[[[-7.923,53.363],[-7.914,53.379],[-7.967,53.45],[-7.955,53.481],[-7.981,53.552],[-8.015,53.581],[-8.036,53.608],[-8.035,53.643],[-7.984,53.682],[-7.988,53.698],[-7.951,53.712],[-7.944,53.728],[-7.89,53.758],[-7.876,53.777],[-7.909,53.794],[-7.919,53.821],[-7.919,53.838],[-7.94,53.848],[-7.994,53.904],[-8.013,53.931],[-8.062,53.91],[-8.073,53.924],[-8.112,53.905],[-8.168,53.923],[-8.184,53.952],[-8.22,53.936],[-8.271,53.93],[-8.292,53.921],[-8.332,53.926],[-8.448,53.926],[-8.477,53.921],[-8.519,53.927],[-8.537,53.958],[-8.585,53.954],[-8.664,53.971],[-8.685,53.919],[-8.633,53.899],[-8.636,53.869],[-8.678,53.877],[-8.704,53.874],[-8.696,53.852],[-8.733,53.806],[-8.694,53.798],[-8.68,53.78],[-8.68,53.753],[-8.714,53.725],[-8.713,53.712],[-8.755,53.701],[-8.842,53.653],[-8.899,53.652],[-8.901,53.642],[-8.778,53.594],[-8.766,53.574],[-8.739,53.56],[-8.726,53.539],[-8.692,53.537],[-8.657,53.509],[-8.585,53.497],[-8.575,53.481],[-8.59,53.455],[-8.562,53.417],[-8.594,53.418],[-8.594,53.402],[-8.543,53.387],[-8.526,53.368],[-8.532,53.34],[-8.51,53.332],[-8.496,53.292],[-8.461,53.287],[-8.437,53.258],[-8.382,53.272],[-8.367,53.248],[-8.281,53.25],[-8.238,53.244],[-8.184,53.25],[-8.129,53.223],[-8.102,53.242],[-8.083,53.242],[-8.056,53.274],[-7.983,53.338],[-7.945,53.341],[-7.923,53.363]]]},"properties":{"name":"Roscommon-Galway","name_ga":"Ros Comáin-Gaillimh","seats":3}},{"type":"Feature","geometry":{"type":"MultiPolygon","coordinates":[[[[-8.585,53.954],[-8.594,53.967],[-8.583,54.013],[-8.647,54.033],[-8.706,54.001],[-8.738,53.995],[-8.756,53.976],[-8.783,53.966],[-8.845,53.972],[-8.889,54.007],[-8.924,54.009],[-8.969,54.027],[-9.012,54.024],[-9.009,54.057],[-8.97,54.073],[-8.96,54.102],[-8.917,54.118],[-8.939,54.143],[-8.993,54.15],[-9.025,54.162],[-9.057,54.146],[-9.084,54.146],[-9.132,54.162],[-9.157,54.196],[-9.182,54.208],[-9.219,54.212],[-9.192,54.238],[-9.214,54.252],[-9.214,54.287],[-9.249,54.294],[-9.264,54.31],[-9.336,54.322],[-9.39,54.307],[-9.51,54.31],[-9.599,54.324],[-9.643,54.324],[-9.664,54.314],[-9.742,54.328],[-9.806,54.342],[-9.861,54.317],[-9.852,54.302],[-9.808,54.287],[-9.868,54.273],[-9.882,54.234],[-9.876,54.218],[-9.947,54.213],[-9.891,54.255],[-9.919,54.27],[-9.963,54.272],[-9.979,54.288],[-10.011,54.291],[-10.07,54.277],[-10.103,54.239],[-10.056,54.228],[-10.064,54.209],[-10.096,54.199],[-10.087,54.181],[-10.118,54.143],[-10.131,54.109],[-10.094,54.088],[-10.064,54.097],[-10.087,54.127],[-10.063,54.151],[-10.062,54.171],[-10.037,54.172],[-10.013,54.191],[-10,54.224],[-9.934,54.182],[-9.954,54.173],[-9.955,54.153],[-9.937,54.113],[-9.976,54.096],[-9.963,54.073],[-9.936,54.062],[-9.893,54.072],[-9.865,54.086],[-9.856,54.064],[-9.907,54.044],[-9.894,54.017],[-9.848,53.996],[-9.852,53.958],[-9.905,53.951],[-9.902,53.934],[-9.93,53.913],[-9.923,53.892],[-9.938,53.871],[-9.905,53.862],[-9.815,53.878],[-9.782,53.9],[-9.663,53.893],[-9.586,53.897],[-9.565,53.892],[-9.589,53.856],[-9.618,53.845],[-9.617,53.811],[-9.558,53.807],[-9.573,53.787],[-9.765,53.775],[-9.777,53.783],[-9.826,53.77],[-9.901,53.764],[-9.894,53.738],[-9.92,53.69],[-9.907,53.677],[-9.908,53.652],[-9.88,53.634],[-9.816,53.616],[-9.784,53.603],[-9.697,53.605],[-9.67,53.613],[-9.652,53.602],[-9.611,53.607],[-9.585,53.599],[-9.565,53.613],[-9.544,53.581],[-9.521,53.58],[-9.481,53.562],[-9.361,53.574],[-9.362,53.598],[-9.346,53.618],[-9.294,53.602],[-9.265,53.608],[-9.245,53.599],[-9.198,53.596],[-9.154,53.623],[-9.138,53.641],[-9.115,53.639],[-9.103,53.616],[-9.065,53.582],[-9.046,53.577],[-9.007,53.584],[-9.016,53.598],[-8.98,53.605],[-8.971,53.655],[-8.946,53.662],[-8.901,53.642],[-8.899,53.652],[-8.842,53.653],[-8.755,53.701],[-8.713,53.712],[-8.714,53.725],[-8.68,53.753],[-8.68,53.78],[-8.694,53.798],[-8.733,53.806],[-8.696,53.852],[-8.704,53.874],[-8.678,53.877],[-8.636,53.869],[-8.633,53.899],[-8.685,53.919],[-8.664,53.971],[-8.585,53.954]]],[[[-9.989,54.012],[-10.028,54.012],[-10.065,54.025],[-10.098,54.009],[-10.144,54.002],[-10.177,54.009],[-10.222,53.974],[-10.116,53.961],[-10.069,53.972],[-10.045,53.957],[-10.053,53.921],[-10.018,53.92],[-10.002,53.897],[-9.963,53.874],[-9.937,53.899],[-9.946,53.917],[-9.927,53.927],[-9.926,53.956],[-9.949,53.958],[-9.959,53.989],[-9.929,53.996],[-9.975,54.03],[-9.989,54.012]]],[[[-9.948,53.812],[-9.996,53.814],[-10.049,53.802],[-10.047,53.79],[-9.994,53.79],[-9.951,53.798],[-9.948,53.812]]]]},"properties":{"name":"Mayo","name_ga":"Maigh Eo","seats":4}},{"type":"Feature","geometry":{"type":"Polygon","coordinates":[[[-8.135,54.603],[-8.218,54.575],[-8.21,54.549],[-8.264,54.528],[-8.254,54.512],[-8.266,54.492],[-8.312,54.479],[-8.44,54.455],[-8.487,54.421],[-8.543,54.398],[-8.66,54.366],[-8.676,54.349],[-8.647,54.332],[-8.594,54.343],[-8.559,54.342],[-8.501,54.323],[-8.53,54.315],[-8.573,54.329],[-8.573,54.305],[-8.527,54.303],[-8.477,54.283],[-8.517,54.276],[-8.571,54.276],[-8.601,54.282],[-8.604,54.261],[-8.576,54.243],[-8.572,54.217],[-8.627,54.237],[-8.66,54.272],[-8.687,54.273],[-8.725,54.263],[-8.785,54.271],[-8.826,54.253],[-8.936,54.293],[-9.024,54.297],[-9.054,54.274],[-9.089,54.234],[-9.094,54.215],[-9.122,54.202],[-9.136,54.178],[-9.132,54.162],[-9.084,54.146],[-9.057,54.146],[-9.025,54.162],[-8.993,54.15],[-8.939,54.143],[-8.917,54.118],[-8.96,54.102],[-8.97,54.073],[-9.009,54.057],[-9.012,54.024],[-8.969,54.027],[-8.924,54.009],[-8.889,54.007],[-8.845,53.972],[-8.783,53.966],[-8.756,53.976],[-8.738,53.995],[-8.706,54.001],[-8.647,54.033],[-8.583,54.013],[-8.594,53.967],[-8.585,53.954],[-8.537,53.958],[-8.519,53.927],[-8.477,53.921],[-8.448,53.926],[-8.332,53.926],[-8.292,53.921],[-8.271,53.93],[-8.22,53.936],[-8.184,53.952],[-8.168,53.923],[-8.112,53.905],[-8.073,53.924],[-8.062,53.91],[-8.013,53.931],[-7.994,53.904],[-7.94,53.848],[-7.919,53.838],[-7.919,53.821],[-7.865,53.825],[-7.829,53.811],[-7.788,53.816],[-7.772,53.846],[-7.777,53.868],[-7.738,53.876],[-7.693,53.916],[-7.667,53.921],[-7.658,53.937],[-7.61,53.938],[-7.585,53.981],[-7.601,54.013],[-7.64,54.023],[-7.658,54.056],[-7.685,54.06],[-7.709,54.084],[-7.737,54.083],[-7.756,54.106],[-7.788,54.108],[-7.822,54.096],[-7.857,54.112],[-7.888,54.142],[-7.953,54.179],[-7.984,54.179],[-8.006,54.192],[-8.048,54.187],[-8.034,54.216],[-8.058,54.236],[-8.041,54.254],[-8.01,54.248],[-7.974,54.274],[-7.946,54.305],[-8.001,54.35],[-8.056,54.366],[-8.084,54.397],[-8.154,54.437],[-8.149,54.47],[-8.086,54.487],[-8.043,54.488],[-8.042,54.507],[-8.006,54.546],[-8.004,54.571],[-7.963,54.608],[-8.04,54.598],[-8.135,54.603]]]},"properties":{"name":"Sligo-Leitrim","name_ga":"Sligeach-Liatroim","seats":4}},{"type":"Feature","geometry":{"type":"MultiPolygon","coordinates":[[[[-9.67,53.613],[-9.703,53.595],[-9.731,53.6],[-9.789,53.594],[-9.859,53.62],[-9.899,53.614],[-9.911,53.601],[-9.968,53.601],[-10.007,53.612],[-10.049,53.609],[-10.045,53.594],[-9.998,53.573],[-9.975,53.555],[-9.999,53.548],[-10.015,53.567],[-10.115,53.577],[-10.121,53.571],[-10.19,53.556],[-10.176,53.541],[-10.145,53.542],[-10.136,53.523],[-10.102,53.52],[-10.055,53.512],[-10.062,53.503],[-10.112,53.52],[-10.122,53.509],[-10.087,53.496],[-10.084,53.475],[-10.058,53.457],[-10.084,53.439],[-10.101,53.451],[-10.133,53.451],[-10.178,53.417],[-10.116,53.41],[-10.073,53.422],[-10.035,53.408],[-10.036,53.393],[-10.011,53.38],[-9.935,53.379],[-9.92,53.406],[-9.885,53.415],[-9.882,53.393],[-9.821,53.406],[-9.806,53.386],[-9.846,53.374],[-9.889,53.369],[-9.881,53.343],[-9.906,53.324],[-9.882,53.312],[-9.835,53.312],[-9.774,53.3],[-9.731,53.311],[-9.697,53.36],[-9.635,53.385],[-9.644,53.354],[-9.64,53.331],[-9.622,53.326],[-9.642,53.302],[-9.685,53.31],[-9.694,53.287],[-9.63,53.297],[-9.598,53.281],[-9.631,53.25],[-9.612,53.234],[-9.578,53.247],[-9.511,53.223],[-9.455,53.233],[-9.404,53.234],[-9.361,53.243],[-9.313,53.24],[-9.233,53.247],[-9.163,53.246],[-9.057,53.263],[-9.039,53.27],[-8.995,53.263],[-8.946,53.274],[-8.942,53.258],[-8.971,53.244],[-8.988,53.222],[-8.961,53.208],[-8.912,53.214],[-8.893,53.211],[-8.873,53.213],[-8.851,53.223],[-8.841,53.246],[-8.877,53.296],[-8.876,53.315],[-8.812,53.337],[-8.843,53.359],[-8.849,53.377],[-8.887,53.387],[-8.902,53.402],[-8.928,53.397],[-8.998,53.408],[-9.019,53.418],[-9.102,53.403],[-9.122,53.423],[-9.185,53.425],[-9.214,53.444],[-9.26,53.45],[-9.266,53.469],[-9.237,53.48],[-9.184,53.472],[-9.137,53.477],[-9.094,53.515],[-9.037,53.536],[-9.025,53.552],[-9.046,53.577],[-9.065,53.582],[-9.103,53.616],[-9.115,53.639],[-9.138,53.641],[-9.154,53.623],[-9.198,53.596],[-9.245,53.599],[-9.265,53.608],[-9.294,53.602],[-9.346,53.618],[-9.362,53.598],[-9.361,53.574],[-9.481,53.562],[-9.521,53.58],[-9.544,53.581],[-9.565,53.613],[-9.585,53.599],[-9.611,53.607],[-9.652,53.602],[-9.67,53.613]]],[[[-9.611,53.065],[-9.578,53.072],[-9.562,53.087],[-9.592,53.1],[-9.614,53.084],[-9.611,53.065]]],[[[-9.534,53.069],[-9.555,53.05],[-9.526,53.045],[-9.504,53.063],[-9.534,53.069]]],[[[-9.677,53.134],[-9.71,53.141],[-9.745,53.134],[-9.76,53.148],[-9.806,53.152],[-9.829,53.139],[-9.691,53.108],[-9.677,53.134]]],[[[-9.658,53.226],[-9.643,53.239],[-9.647,53.274],[-9.724,53.263],[-9.703,53.228],[-9.658,53.226]]]]},"properties":{"name":"Galway West","name_ga":"Gaillimh Thiar","seats":5}},{"type":"Feature","geometry":{"type":"Polygon","coordinates":[[[-8.081,53.167],[-8.062,53.188],[-8.024,53.196],[-7.993,53.193],[-7.967,53.226],[-7.983,53.24],[-8.056,53.274],[-8.083,53.242],[-8.102,53.242],[-8.129,53.223],[-8.184,53.25],[-8.238,53.244],[-8.281,53.25],[-8.367,53.248],[-8.382,53.272],[-8.437,53.258],[-8.461,53.287],[-8.496,53.292],[-8.51,53.332],[-8.532,53.34],[-8.526,53.368],[-8.543,53.387],[-8.594,53.402],[-8.594,53.418],[-8.562,53.417],[-8.59,53.455],[-8.575,53.481],[-8.585,53.497],[-8.657,53.509],[-8.692,53.537],[-8.726,53.539],[-8.739,53.56],[-8.766,53.574],[-8.778,53.594],[-8.901,53.642],[-8.946,53.662],[-8.971,53.655],[-8.98,53.605],[-9.016,53.598],[-9.007,53.584],[-9.046,53.577],[-9.025,53.552],[-9.037,53.536],[-9.094,53.515],[-9.137,53.477],[-9.184,53.472],[-9.237,53.48],[-9.266,53.469],[-9.26,53.45],[-9.214,53.444],[-9.185,53.425],[-9.122,53.423],[-9.102,53.403],[-9.019,53.418],[-8.998,53.408],[-8.928,53.397],[-8.902,53.402],[-8.887,53.387],[-8.849,53.377],[-8.843,53.359],[-8.812,53.337],[-8.876,53.315],[-8.877,53.296],[-8.841,53.246],[-8.851,53.223],[-8.873,53.213],[-8.882,53.209],[-8.923,53.209],[-8.954,53.178],[-8.951,53.153],[-9.002,53.169],[-9.054,53.165],[-9.006,53.15],[-9.009,53.141],[-9.028,53.131],[-9.019,53.111],[-8.993,53.095],[-8.956,53.087],[-8.89,53.056],[-8.899,53.008],[-8.883,52.977],[-8.846,52.983],[-8.784,52.973],[-8.779,52.988],[-8.737,53.006],[-8.72,53.025],[-8.635,53.042],[-8.627,53.034],[-8.554,53.042],[-8.485,52.989],[-8.45,52.972],[-8.407,52.994],[-8.359,52.971],[-8.339,52.988],[-8.317,52.985],[-8.302,53.007],[-8.278,53.019],[-8.268,53.056],[-8.219,53.068],[-8.174,53.112],[-8.148,53.145],[-8.126,53.159],[-8.081,53.167]]]},"properties":{"name":"Galway East","name_ga":"Gaillimh Thoir","seats":3}},{"type":"Feature","geometry":{"type":"Polygon","coordinates":[[[-8.455,52.781],[-8.477,52.759],[-8.509,52.746],[-8.502,52.719],[-8.533,52.704],[-8.544,52.682],[-8.59,52.67],[-8.614,52.687],[-8.654,52.69],[-8.709,52.671],[-8.705,52.648],[-8.718,52.626],[-8.673,52.616],[-8.654,52.584],[-8.618,52.593],[-8.565,52.569],[-8.57,52.554],[-8.54,52.54],[-8.508,52.549],[-8.492,52.569],[-8.366,52.584],[-8.383,52.609],[-8.317,52.665],[-8.283,52.67],[-8.271,52.689],[-8.347,52.701],[-8.395,52.716],[-8.396,52.733],[-8.359,52.747],[-8.401,52.758],[-8.35,52.769],[-8.395,52.792],[-8.409,52.779],[-8.455,52.781]]]},"properties":{"name":"Limerick City","name_ga":"Cathair Luimnigh","seats":4}},{"type":"Feature","geometry":{"type":"Polygon","coordinates":[[[-8.183,52.288],[-8.169,52.292],[-8.168,52.368],[-8.193,52.364],[-8.228,52.386],[-8.232,52.411],[-8.26,52.408],[-8.309,52.42],[-8.314,52.436],[-8.351,52.434],[-8.366,52.446],[-8.394,52.441],[-8.406,52.466],[-8.391,52.491],[-8.362,52.51],[-8.326,52.505],[-8.286,52.522],[-8.24,52.512],[-8.226,52.575],[-8.209,52.602],[-8.215,52.632],[-8.195,52.645],[-8.188,52.668],[-8.229,52.664],[-8.254,52.67],[-8.271,52.689],[-8.283,52.67],[-8.317,52.665],[-8.383,52.609],[-8.366,52.584],[-8.492,52.569],[-8.508,52.549],[-8.54,52.54],[-8.57,52.554],[-8.565,52.569],[-8.618,52.593],[-8.654,52.584],[-8.673,52.616],[-8.718,52.626],[-8.705,52.648],[-8.709,52.671],[-8.743,52.676],[-8.776,52.669],[-8.833,52.68],[-8.973,52.666],[-9.017,52.65],[-9.073,52.65],[-9.123,52.634],[-9.149,52.615],[-9.229,52.608],[-9.294,52.58],[-9.345,52.59],[-9.368,52.574],[-9.338,52.562],[-9.348,52.541],[-9.305,52.521],[-9.297,52.496],[-9.34,52.463],[-9.307,52.429],[-9.328,52.423],[-9.339,52.404],[-9.303,52.389],[-9.311,52.376],[-9.347,52.361],[-9.306,52.338],[-9.24,52.322],[-9.217,52.298],[-9.175,52.312],[-9.14,52.333],[-9.075,52.331],[-9.034,52.322],[-9.008,52.309],[-8.883,52.332],[-8.882,52.347],[-8.799,52.387],[-8.75,52.38],[-8.735,52.371],[-8.674,52.384],[-8.662,52.352],[-8.624,52.344],[-8.585,52.307],[-8.565,52.306],[-8.534,52.286],[-8.504,52.281],[-8.425,52.293],[-8.387,52.295],[-8.341,52.329],[-8.312,52.322],[-8.285,52.287],[-8.251,52.296],[-8.183,52.288]]]},"properties":{"name":"Limerick County","name_ga":"Contae Luimnigh","seats":3}},{"type":"Feature","geometry":{"type":"Polygon","coordinates":[[[-8.317,52.985],[-8.339,52.988],[-8.359,52.971],[-8.407,52.994],[-8.45,52.972],[-8.485,52.989],[-8.554,53.042],[-8.627,53.034],[-8.635,53.042],[-8.72,53.025],[-8.737,53.006],[-8.779,52.988],[-8.784,52.973],[-8.846,52.983],[-8.883,52.977],[-8.899,53.008],[-8.89,53.056],[-8.956,53.087],[-8.993,53.095],[-9.019,53.111],[-9.028,53.131],[-9.009,53.141],[-9.054,53.157],[-9.095,53.147],[-9.139,53.121],[-9.221,53.14],[-9.265,53.154],[-9.292,53.133],[-9.288,53.119],[-9.31,53.092],[-9.354,53.075],[-9.364,53.051],[-9.409,53.019],[-9.392,53.008],[-9.429,52.985],[-9.429,52.97],[-9.475,52.943],[-9.4,52.933],[-9.372,52.944],[-9.347,52.931],[-9.351,52.918],[-9.389,52.897],[-9.434,52.882],[-9.427,52.867],[-9.452,52.849],[-9.457,52.817],[-9.484,52.808],[-9.499,52.772],[-9.499,52.75],[-9.525,52.746],[-9.57,52.752],[-9.605,52.745],[-9.668,52.682],[-9.746,52.639],[-9.803,52.618],[-9.807,52.604],[-9.864,52.592],[-9.883,52.579],[-9.913,52.576],[-9.929,52.556],[-9.882,52.557],[-9.862,52.57],[-9.812,52.565],[-9.743,52.58],[-9.696,52.583],[-9.68,52.573],[-9.635,52.599],[-9.437,52.596],[-9.408,52.592],[-9.373,52.602],[-9.345,52.59],[-9.294,52.58],[-9.229,52.608],[-9.149,52.615],[-9.123,52.634],[-9.073,52.65],[-9.017,52.65],[-8.973,52.666],[-8.833,52.68],[-8.776,52.669],[-8.743,52.676],[-8.709,52.671],[-8.654,52.69],[-8.614,52.687],[-8.59,52.67],[-8.544,52.682],[-8.533,52.704],[-8.502,52.719],[-8.509,52.746],[-8.477,52.759],[-8.455,52.781],[-8.443,52.787],[-8.455,52.847],[-8.418,52.875],[-8.408,52.913],[-8.338,52.915],[-8.314,52.936],[-8.285,52.973],[-8.317,52.985]]]},"properties":{"name":"Clare","name_ga":"An Clár","seats":4}},{"type":"Feature","geometry":{"type":"Polygon","coordinates":[[[-8.565,52.306],[-8.585,52.307],[-8.624,52.344],[-8.662,52.352],[-8.674,52.384],[-8.735,52.371],[-8.75,52.38],[-8.799,52.387],[-8.882,52.347],[-8.883,52.332],[-9.008,52.309],[-9.034,52.322],[-9.075,52.331],[-9.14,52.333],[-9.175,52.312],[-9.217,52.298],[-9.27,52.25],[-9.276,52.23],[-9.232,52.177],[-9.24,52.146],[-9.226,52.119],[-9.208,52.105],[-9.208,52.072],[-9.221,52.055],[-9.212,52.023],[-9.184,52.027],[-9.161,52.006],[-9.132,52.006],[-9.138,51.983],[-9.195,51.982],[-9.255,51.97],[-9.262,51.96],[-9.303,51.946],[-9.302,51.924],[-9.279,51.894],[-9.33,51.846],[-9.36,51.836],[-9.315,51.813],[-9.238,51.784],[-9.235,51.749],[-9.266,51.744],[-9.25,51.719],[-9.223,51.713],[-9.167,51.728],[-9.172,51.761],[-9.103,51.753],[-9.095,51.73],[-9.061,51.714],[-8.991,51.725],[-8.97,51.743],[-8.939,51.734],[-8.876,51.737],[-8.868,51.753],[-8.831,51.763],[-8.824,51.779],[-8.781,51.77],[-8.747,51.778],[-8.701,51.763],[-8.668,51.785],[-8.614,51.791],[-8.628,51.807],[-8.612,51.831],[-8.584,51.836],[-8.565,51.851],[-8.561,51.875],[-8.542,51.881],[-8.544,51.9],[-8.631,51.888],[-8.663,51.899],[-8.743,51.911],[-8.748,51.942],[-8.733,51.973],[-8.766,52.001],[-8.804,52.019],[-8.781,52.042],[-8.744,52.024],[-8.693,52.032],[-8.672,52.061],[-8.686,52.076],[-8.655,52.101],[-8.677,52.124],[-8.718,52.133],[-8.774,52.127],[-8.79,52.144],[-8.765,52.157],[-8.77,52.179],[-8.716,52.241],[-8.686,52.242],[-8.669,52.27],[-8.627,52.242],[-8.603,52.253],[-8.561,52.259],[-8.557,52.281],[-8.565,52.306]]]},"properties":{"name":"Cork North-West","name_ga":"Corcaigh Thiar Thuaidh","seats":3}},{"type":"Feature","geometry":{"type":"Polygon","coordinates":[[[-8.655,52.101],[-8.686,52.076],[-8.672,52.061],[-8.693,52.032],[-8.744,52.024],[-8.781,52.042],[-8.804,52.019],[-8.766,52.001],[-8.733,51.973],[-8.748,51.942],[-8.743,51.911],[-8.663,51.899],[-8.631,51.888],[-8.544,51.9],[-8.542,51.881],[-8.497,51.886],[-8.446,51.902],[-8.395,51.901],[-8.339,51.88],[-8.325,51.895],[-8.332,51.933],[-8.364,51.995],[-8.327,51.999],[-8.298,52.012],[-8.304,52.049],[-8.331,52.057],[-8.323,52.075],[-8.365,52.112],[-8.402,52.1],[-8.431,52.108],[-8.45,52.1],[-8.496,52.107],[-8.524,52.086],[-8.547,52.107],[-8.544,52.15],[-8.603,52.14],[-8.601,52.114],[-8.655,52.101]]]},"properties":{"name":"Cork North-Central","name_ga":"Corcaigh Thuaidh-Lár","seats":4}},{"type":"Feature","geometry":{"type":"Polygon","coordinates":[[[-8.339,51.88],[-8.395,51.901],[-8.446,51.902],[-8.497,51.886],[-8.542,51.881],[-8.561,51.875],[-8.565,51.851],[-8.56,51.82],[-8.537,51.81],[-8.496,51.812],[-8.486,51.798],[-8.422,51.788],[-8.399,51.755],[-8.347,51.765],[-8.294,51.78],[-8.274,51.798],[-8.31,51.813],[-8.3,51.834],[-8.34,51.842],[-8.328,51.866],[-8.339,51.88]]]},"properties":{"name":"Cork South-Central","name_ga":"Corcaigh Theas-Lár","seats":4}},{"type":"Feature","geometry":{"type":"MultiPolygon","coordinates":[[[[-9.36,51.836],[-9.438,51.823],[-9.446,51.807],[-9.481,51.79],[-9.566,51.79],[-9.623,51.786],[-9.664,51.75],[-9.708,51.744],[-9.761,51.72],[-9.792,51.692],[-9.822,51.688],[-9.824,51.717],[-9.857,51.751],[-9.906,51.75],[-9.931,51.74],[-9.973,51.736],[-9.98,51.712],[-9.973,51.685],[-10.029,51.678],[-10.054,51.669],[-10.056,51.651],[-10.076,51.62],[-10.13,51.613],[-10.121,51.601],[-10.055,51.603],[-10.047,51.591],[-10.006,51.599],[-9.986,51.611],[-9.934,51.616],[-9.926,51.639],[-9.839,51.659],[-9.814,51.655],[-9.699,51.679],[-9.663,51.673],[-9.623,51.681],[-9.579,51.71],[-9.55,51.713],[-9.531,51.732],[-9.478,51.717],[-9.45,51.715],[-9.46,51.681],[-9.488,51.678],[-9.522,51.66],[-9.564,51.653],[-9.64,51.629],[-9.667,51.625],[-9.785,51.579],[-9.805,51.544],[-9.654,51.584],[-9.605,51.606],[-9.56,51.605],[-9.692,51.53],[-9.748,51.523],[-9.794,51.496],[-9.818,51.456],[-9.796,51.45],[-9.771,51.463],[-9.705,51.479],[-9.705,51.492],[-9.656,51.514],[-9.616,51.493],[-9.527,51.517],[-9.446,51.53],[-9.414,51.54],[-9.407,51.522],[-9.424,51.506],[-9.374,51.469],[-9.321,51.478],[-9.294,51.496],[-9.243,51.483],[-9.174,51.516],[-9.137,51.525],[-9.085,51.546],[-9.034,51.554],[-9.002,51.567],[-8.925,51.541],[-8.89,51.551],[-8.893,51.569],[-8.869,51.577],[-8.87,51.595],[-8.81,51.594],[-8.776,51.582],[-8.713,51.57],[-8.692,51.601],[-8.702,51.618],[-8.67,51.652],[-8.659,51.635],[-8.55,51.646],[-8.531,51.657],[-8.524,51.677],[-8.492,51.685],[-8.477,51.676],[-8.44,51.685],[-8.424,51.702],[-8.385,51.714],[-8.343,51.716],[-8.33,51.734],[-8.297,51.756],[-8.31,51.771],[-8.347,51.765],[-8.399,51.755],[-8.422,51.788],[-8.486,51.798],[-8.496,51.812],[-8.537,51.81],[-8.56,51.82],[-8.565,51.851],[-8.584,51.836],[-8.612,51.831],[-8.628,51.807],[-8.614,51.791],[-8.668,51.785],[-8.701,51.763],[-8.747,51.778],[-8.781,51.77],[-8.824,51.779],[-8.831,51.763],[-8.868,51.753],[-8.876,51.737],[-8.939,51.734],[-8.97,51.743],[-8.991,51.725],[-9.061,51.714],[-9.095,51.73],[-9.103,51.753],[-9.172,51.761],[-9.167,51.728],[-9.223,51.713],[-9.25,51.719],[-9.266,51.744],[-9.235,51.749],[-9.238,51.784],[-9.315,51.813],[-9.36,51.836]]],[[[-9.843,51.624],[-9.837,51.645],[-9.902,51.638],[-9.909,51.615],[-9.843,51.624]]]]},"properties":{"name":"Cork South-West","name_ga":"Corcaigh Thiar Theas","seats":3}},{"type":"Feature","geometry":{"type":"MultiPolygon","coordinates":[[[[-9.345,52.59],[-9.373,52.602],[-9.408,52.592],[-9.437,52.596],[-9.635,52.599],[-9.68,52.573],[-9.661,52.557],[-9.689,52.483],[-9.744,52.469],[-9.758,52.455],[-9.825,52.435],[-9.866,52.427],[-9.919,52.431],[-9.943,52.422],[-9.93,52.401],[-9.838,52.39],[-9.835,52.325],[-9.868,52.302],[-9.874,52.281],[-9.754,52.268],[-9.747,52.257],[-9.805,52.244],[-9.837,52.248],[-9.896,52.229],[-9.95,52.232],[-9.998,52.25],[-10.021,52.267],[-10.05,52.267],[-10.084,52.249],[-10.137,52.239],[-10.171,52.243],[-10.158,52.288],[-10.179,52.291],[-10.22,52.276],[-10.261,52.27],[-10.295,52.257],[-10.306,52.241],[-10.346,52.233],[-10.356,52.211],[-10.378,52.197],[-10.384,52.179],[-10.415,52.184],[-10.411,52.207],[-10.471,52.182],[-10.449,52.173],[-10.47,52.135],[-10.452,52.097],[-10.393,52.106],[-10.356,52.106],[-10.361,52.132],[-10.291,52.111],[-10.258,52.121],[-10.215,52.124],[-10.195,52.108],[-10.16,52.12],[-10.129,52.114],[-10.051,52.137],[-9.987,52.144],[-9.958,52.113],[-9.946,52.127],[-9.968,52.141],[-9.865,52.16],[-9.824,52.16],[-9.792,52.152],[-9.813,52.132],[-9.85,52.116],[-9.89,52.111],[-9.925,52.096],[-9.94,52.076],[-9.984,52.051],[-10.031,52.037],[-10.057,52.04],[-10.208,52.002],[-10.211,51.992],[-10.257,51.992],[-10.28,51.97],[-10.309,51.962],[-10.246,51.94],[-10.27,51.934],[-10.249,51.911],[-10.398,51.879],[-10.384,51.86],[-10.39,51.842],[-10.341,51.844],[-10.335,51.804],[-10.34,51.784],[-10.283,51.803],[-10.272,51.824],[-10.245,51.844],[-10.207,51.846],[-10.173,51.825],[-10.178,51.766],[-10.143,51.76],[-10.136,51.745],[-10.016,51.771],[-9.948,51.801],[-9.908,51.804],[-9.896,51.814],[-9.85,51.808],[-9.83,51.826],[-9.785,51.834],[-9.746,51.849],[-9.658,51.87],[-9.624,51.867],[-9.662,51.844],[-9.725,51.837],[-9.789,51.798],[-9.803,51.761],[-9.846,51.778],[-9.857,51.751],[-9.824,51.717],[-9.822,51.688],[-9.792,51.692],[-9.761,51.72],[-9.708,51.744],[-9.664,51.75],[-9.623,51.786],[-9.566,51.79],[-9.481,51.79],[-9.446,51.807],[-9.438,51.823],[-9.36,51.836],[-9.33,51.846],[-9.279,51.894],[-9.302,51.924],[-9.303,51.946],[-9.262,51.96],[-9.255,51.97],[-9.195,51.982],[-9.138,51.983],[-9.132,52.006],[-9.161,52.006],[-9.184,52.027],[-9.212,52.023],[-9.221,52.055],[-9.208,52.072],[-9.208,52.105],[-9.226,52.119],[-9.24,52.146],[-9.232,52.177],[-9.276,52.23],[-9.27,52.25],[-9.217,52.298],[-9.24,52.322],[-9.306,52.338],[-9.347,52.361],[-9.311,52.376],[-9.303,52.389],[-9.339,52.404],[-9.328,52.423],[-9.307,52.429],[-9.34,52.463],[-9.297,52.496],[-9.305,52.521],[-9.348,52.541],[-9.338,52.562],[-9.368,52.574],[-9.345,52.59]]],[[[-10.339,51.898],[-10.307,51.906],[-10.288,51.927],[-10.35,51.925],[-10.396,51.914],[-10.423,51.899],[-10.356,51.89],[-10.339,51.898]]]]},"properties":{"name":"Kerry","name_ga":"Ciarraí","seats":5}}]}
