{
  "type": "FeatureCollection",
  "name": "Dail_Constituencies_2023_Sample",
  "crs": {
    "type": "name",
    "properties": {
      "name": "urn:ogc:def:crs:OGC:1.3:CRS84"
    }
  },
  "features": [
    {
      "type": "Feature",
      "properties": {
        "ENGLISH": "Carlow-Kilkenny",
        "COUNTY": "Carlow/Kilkenny",
        "SEATS": 5,
        "POPULATION_2022": 165000,
        "TD_POP_RATIO": 33000.0,
        "OBJECTID": 1
      },
      "geometry": {
        "type": "Polygon",
        "coordinates": [
          [
            [
              -7.5,
              52.5
            ],
            [
              -6.9,
              52.5
            ],
            [
              -6.9,
              53.0
            ],
            [
              -7.5,
              53.0
            ],
            [
              -7.5,
              52.5
            ]
          ]
        ]
      }
    },
    {
      "type": "Feature",
      "properties": {
        "ENGLISH": "Cavan-Monaghan",
        "COUNTY": "Cavan/Monaghan",
        "SEATS": 5,
        "POPULATION_2022": 155000,
        "TD_POP_RATIO": 31000.0,
        "OBJECTID": 2
      },
      "geometry": {
        "type": "Polygon",
        "coordinates": [
          [
            [
              -7.8,
              53.8
            ],
            [
              -6.5,
              53.8
            ],
            [
              -6.5,
              54.3
            ],
            [
              -7.8,
              54.3
            ],
            [
              -7.8,
              53.8
            ]
          ]
        ]
      }
    },
    {
      "type": "Feature",
      "properties": {
        "ENGLISH": "Clare",
        "COUNTY": "Clare",
        "SEATS": 4,
        "POPULATION_2022": 132000,
        "TD_POP_RATIO": 33000.0,
        "OBJECTID": 3
      },
      "geometry": {
        "type": "Polygon",
        "coordinates": [
          [
            [
              -10.0,
              52.5
            ],
            [
              -8.5,
              52.5
            ],
            [
              -8.5,
              53.2
            ],
            [
              -10.0,
              53.2
            ],
            [
              -10.0,
              52.5
            ]
          ]
        ]
      }
    },
    {
      "type": "Feature",
      "properties": {
        "ENGLISH": "Cork East",
        "COUNTY": "Cork",
        "SEATS": 4,
        "POPULATION_2022": 130000,
        "TD_POP_RATIO": 32500.0,
        "OBJECTID": 4
      },
      "geometry": {
        "type": "Polygon",
        "coordinates": [
          [
            [
              -8.5,
              51.7
            ],
            [
              -7.8,
              51.7
            ],
            [
              -7.8,
              52.2
            ],
            [
              -8.5,
              52.2
            ],
            [
              -8.5,
              51.7
            ]
          ]
        ]
      }
    },
    {
      "type": "Feature",
      "properties": {
        "ENGLISH": "Cork North-Central",
        "COUNTY": "Cork City",
        "SEATS": 4,
        "POPULATION_2022": 128000,
        "TD_POP_RATIO": 32000.0,
        "OBJECTID": 5
      },
      "geometry": {
        "type": "Polygon",
        "coordinates": [
          [
            [
              -8.6,
              51.85
            ],
            [
              -8.3,
              51.85
            ],
            [
              -8.3,
              52.0
            ],
            [
              -8.6,
              52.0
            ],
            [
              -8.6,
              51.85
            ]
          ]
        ]
      }
    },
    {
      "type": "Feature",
      "properties": {
        "ENGLISH": "Cork North-West",
        "COUNTY": "Cork",
        "SEATS": 3,
        "POPULATION_2022": 98000,
        "TD_POP_RATIO": 32666.666666666668,
        "OBJECTID": 6
      },
      "geometry": {
        "type": "Polygon",
        "coordinates": [
          [
            [
              -9.5,
              51.8
            ],
            [
              -8.6,
              51.8
            ],
            [
              -8.6,
              52.3
            ],
            [
              -9.5,
              52.3
            ],
            [
              -9.5,
              51.8
            ]
          ]
        ]
      }
    },
    {
      "type": "Feature",
      "properties": {
        "ENGLISH": "Cork South-Central",
        "COUNTY": "Cork City",
        "SEATS": 4,
        "POPULATION_2022": 131000,
        "TD_POP_RATIO": 32750.0,
        "OBJECTID": 7
      },
      "geometry": {
        "type": "Polygon",
        "coordinates": [
          [
            [
              -8.6,
              51.7
            ],
            [
              -8.3,
              51.7
            ],
            [
              -8.3,
              51.85
            ],
            [
              -8.6,
              51.85
            ],
            [
              -8.6,
              51.7
            ]
          ]
        ]
      }
    },
    {
      "type": "Feature",
      "properties": {
        "ENGLISH": "Cork South-West",
        "COUNTY": "Cork",
        "SEATS": 3,
        "POPULATION_2022": 96000,
        "TD_POP_RATIO": 32000.0,
        "OBJECTID": 8
      },
      "geometry": {
        "type": "Polygon",
        "coordinates": [
          [
            [
              -10.0,
              51.4
            ],
            [
              -9.0,
              51.4
            ],
            [
              -9.0,
              51.8
            ],
            [
              -10.0,
              51.8
            ],
            [
              -10.0,
              51.4
            ]
          ]
        ]
      }
    },
    {
      "type": "Feature",
      "properties": {
        "ENGLISH": "Dublin Bay North",
        "COUNTY": "Dublin",
        "SEATS": 5,
        "POPULATION_2022": 161000,
        "TD_POP_RATIO": 32200.0,
        "OBJECTID": 9
      },
      "geometry": {
        "type": "Polygon",
        "coordinates": [
          [
            [
              -6.25,
              53.35
            ],
            [
              -6.1,
              53.35
            ],
            [
              -6.1,
              53.45
            ],
            [
              -6.25,
              53.45
            ],
            [
              -6.25,
              53.35
            ]
          ]
        ]
      }
    },
    {
      "type": "Feature",
      "properties": {
        "ENGLISH": "Dublin Bay South",
        "COUNTY": "Dublin",
        "SEATS": 4,
        "POPULATION_2022": 132920,
        "TD_POP_RATIO": 33230.0,
        "OBJECTID": 10
      },
      "geometry": {
        "type": "Polygon",
        "coordinates": [
          [
            [
              -6.3,
              53.3
            ],
            [
              -6.2,
              53.3
            ],
            [
              -6.2,
              53.35
            ],
            [
              -6.3,
              53.35
            ],
            [
              -6.3,
              53.3
            ]
          ]
        ]
      }
    },
    {
      "type": "Feature",
      "properties": {
        "ENGLISH": "Dublin Central",
        "COUNTY": "Dublin",
        "SEATS": 4,
        "POPULATION_2022": 125000,
        "TD_POP_RATIO": 31250.0,
        "OBJECTID": 11
      },
      "geometry": {
        "type": "Polygon",
        "coordinates": [
          [
            [
              -6.35,
              53.33
            ],
            [
              -6.25,
              53.33
            ],
            [
              -6.25,
              53.38
            ],
            [
              -6.35,
              53.38
            ],
            [
              -6.35,
              53.33
            ]
          ]
        ]
      }
    },
    {
      "type": "Feature",
      "properties": {
        "ENGLISH": "Dublin Fingal East",
        "COUNTY": "Dublin",
        "SEATS": 4,
        "POPULATION_2022": 130000,
        "TD_POP_RATIO": 32500.0,
        "OBJECTID": 12
      },
      "geometry": {
        "type": "Polygon",
        "coordinates": [
          [
            [
              -6.2,
              53.45
            ],
            [
              -6.0,
              53.45
            ],
            [
              -6.0,
              53.55
            ],
            [
              -6.2,
              53.55
            ],
            [
              -6.2,
              53.45
            ]
          ]
        ]
      }
    },
    {
      "type": "Feature",
      "properties": {
        "ENGLISH": "Dublin Fingal West",
        "COUNTY": "Dublin",
        "SEATS": 3,
        "POPULATION_2022": 99000,
        "TD_POP_RATIO": 33000.0,
        "OBJECTID": 13
      },
      "geometry": {
        "type": "Polygon",
        "coordinates": [
          [
            [
              -6.4,
              53.45
            ],
            [
              -6.2,
              53.45
            ],
            [
              -6.2,
              53.55
            ],
            [
              -6.4,
              53.55
            ],
            [
              -6.4,
              53.45
            ]
          ]
        ]
      }
    },
    {
      "type": "Feature",
      "properties": {
        "ENGLISH": "Dublin Mid-West",
        "COUNTY": "Dublin",
        "SEATS": 4,
        "POPULATION_2022": 134000,
        "TD_POP_RATIO": 33500.0,
        "OBJECTID": 14
      },
      "geometry": {
        "type": "Polygon",
        "coordinates": [
          [
            [
              -6.5,
              53.3
            ],
            [
              -6.35,
              53.3
            ],
            [
              -6.35,
              53.4
            ],
            [
              -6.5,
              53.4
            ],
            [
              -6.5,
              53.3
            ]
          ]
        ]
      }
    },
    {
      "type": "Feature",
      "properties": {
        "ENGLISH": "Dublin North-West",
        "COUNTY": "Dublin",
        "SEATS": 4,
        "POPULATION_2022": 127000,
        "TD_POP_RATIO": 31750.0,
        "OBJECTID": 15
      },
      "geometry": {
        "type": "Polygon",
        "coordinates": [
          [
            [
              -6.4,
              53.38
            ],
            [
              -6.25,
              53.38
            ],
            [
              -6.25,
              53.45
            ],
            [
              -6.4,
              53.45
            ],
            [
              -6.4,
              53.38
            ]
          ]
        ]
      }
    },
    {
      "type": "Feature",
      "properties": {
        "ENGLISH": "Galway East",
        "COUNTY": "Galway",
        "SEATS": 3,
        "POPULATION_2022": 97000,
        "TD_POP_RATIO": 32333.333333333332,
        "OBJECTID": 16
      },
      "geometry": {
        "type": "Polygon",
        "coordinates": [
          [
            [
              -9.0,
              53.2
            ],
            [
              -8.0,
              53.2
            ],
            [
              -8.0,
              53.6
            ],
            [
              -9.0,
              53.6
            ],
            [
              -9.0,
              53.2
            ]
          ]
        ]
      }
    },
    {
      "type": "Feature",
      "properties": {
        "ENGLISH": "Galway West",
        "COUNTY": "Galway",
        "SEATS": 5,
        "POPULATION_2022": 158000,
        "TD_POP_RATIO": 31600.0,
        "OBJECTID": 17
      },
      "geometry": {
        "type": "Polygon",
        "coordinates": [
          [
            [
              -10.2,
              53.0
            ],
            [
              -9.0,
              53.0
            ],
            [
              -9.0,
              53.6
            ],
            [
              -10.2,
              53.6
            ],
            [
              -10.2,
              53.0
            ]
          ]
        ]
      }
    },
    {
      "type": "Feature",
      "properties": {
        "ENGLISH": "Kerry",
        "COUNTY": "Kerry",
        "SEATS": 5,
        "POPULATION_2022": 156000,
        "TD_POP_RATIO": 31200.0,
        "OBJECTID": 18
      },
      "geometry": {
        "type": "Polygon",
        "coordinates": [
          [
            [
              -10.5,
              51.7
            ],
            [
              -9.5,
              51.7
            ],
            [
              -9.5,
              52.5
            ],
            [
              -10.5,
              52.5
            ],
            [
              -10.5,
              51.7
            ]
          ]
        ]
      }
    },
    {
      "type": "Feature",
      "properties": {
        "ENGLISH": "Laois-Offaly",
        "COUNTY": "Laois/Offaly",
        "SEATS": 5,
        "POPULATION_2022": 159000,
        "TD_POP_RATIO": 31800.0,
        "OBJECTID": 19
      },
      "geometry": {
        "type": "Polygon",
        "coordinates": [
          [
            [
              -8.2,
              52.8
            ],
            [
              -7.0,
              52.8
            ],
            [
              -7.0,
              53.5
            ],
            [
              -8.2,
              53.5
            ],
            [
              -8.2,
              52.8
            ]
          ]
        ]
      }
    },
    {
      "type": "Feature",
      "properties": {
        "ENGLISH": "Limerick City",
        "COUNTY": "Limerick",
        "SEATS": 4,
        "POPULATION_2022": 128000,
        "TD_POP_RATIO": 32000.0,
        "OBJECTID": 20
      },
      "geometry": {
        "type": "Polygon",
        "coordinates": [
          [
            [
              -8.75,
              52.6
            ],
            [
              -8.5,
              52.6
            ],
            [
              -8.5,
              52.75
            ],
            [
              -8.75,
              52.75
            ],
            [
              -8.75,
              52.6
            ]
          ]
        ]
      }
    }
  ],
  "_metadata": {
    "is_sample": true,
    "sample_count": 20,
    "production_count": 43,
    "note": "Sample data for development. Download full dataset from Electoral Commission for production."
  }
}