{
  "type": "FeatureCollection",
  "name": "Electoral_Districts_Sample",
  "crs": {
    "type": "name",
    "properties": {
      "name": "urn:ogc:def:crs:OGC:1.3:CRS84"
    }
  },
  "features": [
    {
      "type": "Feature",
      "properties": {
        "CSOED_34_1": "01001",
        "ED_ENGLISH": "Carlow Urban",
        "COUNTY": "Carlow",
        "POPULATION_2022": 20504,
        "HOUSEHOLDS_2022": 8202,
        "TOTAL_AREA_KM2": 12.5,
        "OBJECTID": 1001
      },
      "geometry": {
        "type": "Polygon",
        "coordinates": [
          [
            [
              -6.9261,
              52.8386
            ],
            [
              -6.9361,
              52.8386
            ],
            [
              -6.9361,
              52.8286
            ],
            [
              -6.9261,
              52.8286
            ],
            [
              -6.9261,
              52.8386
            ]
          ]
        ]
      }
    },
    {
      "type": "Feature",
      "properties": {
        "CSOED_34_1": "01002",
        "ED_ENGLISH": "Carlow Rural",
        "COUNTY": "Carlow",
        "POPULATION_2022": 3789,
        "HOUSEHOLDS_2022": 1516,
        "TOTAL_AREA_KM2": 12.5,
        "OBJECTID": 1002
      },
      "geometry": {
        "type": "Polygon",
        "coordinates": [
          [
            [
              -6.9561,
              52.8586
            ],
            [
              -6.9661,
              52.8586
            ],
            [
              -6.9661,
              52.8486
            ],
            [
              -6.9561,
              52.8486
            ],
            [
              -6.9561,
              52.8586
            ]
          ]
        ]
      }
    },
    {
      "type": "Feature",
      "properties": {
        "CSOED_34_1": "02001",
        "ED_ENGLISH": "Cavan",
        "COUNTY": "Cavan",
        "POPULATION_2022": 4356,
        "HOUSEHOLDS_2022": 1742,
        "TOTAL_AREA_KM2": 12.5,
        "OBJECTID": 2001
      },
      "geometry": {
        "type": "Polygon",
        "coordinates": [
          [
            [
              -7.3603,
              53.9907
            ],
            [
              -7.3703,
              53.9907
            ],
            [
              -7.3703,
              53.9807
            ],
            [
              -7.3603,
              53.9807
            ],
            [
              -7.3603,
              53.9907
            ]
          ]
        ]
      }
    },
    {
      "type": "Feature",
      "properties": {
        "CSOED_34_1": "03001",
        "ED_ENGLISH": "Ennis No. 1 Urban",
        "COUNTY": "Clare",
        "POPULATION_2022": 8742,
        "HOUSEHOLDS_2022": 3497,
        "TOTAL_AREA_KM2": 12.5,
        "OBJECTID": 3001
      },
      "geometry": {
        "type": "Polygon",
        "coordinates": [
          [
            [
              -8.9861,
              52.843
            ],
            [
              -8.9961,
              52.843
            ],
            [
              -8.9961,
              52.833
            ],
            [
              -8.9861,
              52.833
            ],
            [
              -8.9861,
              52.843
            ]
          ]
        ]
      }
    },
    {
      "type": "Feature",
      "properties": {
        "CSOED_34_1": "04001",
        "ED_ENGLISH": "Cork City North A",
        "COUNTY": "Cork City",
        "POPULATION_2022": 3456,
        "HOUSEHOLDS_2022": 1382,
        "TOTAL_AREA_KM2": 12.5,
        "OBJECTID": 4001
      },
      "geometry": {
        "type": "Polygon",
        "coordinates": [
          [
            [
              -8.4756,
              51.9014
            ],
            [
              -8.4856,
              51.9014
            ],
            [
              -8.4856,
              51.8914
            ],
            [
              -8.4756,
              51.8914
            ],
            [
              -8.4756,
              51.9014
            ]
          ]
        ]
      }
    },
    {
      "type": "Feature",
      "properties": {
        "CSOED_34_1": "04002",
        "ED_ENGLISH": "Cork City South A",
        "COUNTY": "Cork City",
        "POPULATION_2022": 2987,
        "HOUSEHOLDS_2022": 1195,
        "TOTAL_AREA_KM2": 12.5,
        "OBJECTID": 4002
      },
      "geometry": {
        "type": "Polygon",
        "coordinates": [
          [
            [
              -8.4656,
              51.8914
            ],
            [
              -8.4756,
              51.8914
            ],
            [
              -8.4756,
              51.8814
            ],
            [
              -8.4656,
              51.8814
            ],
            [
              -8.4656,
              51.8914
            ]
          ]
        ]
      }
    },
    {
      "type": "Feature",
      "properties": {
        "CSOED_34_1": "07001",
        "ED_ENGLISH": "Dublin City Artane A",
        "COUNTY": "Dublin City",
        "POPULATION_2022": 3254,
        "HOUSEHOLDS_2022": 1302,
        "TOTAL_AREA_KM2": 12.5,
        "OBJECTID": 7001
      },
      "geometry": {
        "type": "Polygon",
        "coordinates": [
          [
            [
              -6.1914,
              53.3849
            ],
            [
              -6.2014,
              53.3849
            ],
            [
              -6.2014,
              53.3749
            ],
            [
              -6.1914,
              53.3749
            ],
            [
              -6.1914,
              53.3849
            ]
          ]
        ]
      }
    },
    {
      "type": "Feature",
      "properties": {
        "CSOED_34_1": "07002",
        "ED_ENGLISH": "Dublin City Artane B",
        "COUNTY": "Dublin City",
        "POPULATION_2022": 4123,
        "HOUSEHOLDS_2022": 1649,
        "TOTAL_AREA_KM2": 12.5,
        "OBJECTID": 7002
      },
      "geometry": {
        "type": "Polygon",
        "coordinates": [
          [
            [
              -6.2014,
              53.3849
            ],
            [
              -6.2114,
              53.3849
            ],
            [
              -6.2114,
              53.3749
            ],
            [
              -6.2014,
              53.3749
            ],
            [
              -6.2014,
              53.3849
            ]
          ]
        ]
      }
    },
    {
      "type": "Feature",
      "properties": {
        "CSOED_34_1": "07003",
        "ED_ENGLISH": "Rathmines West A",
        "COUNTY": "Dublin City",
        "POPULATION_2022": 2876,
        "HOUSEHOLDS_2022": 1150,
        "TOTAL_AREA_KM2": 12.5,
        "OBJECTID": 7003
      },
      "geometry": {
        "type": "Polygon",
        "coordinates": [
          [
            [
              -6.2658,
              53.325
            ],
            [
              -6.2758,
              53.325
            ],
            [
              -6.2758,
              53.315
            ],
            [
              -6.2658,
              53.315
            ],
            [
              -6.2658,
              53.325
            ]
          ]
        ]
      }
    },
    {
      "type": "Feature",
      "properties": {
        "CSOED_34_1": "07004",
        "ED_ENGLISH": "Rathmines West B",
        "COUNTY": "Dublin City",
        "POPULATION_2022": 3012,
        "HOUSEHOLDS_2022": 1205,
        "TOTAL_AREA_KM2": 12.5,
        "OBJECTID": 7004
      },
      "geometry": {
        "type": "Polygon",
        "coordinates": [
          [
            [
              -6.2758,
              53.325
            ],
            [
              -6.2858,
              53.325
            ],
            [
              -6.2858,
              53.315
            ],
            [
              -6.2758,
              53.315
            ],
            [
              -6.2758,
              53.325
            ]
          ]
        ]
      }
    },
    {
      "type": "Feature",
      "properties": {
        "CSOED_34_1": "07005",
        "ED_ENGLISH": "Rathmines West C",
        "COUNTY": "Dublin City",
        "POPULATION_2022": 1234,
        "HOUSEHOLDS_2022": 494,
        "TOTAL_AREA_KM2": 12.5,
        "OBJECTID": 7005
      },
      "geometry": {
        "type": "Polygon",
        "coordinates": [
          [
            [
              -6.2658,
              53.315
            ],
            [
              -6.2758,
              53.315
            ],
            [
              -6.2758,
              53.305
            ],
            [
              -6.2658,
              53.305
            ],
            [
              -6.2658,
              53.315
            ]
          ]
        ]
      }
    },
    {
      "type": "Feature",
      "properties": {
        "CSOED_34_1": "10001",
        "ED_ENGLISH": "Galway City East",
        "COUNTY": "Galway City",
        "POPULATION_2022": 5678,
        "HOUSEHOLDS_2022": 2271,
        "TOTAL_AREA_KM2": 12.5,
        "OBJECTID": 10001
      },
      "geometry": {
        "type": "Polygon",
        "coordinates": [
          [
            [
              -9.03,
              53.275
            ],
            [
              -9.04,
              53.275
            ],
            [
              -9.04,
              53.265
            ],
            [
              -9.03,
              53.265
            ],
            [
              -9.03,
              53.275
            ]
          ]
        ]
      }
    },
    {
      "type": "Feature",
      "properties": {
        "CSOED_34_1": "13001",
        "ED_ENGLISH": "Killarney Urban",
        "COUNTY": "Kerry",
        "POPULATION_2022": 6543,
        "HOUSEHOLDS_2022": 2617,
        "TOTAL_AREA_KM2": 12.5,
        "OBJECTID": 13001
      },
      "geometry": {
        "type": "Polygon",
        "coordinates": [
          [
            [
              -9.5074,
              52.0583
            ],
            [
              -9.5174,
              52.0583
            ],
            [
              -9.5174,
              52.0483
            ],
            [
              -9.5074,
              52.0483
            ],
            [
              -9.5074,
              52.0583
            ]
          ]
        ]
      }
    },
    {
      "type": "Feature",
      "properties": {
        "CSOED_34_1": "15001",
        "ED_ENGLISH": "Portlaoise Urban",
        "COUNTY": "Laois",
        "POPULATION_2022": 8123,
        "HOUSEHOLDS_2022": 3249,
        "TOTAL_AREA_KM2": 12.5,
        "OBJECTID": 15001
      },
      "geometry": {
        "type": "Polygon",
        "coordinates": [
          [
            [
              -7.2994,
              53.0341
            ],
            [
              -7.3094,
              53.0341
            ],
            [
              -7.3094,
              53.0241
            ],
            [
              -7.2994,
              53.0241
            ],
            [
              -7.2994,
              53.0341
            ]
          ]
        ]
      }
    },
    {
      "type": "Feature",
      "properties": {
        "CSOED_34_1": "16001",
        "ED_ENGLISH": "Limerick City North A",
        "COUNTY": "Limerick City",
        "POPULATION_2022": 3456,
        "HOUSEHOLDS_2022": 1382,
        "TOTAL_AREA_KM2": 12.5,
        "OBJECTID": 16001
      },
      "geometry": {
        "type": "Polygon",
        "coordinates": [
          [
            [
              -8.6233,
              52.67
            ],
            [
              -8.6333,
              52.67
            ],
            [
              -8.6333,
              52.66
            ],
            [
              -8.6233,
              52.66
            ],
            [
              -8.6233,
              52.67
            ]
          ]
        ]
      }
    }
  ],
  "_metadata": {
    "is_sample": true,
    "sample_count": 15,
    "production_count": 3440,
    "note": "Sample data for development. Download full dataset from data.gov.ie for production."
  }
}